,name,source_full_address,full_address,street_number,street_name,unit,city,province,provider
3130,TIPASKAN EDUCATIONAL OUT OF SCHOOL CARE,3216 82 STREET,3216 82 STREET,3216,82 street,,EDMONTON,,Province of Alberta
17192,Kelly's Home Daycare,3641 keith ave. Chelmsford ON,3641 keith ave ,3641,keith ave,,Chelmsford,Ontario,GoDayCare.com
15741,Kids And Company Red Deer,210 - 8 Conway Street Red Deer AB,210 8 conway street ,210 8,conway street,,Red Deer,Alberta,GoDayCare.com
19797,Huckleberry House Children's Centre,2853 Mine Road,2853 Mine Road,2853,mine road,,Port McNeill,,Province of British Columbia
24046,Camelot For Kids,2892 Mountain Hwy,2892 Mountain Hwy,2892,mountain hwy,,North Vancouver,,Province of British Columbia
9778,Le Relais Sts-Martyrs,,nan,425,Teefy Street,,Iroquois Falls,ON,Province of Ontario
14733,Fleming Junior Y (YMCA),,nan,22,Littles Road,,Toronto,ON,Province of Ontario
12421,OAKVILLE FAMILY YMCA SACC - SHERIDAN,,nan,1555,Lancaster Drive,,Oakville,ON,Province of Ontario
5579,CPE ARC-EN-CIEL,"1650, rue Dominion",1650 rue Dominion,1650,rue dominion,,Sherbrooke,,Province of Quèbec
8454,CENTRE DE LA PETITE ENFANCE LA RELÈVE V.-S.,"2511, rue Paul-Gérin-Lajoie",2511 rue Paul-Gérin-Lajoie,2511,rue paul-gérin-lajoie,,Vaudreuil-Dorion,,Province of Quèbec
20543,East Hill Appletree,3605 12 St,3605 12 St,3605,12 st,,Vernon,,Province of British Columbia
12870,PALMERSTON CO-OPERATIVE NURSERY SCHOOL INC.,,nan,315,Main Street,,Palmerston,ON,Province of Ontario
3672,"CEMAB PRESCHOOL, KG, DAYCARE",1105 FALCONRIDGE DRIVE NE,1105 FALCONRIDGE DRIVE NE,1105,falconridge drive ne,,CALGARY,,Province of Alberta
21815,James Park Childcare Inc.,1715 Westminster Ave,1715 Westminster Ave,1715,westminster ave,,Port Coquitlam,,Province of British Columbia
12654,PLASP - Brookmede Public School,,nan,2250,Council Ring Road,,Mississauga,ON,Province of Ontario
16035,Kinder Joy Daycare,406 Glencoe Dr Port Moody BC,406 glencoe dr ,406,glencoe dr,,Port Moody,British Columbia,GoDayCare.com
3676,CHILD'S PLAY OUT OF SCHOOL CARE @ ST BENEDICT,10340 19 ST SW,10340 19 ST SW,10340,19 st sw,,CALGARY,,Province of Alberta
16180,Garderie Tourelou,806 rue de l'√âcole Beresford NB,806 rue de l'√âcole ,806,rue de l'√âcole,,Beresford,New Brunswick,GoDayCare.com
16007,EDGEMONT VILLAGE DAY CARE,RUBY AVE NORTH VANCOUVER BC,ruby ave north ,,ruby ave north,,North Vancouver,British Columbia,GoDayCare.com
8535,CENTRE DE LA PETITE ENFANCE LA PETITE ECOLE - INSTALLATION 2,"210, rue de l'Église",210 rue de l'Église,210,rue de l'église,,Saint-Sylvère,,Province of Quèbec
1058,SHAREBEAR PLAYSCHOOL,4720 52 STREET,4720 52 STREET,4720,52 street,,STETTLER,,Province of Alberta
2949,CASTLEDOWNS CHILDCARE,11852/11854 145 AVENUE,11852/11854 145 AVENUE,11852/11854,145 avenue,,EDMONTON,,Province of Alberta
20791,Carr Group Childcare (School Age Care),4070 Oak St,4070 Oak St,4070,oak st,,Vancouver,,Province of British Columbia
3855,DOMINELLI FINE ARTS PRESCHOOL,"206, 16733 - 84 STREET",206 16733 84 STREET,206,16733 84 street,,EDMONTON,,Province of Alberta
3288,YMCA TWIN BROOKS OUT OF SCHOOL CARE,1120 113 STREET,1120 113 STREET,1120,113 street,,EDMONTON,,Province of Alberta
11105,Norman Village Montessori School,,nan,13,Deacon Lane,,Kenora,ON,Province of Ontario
16301,Garderie Des P'tites √âtoiles,180 Alexandrina Road Notre Dame NB,180 alexandrina road ,180,alexandrina road,,Notre Dame,New Brunswick,GoDayCare.com
3639,BLUE BIRD CHILD CARE CENTRE (WEST END),18204 84 AVENUE,18204 84 AVENUE,18204,84 avenue,,EDMONTON,,Province of Alberta
24751,Gloria Klemenz,"1150 Bogue Avenue, Moose Jaw, SK, S6H 4M5",1150 bogue avenue ,1150,bogue avenue,,,,Province of Saskatchewan
19990,Leap Forward,2758 Peatt Rd,2758 Peatt Rd,2758,peatt rd,,Victoria,,Province of British Columbia
4415,Family or Group Child Care Home *,None,None,,,,,,Province of Manitoba
6621,GARDERIE LES TWEETOONS,"10431A, boulevard Gouin Ouest",10431A boulevard Gouin Ouest,10431a,boulevard gouin ouest,,Roxboro,,Province of Quèbec
12909,Waubeek Early Learning and Child Care Centre,,nan,66,Waubeek Street,,Parry Sound,ON,Province of Ontario
8157,LES FRIMOUSSES DE LA VALLÉE,"300, rue des Camélias",300 rue des Camélias,300,rue des camélias,,McMasterville,,Province of Quèbec
23527,Surrey Christian School Early Learning Centre - Cloverdale,5950 179 St,5950 179 St,5950,179 st,,Surrey,,Province of British Columbia
2011,YMCA CLAIRMONT OUT OF SCHOOL CARE,10407 - 97 STREET,10407 97 STREET,10407,97 street,,CLAIRMONT,,Province of Alberta
18994,Victoria Children's Centre (Prince Albert),91 PRINCE ALBERT RD.,91 PRINCE ALBERT RD,91,prince albert rd,,DARTMOUTH,,Province of Nova Scotia
7252,CENTRE DE LA PETITE ENFANCE LE CHAMPIGNON,"1164, boulevard Lemay",1164 boulevard Lemay,1164,boulevard lemay,,Thetford Mines,,Province of Quèbec
12923,Tiny Trojans Child Care Centre,,nan,7935,Kennedy Road,,BRAMPTON,ON,Province of Ontario
20570,Brookswood Kids Place Inc.,20390 40Th Ave,20390 40Th Ave,20390,40th ave,,Langley,,Province of British Columbia
20495,Growing Patch (The),6221 Tasa Pl,6221 Tasa Pl,6221,tasa pl,,Prince George,,Province of British Columbia
6867,CENTRE DE LA PETITE ENFANCE LE BONJOUR,"65, rue Smith",65 rue Smith,65,rue smith,,Gatineau,,Province of Quèbec
15986,Helping Hands Multi-Age Family Daycare,Metral Drive Nanaimo BC,metral drive ,,metral drive,,Nanaimo,British Columbia,GoDayCare.com
1036,MINI FRIENDS DAYCARE 2,12950/52 82 STREET,12950/52 82 STREET,12950/52,82 street,,EDMONTON,,Province of Alberta
15272,Lucan YMCA Child Care Centre,,nan,265,Main Street,,Lucan,ON,Province of Ontario
11990,Maple Tree Preschool - St. Benedict's Site,,nan,2993,Algonquin Road,,Sudbury,ON,Province of Ontario
10866,Gwillimbury Hills Day Care,,nan,18907,Leslie Street,,Sharon,ON,Province of Ontario
852,THE SCHOOL OF ATLANTIC BALLET ARTS AFTER SCHOOL PROGRAM 1,200 68 Highfield Street Moncton E1C 5N3 (506) 383-5951,200 68 highfield street ,200 68,highfield street,,,,Province of New Brunswick
10397,East Plains Co-op Preschool,,nan,375,Plains Road,,Burlington,ON,Province of Ontario
13875,The Magic Kingdom Learning Centre,,nan,179,Church Street,,Newmarket,ON,Province of Ontario
16829,Family Home Daycare,161 raymond rd Ancaster ON,161 raymond rd ,161,raymond rd,,Ancaster,Ontario,GoDayCare.com
10560,First Baptist Church - Teddy Bear Day Care - St. Paul Site,,nan,1,Edward Street,,Coniston,ON,Province of Ontario
24643,Lesleigh Leroux,"212 Crenshaw Way, Warman, SK, S0K 4S1",212 crenshaw way ,212,crenshaw way,,,,Province of Saskatchewan
2713,BRIGHTPATH MARLBOROUGH,4603 MARBANK DRIVE NE,4603 MARBANK DRIVE NE,4603,marbank drive ne,,CALGARY,,Province of Alberta
7186,LE MONDE DE KIWI (PAVILLON MARIE-VICTORIN),"265, route Marie-Victorin",265 route Marie-Victorin,265,route marie-victorin,,Lévis,,Province of Quèbec
10722,GENERATIONS DAY CARE - SOUTH PLYMPTON SITE,,nan,4741,Confederation Line,,Wyoming,ON,Province of Ontario
12202,Brockton Child Care Centre,,nan,81,Cemetary Road,,Walkerton,ON,Province of Ontario
4033,Dalhousie Day Care Inc.,"262 Dalhousie Drive Winnipeg, MB",262 dalhousie drive ,262,dalhousie drive,,,,Province of Manitoba
18587,Centre De La Petite Enfance La Butte ÃÄ Moineaux,575 Rue Sainte-HÃ©lÃ¨ne QuÃ©bec QC,"575 Rue Sainte HÃ©lÃ¨ne QuÃ©bec QC, Canada",575,rue sainte,,Quebec,Quebec,GoDayCare.com
14876,Windham Ridge YMCA Before and After School Program,,nan,32,Red Cardinal Trail,,Richmond Hill,ON,Province of Ontario
7292,CENTRE DE LA PETITE ENFANCE LA CACHETTE,"1650, montée Monette",1650 montée Monette,1650,montée monette,,Laval,,Province of Quèbec
3525,CHARLESWOOD DAY NURSERY LTD.,385 CAPRI AVENUE NW,385 CAPRI AVENUE NW,385,capri avenue nw,,CALGARY,,Province of Alberta
2871,THE LEARNING SEED AFTERSCHOOL PROGRAM,13620 93 STREET,13620 93 STREET,13620,93 street,,EDMONTON,,Province of Alberta
9191,Attawapiskat - Paytabun Child Care Centre,,nan,,P.O. Box 248,,Attawapiskat,ON,Province of Ontario
8955,ACW- St. Andrew,,nan,16,St.Andrew's Avenue,,Welland,ON,Province of Ontario
10425,Edukids Day Care Centre of Norfolk,,nan,227,Main Street,,Waterford,ON,Province of Ontario
1951,THE GLENCOE CLUB PRESCHOOL PROGRAM,636 - 29 AVE SW,636 29 AVE SW,636,29 ave sw,,CALGARY,,Province of Alberta
25062,Hummingbirds Preschool,"101-108 Jarvis Street, Y1A 2C8",101 108 Jarvis Street,101 108,jarvis street,,,,Yukon Territory
7785,CPE LES PETITS PATRIOTES INC.,"189, rue du Moulin",189 rue du Moulin,189,rue du moulin,,Saint-Eustache,,Province of Quèbec
14415,Wesley Licensed School Age Program - Lake Avenue School,,nan,157,Lake Avenue,,Hamilton,ON,Province of Ontario
1892,GLOBAL AWARE CARE - SUMMERSIDE,1103 95 STREET SW,1103 95 STREET SW,1103,95 street sw,,EDMONTON,,Province of Alberta
8607,Hopedale Montessori School - Palermo Campus,,nan,3114,DUNDAS Street,,Oakville,ON,Province of Ontario
12787,PLASP - Tecumseh Public School,,nan,1480,Chriseden Drive,,Mississauga,ON,Province of Ontario
4930,Blumenort Christian Preschool,"Rm B26,B70(71-76),B80(82,84,85,86,87,88) 59 Centre Avenue (Ave) Blumenort, MB",b26b70 ,,,,,,Province of Manitoba
11348,Kids Kingdom Daycare Inc,,nan,66,Hearst Way,,Kanata,ON,Province of Ontario
10594,Fort Albany First Nation Day Care Centre,,nan,,Day Care Centre,,Fort Albany,ON,Province of Ontario
21315,Percy's Clubhouse,2281 Henry Ave,2281 Henry Ave,2281,henry ave,,Sidney,,Province of British Columbia
14317,Village Child Care Centre Inc.,,nan,2976,Charleston Sideroad Road,,Caledon Village,ON,Province of Ontario
8330,GARDERIE BRIN D'ÉNERGIE,"608, rue Champlain",608 rue Champlain,608,rue champlain,,Saint-Jean-sur-Richelieu,,Province of Quèbec
11009,Hillmount Child Care Centre,,nan,245,McNicoll Avenue,,Toronto,ON,Province of Ontario
13653,The Learning Centre-Iroquois,,nan,66,Lakeview Drive,,Iroquois,ON,Province of Ontario
10131,Les Coccinelles Z√©l√©es,,nan,153,Church Rue,,St. Catharines,ON,Province of Ontario
21962,Natural Beginnings Child Care Centre,995 Heritage Cres,995 Heritage Cres,995,heritage cres,,Prince George,,Province of British Columbia
20434,Gibsons YMCA Child Care,783 School Rd,783 School Rd,783,school rd,,Gibsons,,Province of British Columbia
7961,"CENTRE DE LA PETITE ENFANCE ""PLAISIR D'ENFANT""","1860, rue Henriette",1860 rue Henriette,1860,rue henriette,,Carignan,,Province of Quèbec
4378,Promila Rose,None,None,,,,,,Province of Manitoba
21607,Wild And Wonderful Family Daycare,19091 117B Ave,19091 117B Ave,19091,117b ave,,Pitt Meadows,,Province of British Columbia
2644,EARLY LEARNING AND CHILDCARE CENTRE,5108 50TH AVE,5108 50TH AVE,5108,50th ave,,OLDS,,Province of Alberta
6726,GARDERIE DES ANGES GARDIENS,"4731, boulevard Robert",4731 boulevard Robert,4731,boulevard robert,,Saint-Léonard,,Province of Quèbec
14055,JingBao (Downtown) Bilingual Children's Centre (96 Denison Avenue),,nan,96,Denison Avenue,,Toronto,ON,Province of Ontario
3166,BOYS & GIRLS CLUB OF LETHBRIDGE - MAIN NORTH,1405 - 8 AVENUE NORTH,1405 8 AVENUE NORTH,1405,8 avenue north,,LETHBRIDGE,,Province of Alberta
298,GARDERIE ARLEQUIN II DAYCARE,444 Drive Mclaughlin Moncton E1A 4R4 (506) 857-8010,444 drive mclaughlin ,444,drive mclaughlin,,,,Province of New Brunswick
4805,Pierson Early Learning Centre Inc.,"Pierson School #1 School Road Pierson, MB",pierson school #1 school road ,,school road,,,,Province of Manitoba
3590,TLC DAYCARE,5201-50 ST,5201 50 ST,5201,50 st,,ST. PAUL,,Province of Alberta
16239,Bright Beginnings Daycare Inc.,486 Needham St. Fredericton NB,486 needham st ,486,needham st,,Fredericton,New Brunswick,GoDayCare.com
3833,BUILDING BLOCKS CHILDCARE CENTRES #3,"36 ROSS GLEN ROAD, SE",36 ROSS GLEN ROAD SE,36,ross glen road se,,MEDICINE HAT,,Province of Alberta
13088,Sweet Pea Preschool,,nan,2175,Blessington Avenue,,Kilbride,ON,Province of Ontario
777,ROCHE PAPIER STUDIO 2,98 Street Bonaccord Moncton E1C 5L1 (506) 874-0944,98 street bonaccord ,,98 street bonaccord,,,,Province of New Brunswick
1213,MANNING EARLY LEARNING & CHILD CARE CENTRE-THE LEARNING TREE,202 3RD AVENUE SE,202 3RD AVENUE SE,202,3rd avenue se,,MANNING,,Province of Alberta
24516,STC Urban Early Learning Centre (St. Frances School),"2141 McPherson Avenue, Saskatoon, SK, S7J 0S8 (Mailing: Suite 200 335 Packham Ave, S7N 4S1)",2141 mcpherson avenue ,2141,mcpherson avenue,,,,Province of Saskatchewan
18410,Garderie Sesame,5555 Westminster Ave Cote-saint-luc QC,5555 westminster ave ,5555,westminster ave,,Cote-saint-luc,Quebec,GoDayCare.com
17279,Sunshine Corner Nursery School And Day Care,249 Clairwood Crescent Corunna ON,249 clairwood crescent ,249,clairwood crescent,,Corunna,Ontario,GoDayCare.com
15216,"YMCA School Age, Burkevale",,nan,39,Burke Street,,Penetanguishene,ON,Province of Ontario
22222,Friendcare,1290 Novak Dr,1290 Novak Dr,1290,novak dr,,Coquitlam,,Province of British Columbia
667,LITTLE HARVARD AFTER SCHOOL HAVELOCK CAMPUS,576 Havelock Street Saint John E2M 2Y2 (506) 632-1300,576 havelock street ,576,havelock street,,,,Province of New Brunswick
1046,BRIGHT HORIZONS CHILDCARE ADA BLVD,7100 ADA BLVD,7100 ADA BLVD,7100,ada blvd,,EDMONTON,,Province of Alberta
16068,Positive Path Early Learning,2269 Mills Road Sidney BC,2269 mills road ,2269,mills road,,Sidney,British Columbia,GoDayCare.com
4515,Family or Group Child Care Home *,None,None,,,,,,Province of Manitoba
1451,RISING STARS LEARNING CENTRE INC,5-5519 SOUTH BOUNDARY ROAD SE,5 5519 SOUTH BOUNDARY ROAD SE,5,5519 south boundary road se,,CYPRESS COUNTY,,Province of Alberta
7779,CENTRE DE LA PETITE ENFANCE MINIPUCES,"50, côte Saint-Nicholas",50 côte Saint-Nicholas,50,côte saint-nicholas,,Saint-Colomban,,Province of Quèbec
4912,Winkler Day Care Centre Inc.,"851 Pembina Avenue (Ave) Winkler, MB",851 pembina avenue ,851,pembina avenue,,,,Province of Manitoba
5465,CENTRE DE LA PETITE ENFANCE LA TOURELLE DE L'ÉNERGIE,"1452, rue Gigaire",1452 rue Gigaire,1452,rue gigaire,,Shawinigan,,Province of Quèbec
21668,Laverne's Family Day Care,7610 St. Mark Cres,7610 St Mark Cres,7610,st mark cres,,Prince George,,Province of British Columbia
5114,LE JARDIN DE ROBI INC.,"870, rue Saint-Jean",870 rue Saint-Jean,870,rue saint-jean,,Roberval,,Province of Quèbec
11986,Maple Preschool Child Care,,nan,9920,Keele Street,,Maple,ON,Province of Ontario
19505,The Clubhouse At Cottonwoods,2255 Ethel Street,2255 Ethel Street,2255,ethel street,,Kelowna,,Province of British Columbia
12427,OAKVILLE FAMILY YMCA SACC - SUNNINGDALE,,nan,1434,Oxford Avenue,,Oakville,ON,Province of Ontario
3591,LITTLE HANDS MONTESSORI ACADEMY LTD.,79 ELIZABETH STREET,79 ELIZABETH STREET,79,elizabeth street,,OKOTOKS,,Province of Alberta
18625,West Island Daycare Rafikki And Me,15734 Boul Gouin West Ste-Genevieve QC,15734 boul gouin west ,15734,boul gouin west,,Ste-genevieve,Quebec,GoDayCare.com
14640,YMCA Ham/Burl - YMCA SACC - Mohawk Gardens,,nan,5280,Spruce Avenue,,Burlington,ON,Province of Ontario
10347,Dow's Lake Day Care / Garderie Lac Dow,,nan,580,Booth Street,,Ottawa,ON,Province of Ontario
2465,CALGARY ABORIGINAL HEAD START,3940 - 73 STREET NW,3940 73 STREET NW,3940,73 street nw,,CALGARY,,Province of Alberta
204,Chez Gisle,144 Street Goodine Fredericton E3B 9H5 (506) 459-0405,144 street goodine ,,144 street goodine,,,,Province of New Brunswick
8382,LA MAISONNÉE DES P'TITS INC.,"1420, place des Graminées",1420 place des Graminées,1420,place des graminées,,Saint-Rémi,,Province of Quèbec
11809,SCHOOL AGE PROGRAM - HOLY FAMILY CATHOLIC SCHOOL,,nan,329,Hudson Drive,,London,ON,Province of Ontario
11530,La Ribambelle Les Rapides,,nan,1103,Michigan Avenue,,Sarnia,ON,Province of Ontario
14316,Columbus Early Learning Centres,,nan,340,Falstaff Avenue,,Toronto,ON,Province of Ontario
11771,STONEYBROOK EARLY CHILDHOOD LEARNING CENTRE - KINDERGARTEN,,nan,548,Fanshawe Park Road,,London,ON,Province of Ontario
4026,Crestview Park Day Nursery Incorporated,"Rooms 2, 3, 4, 6, 7, Gym 37 Voyageur Avenue (Ave) Winnipeg, MB",rooms 2 3 4 6 7 gym 37 voyageur avenue ,37,voyageur avenue,,,,Province of Manitoba
12681,PLASP - Fr. C.W. Sullivan Catholic School,,nan,62,Seaborn Road,,Brampton,ON,Province of Ontario
20104,Queensborough Kids,920 Ewen Ave,920 Ewen Ave,920,ewen ave,,New Westminster,,Province of British Columbia
4199,Kidz Korner Infant Childcare Inc.,"3708 Roblin Boulevard (Blvd) Winnipeg, MB",3708 roblin boulevard ,3708,roblin boulevard,,,,Province of Manitoba
7652,CENTRE DE LA PETITE ENFANCE DE BLAINVILLE,"561, boulevard Curé-Labelle",561 boulevard Curé-Labelle,561,boulevard curé-labelle,,Blainville,,Province of Quèbec
22958,Growing Minds Childcare,425 Cottonwood Street,425 Cottonwood Street,425,cottonwood street,,Chase,,Province of British Columbia
13328,Sharei Tzion Day Care,,nan,8001,Bathurst Street,,Thornhill,ON,Province of Ontario
14300,Morningside Children's Centre (Op: Victoria Village) - 292 Morningside Avenue,,nan,292,Morningside Avenue,,Toronto,ON,Province of Ontario
15208,YMCA School Age Program - Bayview,,nan,845,Ottawa Street,,Midland,ON,Province of Ontario
22857,Abc Academy - Children's Learning Center (Asc & Preschool),201-615 Eighth St,201 615 Eighth St,201,615 eighth st,,New Westminster,,Province of British Columbia
12060,Merrickville Day Nursery School,,nan,223,Lewis Street,,Merrickville,ON,Province of Ontario
18330,East Royalty Kindergarten,1 Avonlea Drive Charlottetown PE,1 avonlea drive ,1,avonlea drive,,Charlottetown,Prince Edward Island,GoDayCare.com
17530,A Home Away From Home Daycare,O'Connor ln Guelph ON,o'connor ln ,,o'connor ln,,Guelph,Ontario,GoDayCare.com
2833,UNIVERSITY CHILD CARE CENTRE - WEST CAMPUS,"3820 - 24 AVE NW, WEST CAMPUS",3820 24 AVE NW WEST CAMPUS,3820,24 ave nw,,CALGARY,,Province of Alberta
3925,Family or Group Child Care Home *,None,None,,,,,,Province of Manitoba
17847,Angie's Daycare,Collegiate Orillia ON,collegiate ,,,,Orillia,Ontario,GoDayCare.com
16859,Home Daycare,12345 Main Athens ON,12345 main ,12345,main,,Athens,Ontario,GoDayCare.com
7354,GARDERIE EDUCATIVE POUPA INC.,"7255, boulevard des Laurentides, local 104",7255 boulevard des Laurentides,7255,boulevard des laurentides,,Laval,,Province of Quèbec
2448,NEW SAREPTA DAYCARE,5013 CENTRE AVE,5013 CENTRE AVE,5013,centre ave,,NEW SAREPTA,,Province of Alberta
21943,Top Drawer Daycares Inc.,1044 St. Georges Ave,1044 St Georges Ave,1044,st georges ave,,North Vancouver,,Province of British Columbia
12796,PLASP - Whiteoaks Public School,,nan,1690,Mazo Crescent,,Mississauga,ON,Province of Ontario
22653,Sing And Smile Child Care Ltd,6050 176 St,6050 176 St,6050,176 st,,Surrey,,Province of British Columbia
11183,KIDZ KOVE CHILDCARE CENTRE,,nan,4870,Tomken Road,,MIssissauga,ON,Province of Ontario
12626,PLASP Islington Junior Middle School,,nan,44,Cordova Avenue,,Toronto,ON,Province of Ontario
7112,CENTRE DE LA PETITE ENFANCE P'TITS COQUILLAGES,"423, route Bellevue",423 route Bellevue,423,route bellevue,,Port-Daniel-Gascons,,Province of Quèbec
2290,QUATRE SAISONS DAYCARE,10309 102 AVE,10309 102 AVE,10309,102 ave,,LAC LA BICHE,,Province of Alberta
8728,Monkey See Monkey Do - Appleby Campus,,nan,1940,Appleby Line,,Burlington,ON,Province of Ontario
6400,LA PETITE STATION,"25, rue Legendre Est",25 rue Legendre Est,25,rue legendre est,,Montréal,,Province of Quèbec
12832,PLASP-JANET MCDOUGALD PUBLIC SCHOOL,,nan,498,Hartsdale Avenue,,Mississauga,ON,Province of Ontario
4094,Festival Early Learning and Child Care Centre Inc.,"815 Buchanan Boulevard (Blvd) Winnipeg, MB",815 buchanan boulevard ,815,buchanan boulevard,,,,Province of Manitoba
12231,MFF & CP - St. Mary's After School Program,,nan,36,Silverwood Drive,,Huntsville,ON,Province of Ontario
9789,Centre √©ducatif Ste-Lucie,,nan,17337,Dow Chemin,,Long Sault,ON,Province of Ontario
22247,Brightstart Children's Academy,101-17610 65A Ave,101 17610 65A Ave,101 17610,65a ave,,Surrey,,Province of British Columbia
5912,CENTRE DE LA PETITE ENFANCE LE TRAIN DE BOURGOGNE,"2515, rue Delisle, 2e étage",2515 rue Delisle #2e étage,2515,rue delisle,,Montréal,,Province of Quèbec
14974,Toronto YMCA - St. Mary YMCA Before & After School Program,,nan,66,Main Street,,Brampton,ON,Province of Ontario
7078,CENTRE DE LA PETITE ENFANCE SARLIATAUVIK/SARLIATAUVIK CHILD CARE CENTER,", C.P. 347",CP 347,cp 347,,,Puvirnituq,,Province of Quèbec
3379,BOYLE GREAT BEGINNINGS,"5032 TAYLOR ROAD,",5032 TAYLOR ROAD,5032,taylor road,,BOYLE,,Province of Alberta
14334,Way to Grow Daycare - St. Martin,,nan,186,Margaret Street,,Smithville,ON,Province of Ontario
2664,CLAREVIEW OUT OF SCHOOL CARE,14063 VICTORIA TRAIL,14063 VICTORIA TRAIL,14063,victoria trail,,EDMONTON,,Province of Alberta
10472,The Divine Infant Child Care Centre (OP: Family Day Care Services),,nan,30,Ingleton Boulevard,,Toronto,ON,Province of Ontario
24312,Kids World Puddlejumpers & Get Ready For School,7505 Arbutus,7505 Arbutus,7505,arbutus,,Vancouver,,Province of British Columbia
8897,Open Arms Nursery,,nan,31,Marshall Street,,Richmond Hill,ON,Province of Ontario
24070,Little Sprouts Family Daycare,4925 Lazelle Ave,4925 Lazelle Ave,4925,lazelle ave,,Terrace,,Province of British Columbia
13978,Tilbury Tots Early Learning Centre - Merlin,,nan,21184,Erie Street,,Merlin,ON,Province of Ontario
13218,Stratford Cygnets Co-operative Preschool Inc.,,nan,181,Louise Street,,Stratford,ON,Province of Ontario
23635,Sunny Time Family Child Care,202 1136 Pacific St,202 1136 Pacific St,202 1136,pacific st,,Vancouver,,Province of British Columbia
16203,Garderie La Licorne,132 Rue Du Portage Caraquet NB,132 rue du portage ,132,rue du portage,,Caraquet,New Brunswick,GoDayCare.com
447,Garderie Tic Tac Toe Daycare Inc.,357 Grey Street Dalhousie E8C 1W6 (506) 684-2700,357 grey street ,357,grey street,,,,Province of New Brunswick
7960,"CENTRE DE LA PETITE ENFANCE ""PLAISIR D'ENFANT""","2872, rue Lareau",2872 rue Lareau,2872,rue lareau,,Carignan,,Province of Quèbec
3109,KIDZ JUNCTION DAYCARE,722 91 STREET SW,722 91 STREET SW,722,91 street sw,,EDMONTON,,Province of Alberta
21800,Cefa Crestwood Junior Kindergarten (Commerce Campus),110-13775 Commerce Pky,110 13775 Commerce Pky,110 13775,commerce pky,,Richmond,,Province of British Columbia
21217,Brentwood Nursery School,1455 Delta Ave,1455 Delta Ave,1455,delta ave,,Burnaby,,Province of British Columbia
346,Garderie de mon enfance,67 rue De L'Anse Eel River Crossing E8E 1P9 (506) 686-3207,67 rue de l'anse ,67,rue de l'anse,,,,Province of New Brunswick
16530,Ponderosa Play And Learn,17 Highland Dr Extension Antigonish NS,17 highland dr extension ,17,highland dr extension,,Antigonish,Nova Scotia,GoDayCare.com
12537,Our Lady of the Annunciation - Our Lady of Hope Before & After School Program,,nan,80,Red Cardinal Trail,,Richmond Hill,ON,Province of Ontario
18632,Centre De La Petite Enfance L'Univers De Mamuse Et MÃ©duque,3730 rue Jacques-de-Labadie Trois-RiviÃ¨res QC,"3730 rue Jacques de Labadie Trois RiviÃ¨res QC, Canada",3730,rue jacques de labadie,,Trois-rivieres,Quebec,GoDayCare.com
8576,Mississauga Montessori Preschool,,nan,5685,Whittle Road,,Mississauga,ON,Province of Ontario
10128,Garderie Mon Petit Jardin,,nan,500,Sandhurst Cercle,,Toronto,ON,Province of Ontario
11225,Wee Watch Private Home Day Care - Whitby,,nan,304,Colborne Street,,Whitby,ON,Province of Ontario
17461,Fort Erie Regional Child Care Centre,94 Catherine Street Fort Erie ON,94 catherine street ,94,catherine street,,Fort Erie,Ontario,GoDayCare.com
7488,CENTRE DE LA PETITE ENFANCE LES JOYEUX LUTINS,"810, rue Ladouceur",810 rue Ladouceur,810,rue ladouceur,,Joliette,,Province of Quèbec
19338,Wonder Years Preschool and Daycare #1,2 Seabreeze Drive,2 Seabreeze Drive,2,seabreeze drive,,Holyrood,,Province of Newfoundland and Labrador
16196,Garderie Les Bouts Choux,59 Andrew Campbellton NB,59 andrew ,59,andrew,,Campbellton,New Brunswick,GoDayCare.com
21053,Champlain YMCA Kids Club,6955 Frontenac St,6955 Frontenac St,6955,frontenac st,,Vancouver,,Province of British Columbia
22447,Lakeside Montessori,903B Nelson Ave,903B Nelson Ave,903b,nelson ave,,Nelson,,Province of British Columbia
2417,LETHBRIDGE PLAY AND LEARN PRESCHOOL SOCIETY,2329 - 15 AVENUE SOUTH,2329 15 AVENUE SOUTH,2329,15 avenue south,,LETHBRIDGE,,Province of Alberta
4568,Family or Group Child Care Home *,None,None,,,,,,Province of Manitoba
5454,CENTRE DE LA PETITE ENFANCE FLOCONS DE RÊVE INC.,"1875, rue Notre-Dame",1875 rue Notre-Dame,1875,rue notre-dame,,Saint-Maurice,,Province of Quèbec
4876,Family or Group Child Care Home *,None,None,,,,,,Province of Manitoba
14918,Centennial Hylands YMCA Child Care,,nan,33,School Road,,Shelburne,ON,Province of Ontario
1215,CANCARE CHILDREN'S CENTRE I,111 8579 SCURFIELD DRIVE NW,111 8579 SCURFIELD DRIVE NW,111,scurfield drive nw,,CALGARY,,Province of Alberta
6476,SUPERKIDS ACADÉMIE PRÉ-SCOLAIRE,"5473-5475, avenue Victoria",5473-5475 avenue Victoria,5473-5475,avenue,,Montréal,,Province of Quèbec
4860,Starting Blocks Inc.,"510 3rd Street W Stonewall, MB",510 3rd street w ,510,3rd street w,,,,Province of Manitoba
3518,THE HEARTLAND AGENCY,308 1919 SIROCCO DR SW,308 1919 SIROCCO DR SW,308,sirocco dr sw,,CALGARY,,Province of Alberta
5916,CENTRE DE LA PETITE ENFANCE LES BÉCASSEAUX INC.,"7665, rue Claire-Fauteux",7665 rue Claire-Fauteux,7665,rue claire-fauteux,,Montréal,,Province of Quèbec
12898,Parkway Day Care Centre Inc.,,nan,85,Nanticoke Creek Parkway,,Townsend,ON,Province of Ontario
11991,Maple Tree Preschool Inc.,,nan,158,John Street,,Sudbury,ON,Province of Ontario
23924,Happy Campers Osc - Happy Valley,3291 Happy Valley Rd,3291 Happy Valley Rd,3291,happy valley rd,,Victoria,,Province of British Columbia
5274,GARDERIE L'ÉLÉPHANT ROSE ENR.,"5718, avenue Banville, bureau 2",5718 avenue Banville,5718,avenue banville,,Québec,,Province of Quèbec
21250,Elite Montessori Academy,101 - 3641 29 Ave W,101 3641 29 Ave W,101,3641 29 ave w,,Vancouver,,Province of British Columbia
9515,Centre √©ducatif Coeur des Jeunes Saint-R√©mi,,nan,100,Walden Drive,,Kanata,ON,Province of Ontario
9032,KINDER ACADEMY NURSERY SCHOOL OF NIAGARA,,nan,7107,Kalar Road,,Niagara Falls,ON,Province of Ontario
21304,Kiddies Korner Parent Participation Preschool,2211 Prairie Ave,2211 Prairie Ave,2211,prairie ave,,Port Coquitlam,,Province of British Columbia
24301,All Aboard Child Care,1620 Western Dr,1620 Western Dr,1620,western dr,,Port Coquitlam,,Province of British Columbia
22080,Happy Steps Daycare,2045 Kugler Ave,2045 Kugler Ave,2045,kugler ave,,Coquitlam,,Province of British Columbia
24635,Roberta Delos Reyes,"438 Bolstad Link, Saskatoon, SK, S7W 0X9",438 bolstad link ,438,bolstad link,,,,Province of Saskatchewan
18781,Accent On Kids Early Learning And Childcare Centre,250 Independent Street Yorkton SK,250 independent street ,250,independent street,,Yorkton,Saskatchewan,GoDayCare.com
9654,Cambridge Christian School Preschool,,nan,229,Myers Road,,Cambridge,ON,Province of Ontario
19064,Grace Note Child Care Centre (2010) Limited,7071 BAYERS RD. SUITE 5009,7071 BAYERS RD SUITE 5009,7071,bayers rd,suite 5009,HALIFAX,,Province of Nova Scotia
9655,The Oaks Early Learning Childcare,,nan,147,Elgin Street,,Cambridge,ON,Province of Ontario
19970,Lariah's Little Learners Childcare,4110 Campbell Ave,4110 Campbell Ave,4110,campbell ave,,Prince George,,Province of British Columbia
8796,Cornerstone Montessori Academy,,nan,150,O'Carroll Avenue,,Peterborough,ON,Province of Ontario
24110,Mis Amiguitos Family Daycare,3900 27 St,3900 27 St,3900,27 st,,Vernon,,Province of British Columbia
14545,Bellview YMCA Child Care Centre,,nan,97,Tenth Avenue,,Brantford,ON,Province of Ontario
16483,Shakastueu Pishum Mitshuap,P.o. Box 160 North West River NL,po ,,,,North West River,Newfoundland And Labrador,GoDayCare.com
5392,MA PREMIÈRE ÉCOLE EINSTEIN INC.,"725, boulevard Lebourgneuf, local 115",725 boulevard Lebourgneuf,725,boulevard lebourgneuf,,Québec,,Province of Quèbec
22331,West Coast Early Learning Centre,2795 184 St,2795 184 St,2795,184 st,,Surrey,,Province of British Columbia
6326,GARDERIE ÉDUCATIVE LE TRÈS BON DÉPART,"8600, rue Hochelaga",8600 rue Hochelaga,8600,rue hochelaga,,Montréal,,Province of Quèbec
6942,LE JARDIN D'AMELIE,"136, boulevard Saint-Raymond",136 boulevard Saint-Raymond,136,boulevard saint-raymond,,Gatineau,,Province of Quèbec
12603,PLASP Blythwood Junior Public School,,nan,2,Strathgowan Crescent,,Toronto,ON,Province of Ontario
21936,The Rock Daycare,3883 Kirkaldy St,3883 Kirkaldy St,3883,kirkaldy st,,Thornhill,,Province of British Columbia
15465,Yip's Music & Montessori Schools,,nan,28,Crown Steel Drive,,Markham,ON,Province of Ontario
24896,Dawn Marie,"41 Calder Crescent, Regina, SK, S4S 4A5 (Hillsdale)",41 calder crescent ,41,calder crescent,,,,Province of Saskatchewan
3866,MOSAIC MONTESSORI PARKDALE,3512 - 5 AVENUE NW,3512 5 AVENUE NW,3512,5 avenue nw,,CALGARY,,Province of Alberta
14124,Umbrella Children's Centres - Harwood Before and After School Program,,nan,41,Harwood Avenue,,Ajax,ON,Province of Ontario
18955,Spring Garden Child Care Centre,2499 TRURO RD.,2499 TRURO RD,2499,truro rd,,WESTVILLE,,Province of Nova Scotia
14572,YMCA SACC - St. Basil/Walter Gretzky,,nan,365,Blackburn Drive,,Brantford,ON,Province of Ontario
10313,CRONYN CHILD CARE CENTRE,,nan,442,William Street,,London,ON,Province of Ontario
24267,Buttons 'N Bows Childcare Inc.,20190 - 48Th Ave,20190 48Th Ave,20190,48th ave,,Langley,,Province of British Columbia
24892,Milan Lamichhane,"1507 Fleet Street, Regina, SK, S4N 5R8",1507 fleet street ,1507,fleet street,,,,Province of Saskatchewan
6341,GARDERIE ÉDUCATIVE LES PETITS LAURIERS INC.,"1375, rue Laurier Est, porte 201",1375 rue Laurier Est porte 201,1375,rue laurier est,porte 201,Montréal,,Province of Quèbec
23087,Propel Montessori Daycare,7200 Cariboo Rd,7200 Cariboo Rd,7200,cariboo rd,,Burnaby,,Province of British Columbia
21598,Stars Family Child Care,1713 Sugarpine Crt,1713 Sugarpine Crt,1713,sugarpine crt,,Coquitlam,,Province of British Columbia
12315,New Liskeard Stepping Stones Day Care Centre,,nan,421,Sheperdson Road,,New Liskeard,ON,Province of Ontario
19607,Puddle Jumpers Childcare,2534 Jura Crescent,2534 Jura Crescent,2534,jura crescent,,Squamish,,Province of British Columbia
10904,Halton Hills Child Care Centre - School Age Program,,nan,102-62,Park Avenue,,Georgetown,ON,Province of Ontario
23103,In The Garden Childcare Center,1660 Mills Road,1660 Mills Road,1660,mills road,,North Saanich,,Province of British Columbia
6427,LES BOUTS DE CHOUX DE SAVIO,"8431, rue de Marseille",8431 rue de Marseille,8431,rue de marseille,,Montréal,,Province of Quèbec
8934,A & A Daycare Centre,,nan,3380,Midland Avenue,,Toronto,ON,Province of Ontario
23244,Little Darlings Daycare,2228 Mathers Ave,2228 Mathers Ave,2228,mathers ave,,West Vancouver,,Province of British Columbia
21198,University Children's Learning Centre Society,1262 Discovery Avenue,1262 Discovery Avenue,1262,discovery avenue,,Kelowna,,Province of British Columbia
3194,NEWCASTLE CHILDCARE,16947 127 STREET NW,16947 127 STREET NW,16947,127 street nw,,EDMONTON,,Province of Alberta
5184,CENTRE DE LA PETITE ENFANCE GARD'AMIS,"1645, rue de la Seigneurie",1645 rue de la Seigneurie,1645,rue de la seigneurie,,Québec,,Province of Quèbec
18423,Dollard-des-Ormeaux Home Daycare,Ceres Dollard-des-Ormeaux QC,ceres ,,,,Dollard-des-ormeaux,Quebec,GoDayCare.com
3343,HAZELDEAN DAY CARE AND OUT OF SCHOOL CARE,9635 66 AVENUE,9635 66 AVENUE,9635,66 avenue,,EDMONTON,,Province of Alberta
2666,CLAREVIEW CHILD DEVELOPMENT CENTRE,14063 VICTORIA TRAIL,14063 VICTORIA TRAIL,14063,victoria trail,,EDMONTON,,Province of Alberta
4643,Elkhorn Early Learning Centre,"112 Wexford Street Elkhorn, MB",112 wexford street ,112,wexford street,,,,Province of Manitoba
11572,Latchkey Day Care & Learning Centre - St. Peter's,,nan,2451,St. Alphonse Street,,Tecumseh,ON,Province of Ontario
8003,ÉCOLE BEE LINGUE,"1470, rue Saint-Paul Nord",1470 rue Saint-Paul Nord,1470,rue saint-paul nord,,Farnham,,Province of Quèbec
17027,Bradford Mini Masters Montessori School,160 Holland St Bradford West Gwillimbury ON,160 holland st ,160,holland st,,Bradford West Gwillimbury,Ontario,GoDayCare.com
7594,SERVICE DE GARDE LES SCHTROUMPFS,"807, boulevard de l'Industrie",807 boulevard de l'Industrie,807,boulevard de l'industrie,,Saint-Paul,,Province of Quèbec
14978,YMCA - St. Rose of Lima,,nan,4590,The Gallops,,Mississauga,ON,Province of Ontario
24764,YMCA Create N Learn,"1100 Currie Crescent, Moose Jaw, SK, S6H 5M7",1100 currie crescent ,1100,currie crescent,,,,Province of Saskatchewan
8996,Sault Ste. Marie Indian Friendship Centre,,nan,122,East Street,,Sault Ste. Marie,ON,Province of Ontario
811,SOMERSET PRESCHOOL CENTRE,84 Ropewalk Road Saint John E2K 2R1 (506) 652-3524,84 ropewalk road ,84,ropewalk road,,,,Province of New Brunswick
9554,City of Thunder Bay Private Home Child Care Program,,nan,600,McKenzie Street,,Thunder Bay,ON,Province of Ontario
8333,GARDERIE LES APPRENTIS EXPLORATEURS INC.,"385, rue des Colibris",385 rue des Colibris,385,rue des colibris,,Saint-Jean-sur-Richelieu,,Province of Quèbec
21548,Brock Kids Care,1080 Oxford St,1080 Oxford St,1080,oxford st,,Kamloops,,Province of British Columbia
21790,Henderson Centre Licensed Childcare,2291 Cedar Hill X Rd,2291 Cedar Hill X Rd,2291,cedar hill x rd,,Victoria,,Province of British Columbia
12187,Noah's Ark Children's Centre,,nan,118,Limeridge Road,,Hamilton,ON,Province of Ontario
20467,Mommy's Daycare,26994 26 Ave,26994 26 Ave,26994,26 ave,,Aldergrove,,Province of British Columbia
16493,Itsy Bitsy Daycare,P.o. Box 522 Pouch Cove NL,po ,,,,Pouch Cove,Newfoundland And Labrador,GoDayCare.com
14708,Kingston YMCA Archbishop O'Sullivan School Age,,nan,974,Pembridge Crescent,,Kingston,ON,Province of Ontario
18275,Atlantis Drive,Atlantis Dr. Whitby ON,atlantis dr ,,atlantis dr,,Whitby,Ontario,GoDayCare.com
7944,LA PETITE ACADÉMIE MARIE-LAURIER INC.,"1555, rue Stravinski, bureau 2B",1555 rue Stravinski B,1555,rue stravinski b,,Brossard,,Province of Quèbec
3481,CHILDREN'S OUT OF SCHOOL EXPLORE CENTRE,3914/3916 118 AVENUE,3914/3916 118 AVENUE,3914/3916,118 avenue,,EDMONTON,,Province of Alberta
24433,Abc Montessori Pre-School,4866 Fraser St,4866 Fraser St,4866,fraser st,,Vancouver,,Province of British Columbia
22518,Life's Little Treasures Family Daycare,1054 Silver Mountain Dr,1054 Silver Mountain Dr,1054,silver mountain dr,,Nanaimo,,Province of British Columbia
5867,CENTRE DE LA PETITE ENFANCE ENFANKIRI,"5795, rue Beaulieu",5795 rue Beaulieu,5795,rue beaulieu,,Montréal,,Province of Quèbec
20086,The Treasure Box Childcare Center,1035 Hollywood Rd,1035 Hollywood Rd,1035,hollywood rd,,Kelowna,,Province of British Columbia
11694,Linda Lowe Daycare School Age Club,,nan,109,Highway 29,,Pakenham,ON,Province of Ontario
1785,BRIGHTPATH SHERWOOD PARK OSC,20 MAIN BLVD,20 MAIN BLVD,20,main blvd,,SHERWOOD PARK,,Province of Alberta
24474,Downtown Early Learning Centre,"211 5th Avenue North, Saskatoon, SK, S7K 2P2",211 5th avenue ,211,5th avenue,,,,Province of Saskatchewan
443,Garderie Polichinelle,87 Street Arran Campbellton E3N 1L5 (506) 753-4218,87 street arran ,,87 street arran,,,,Province of New Brunswick
5303,GARDERIE LES PETITES FLEURS ENR.,"10685, boulevard de l'Ormière, bureau 100",10685 boulevard de l'Ormière,10685,boulevard de l'ormière,,Québec,,Province of Quèbec
3783,LEAPAH'S LEARNING GARDEN,11610 65 AVENUE,11610 65 AVENUE,11610,65 avenue,,EDMONTON,,Province of Alberta
3258,TERWILLEGAR COMMUNITY PRESCHOOL,1751 TOWNE CENTRE BLVD,1751 TOWNE CENTRE BLVD,1751,towne centre blvd,,EDMONTON,,Province of Alberta
1458,CASTLE MOUNTAIN CHILD DEVELOPMENT CENTRE LTD.,15 CASTLEGLEN ROAD NE,15 CASTLEGLEN ROAD NE,15,castleglen road ne,,CALGARY,,Province of Alberta
17208,Rockland Public School Daycare,999 Giroux Clarence-Rockland ON,999 giroux ,999,giroux,,Clarence-rockland,Ontario,GoDayCare.com
19703,Nsnh Queen Mary Kid's Club,230 West Keith Rd,230 West Keith Rd,230,west keith rd,,North Vancouver,,Province of British Columbia
23340,Little Children Family Daycare,5655 Cedarwood St,5655 Cedarwood St,5655,cedarwood st,,Burnaby,,Province of British Columbia
18539,Cynthia's Daycare,Francois Rapin Notre Dame De L'Ile Perrot QC,francois rapin ,,,,Notre Dame De L'ile Perrot,Quebec,GoDayCare.com
21259,Futurekids Daycare Centre,600 Fairview St,600 Fairview St,600,fairview st,,Coquitlam,,Province of British Columbia
16365,Centenary Queen Square United Church Daycare,310 Princess Street Saint John NB,310 princess street ,310,princess street,,Saint John,New Brunswick,GoDayCare.com
21018,Faith Lutheran Preschool,1005 Kensington Avenue,1005 Kensington Avenue,1005,kensington avenue,,Burnaby,,Province of British Columbia
17116,The Early Childhood Academy,Simona Drive Caledon ON,simona drive ,,simona drive,,Caledon,Ontario,GoDayCare.com
10911,Canadian Martyrs Before and After School Program,,nan,1355,Main Street,,Hamilton,ON,Province of Ontario
5874,CENTRE DE LA PETITE ENFANCE HARMONIE,"4372, rue de la Roche",4372 rue de la Roche,4372,rue de la roche,,Montréal,,Province of Quèbec
2441,1ST CLASS PRESCHOOL INC. - 1ST CLASS AFTER CLASS - SILVERADO,483 SILVERADO BLVD. SW,483 SILVERADO BLVD SW,483,silverado blvd sw,,CALGARY,,Province of Alberta
6676,GARDERIE MONTESSORI SAINT-LAURENT,"760, rue Saint-Germain, bureau 101",760 rue Saint-Germain,760,rue saint-germain,,Saint-Laurent,,Province of Quèbec
16087,Anju's Day Care,8655 king george hwy surrey BC,8655 king george hwy ,8655,king george hwy,,Surrey,British Columbia,GoDayCare.com
12206,ELMA TOWNSHIP SCHOOL AGE PROGRAM,,nan,955,Binning Street,,Listowel,ON,Province of Ontario
1834,TREE HOUSE PLAYSCHOOL,100 SIR WINSTON CHURCHILL AVE,100 SIR WINSTON CHURCHILL AVE,100,sir winston churchill ave,,ST. ALBERT,,Province of Alberta
762,RAINBOWS AND DREAMS,30 Red Oak Drive Irishtown E1H 2K3 (506) 383-9183,30 red oak drive ,30,red oak drive,,,,Province of New Brunswick
306,Garderie Au Royaume en chant T,5 rue Rue Des Sapins Kedgwick E8B 2B3 (506) 284-1017,5 rue rue des sapins ,5,rue rue des sapins,,,,Province of New Brunswick
22082,Lisa's Happy Family Child Care,4146 Union St,4146 Union St,4146,union st,,Burnaby,,Province of British Columbia
24204,Park Lane Licensed Child Care,9972 Park Lane,9972 Park Lane,9972,park lane,,Coldstream,,Province of British Columbia
14459,WHITEHILLS - PARKVIEW SCHOOL AGE,,nan,10008,Oxbow Drive,,Komoka,ON,Province of Ontario
11759,ADELAIDE EARLY CHILDHOOD LEARNING CENTRE,,nan,189,Adelaide Street,,London,ON,Province of Ontario
17955,Little Helpers,Bay Street Port Perry ON,bay street ,,bay street,,Port Perry,Ontario,GoDayCare.com
11394,Kinderschool Adlerian Nursery - Half-Day Child Care,,nan,8905,Bayview Avenue,,Richmond Hill,ON,Province of Ontario
19987,Kitchener YMCA Kids Club,3455 W King Edward,3455 W King Edward,3455,w king edward,,Vancouver,,Province of British Columbia
17665,Lively Tots -previous Location,Ninth Ave Lively ON,ninth ave ,,ninth ave,,Lively,Ontario,GoDayCare.com
13635,Swansea Nursery School - 95 Lavina Avenue,,nan,95,Lavinia Avenue,,Toronto,ON,Province of Ontario
1146,LITTLE FRIENDS NURSERY CENTRE,RM 6 & 7 9915 148 STREET,RM 6 7 9915 148 STREET,9915,148 street,rm 6 7,EDMONTON,,Province of Alberta
9527,Red Hill Family Centre,,nan,25,Mount Albion Road,,Hamilton,ON,Province of Ontario
13459,Rodnichok Daycare,,nan,1311,McWatters Street,,Ottawa,ON,Province of Ontario
12599,Little People's Play School Inc.,,nan,33,Falby Court,,Ajax,ON,Province of Ontario
18671,Biggar And District Daycare Project,204 6th Avenue East Biggar SK,204 6th avenue east ,204,6th avenue east,,Biggar,Saskatchewan,GoDayCare.com
10557,Ferris Lane Community Daycare,,nan,49,Ferris Lane,,Barrie,ON,Province of Ontario
955,ISHINE CHILDCARE,211 - 47 STREET SE,211 47 STREET SE,211,47 street se,,CALGARY,,Province of Alberta
24371,Hand In Hand - Ten Broeck Elementary,2580 Stanley St,2580 Stanley St,2580,stanley st,,Abbotsford,,Province of British Columbia
1181,HI5 DAYCARE,4109 106 STREET,4109 106 STREET,4109,106 street,,EDMONTON,,Province of Alberta
2888,NORTHEAST DAY CARE CENTRE #1,7210/7220 144 AVENUE,7210/7220 144 AVENUE,7210/7220,144 avenue,,EDMONTON,,Province of Alberta
13294,Schoolhouse Playcare Centre of Lakehead Inc.,,nan,110,Marlborough Street,,Thunder Bay,ON,Province of Ontario
18848,Needham Pre-School & Day Care,3372 DEVONSHIRE AVE.,3372 DEVONSHIRE AVE,3372,devonshire ave,,HALIFAX,,Province of Nova Scotia
7338,GARDERIE CIEL BLEU INC.,"1779, boulevard des Laurentides",1779 boulevard des Laurentides,1779,boulevard des laurentides,,Laval,,Province of Quèbec
1673,IT'S A B.L.A.S.T. - ST. PATRICK'S SCHOOL,80 RIVER GREEN ROAD,80 RIVER GREEN ROAD,80,river green road,,LETHBRIDGE,,Province of Alberta
15779,Busy Bee Day Home,56st Stettler AB,56st ,56st,,,Stettler,Alberta,GoDayCare.com
21111,Learning For Little People Preschool,120 216 Hastings Ave,120 216 Hastings Ave,120 216,hastings ave,,Penticton,,Province of British Columbia
9339,Boys' & Girls' Club - Agnes Hodge JK/SK Program,,nan,52,Clench Avenue,,Brantford,ON,Province of Ontario
723,ORIGINS NLC 132,99 Burpee Avenue Saint John E2K 3V9 (506) 634-1979,99 burpee avenue ,99,burpee avenue,,,,Province of New Brunswick
11457,Kool Kids Day Care and Montessori,,nan,3400,Riverspray Crescent,,Mississauga,ON,Province of Ontario
8513,POMME AVENTURE DRUMMONDVILLE,"2020, rue Lamothe",2020 rue Lamothe,2020,rue lamothe,,Drummondville,,Province of Quèbec
15277,NOTRE DAME YMCA SCHOOL AGE PROGRAM,,nan,767,Valetta Street,,London,ON,Province of Ontario
16400,Sussex Co-Op Nursery School,853A Main Street. Sussex NB,853a main street ,853a,main street,,Sussex,New Brunswick,GoDayCare.com
22527,Puddle Jumpers Childcare Services,1561 India Ave,1561 India Ave,1561,india ave,,Prince Rupert,,Province of British Columbia
2252,GREEN DOOR NURSERY SCHOOL #2,"#227, 231 - 153 AVE SE",#227 231 153 AVE SE,231,153 ave se,#227,CALGARY,,Province of Alberta
21302,L'ecole Des Petits Oursons,675 Lequime Road,675 Lequime Road,675,lequime road,,Kelowna,,Province of British Columbia
12175,Morna Day Care Services - PHDC,,nan,42,Scarboro Crescent,,Toronto,ON,Province of Ontario
16194,Garderie Des Apprentis-Sages,34 Rue Stanley Campbellton NB,34 rue stanley ,34,rue stanley,,Campbellton,New Brunswick,GoDayCare.com
21738,Tsan Chester Childcare,40415 Friedel Cres,40415 Friedel Cres,40415,friedel cres,,Garibaldi Highlands,,Province of British Columbia
158,Best Beginnings Preschool and Afterschool Centre,58 Hanselpacker Road Harvey Station E6K 1A3 (506) 261-9918,58 hanselpacker road ,58,hanselpacker road,,,,Province of New Brunswick
9997,A Child's Place Daycare Centre (Church of St. Jude),,nan,10,Howarth Avenue,,Toronto,ON,Province of Ontario
9974,Chippewas of Georgina Island First Nation - Nigaan Naabiwag,,nan,84,Morning Road,,Georgina Island,ON,Province of Ontario
19648,Kinder Kampus - Heritage Mountain,300 Panorama Pl,300 Panorama Pl,300,panorama pl,,Port Moody,,Province of British Columbia
16045,L'll Lighthouse Christian Preschool,Village Way Qualicum Beach BC,village way ,,village way,,Qualicum Beach,British Columbia,GoDayCare.com
18634,Centre De La Petite Enfance La MaisonnÃ©e,779 Rue Laviolette Trois-RiviÃ¨res QC,"779 Rue Laviolette Trois RiviÃ¨res QC, Canada",779,rue laviolette trois riviã¨res,,Trois-rivieres,Quebec,GoDayCare.com
7443,GARDERIE ÉDUCATIVE MONTEUIL INC.,"4700, boulevard des Laurentides",4700 boulevard des Laurentides,4700,boulevard des laurentides,,Laval,,Province of Quèbec
10891,Haldimand-Norfolk REACH School Age Program (St. Joseph Site),,nan,34,Potts Road,,Simcoe,ON,Province of Ontario
7613,CENTRE DE LA PETITE ENFANCE LA PIROULINE,"532, avenue Ludovic-Laurier",532 avenue Ludovic-Laurier,532,avenue ludovic-laurier,,Terrebonne,,Province of Quèbec
23305,Grandview Terrace Childcare Ii,2065 Woodland Drive,2065 Woodland Drive,2065,woodland drive,,Vancouver,,Province of British Columbia
7158,GARDERIE LE JARDIN DES TRÉSORS,"1480, rue Charles-Rodrigue",1480 rue Charles-Rodrigue,1480,rue charles-rodrigue,,Lévis,,Province of Quèbec
22095,Hearts & Smiles Montessori Childcare,23779 115A Ave,23779 115A Ave,23779,115a ave,,Maple Ridge,,Province of British Columbia
12348,NGCPLC - Before and After School Program - KPS Site,,nan,224,County Rd. 44,,Kemptville,ON,Province of Ontario
9535,Elsie Stapleford Child Care Centre,,nan,1000,Teron Road,,Ottawa,ON,Province of Ontario
12866,PEL Petit Bateau - St. Jean,,nan,90,Walton Promenade,,Aurora,ON,Province of Ontario
1973,FIRST STEPS LEARNING CENTRE DAYCARE,4920 48 STREET,4920 48 STREET,4920,48 street,,CAMROSE,,Province of Alberta
22697,My Little House,1401 Strawline Hill St,1401 Strawline Hill St,1401,strawline hill st,,Coquitlam,,Province of British Columbia
1742,KIDS & COMPANY - ST. ALBERT NORTH OSC,110 506B ST. ALBERT TRAIL,110 506B ST ALBERT TRAIL,110,506b st albert trail,,ST. ALBERT,,Province of Alberta
560,Katie Bee's Children's Center II,18 616 Highway Keswick Ridge E6L 1R6 (506) 363-5537,18 616 highway ,18,616 highway,,,,Province of New Brunswick
19776,Building Blocks Educare - Sutherland Campus,1521 Sutherland Ave,1521 Sutherland Ave,1521,sutherland ave,,Kelowna,,Province of British Columbia
8341,LE PARADIS DES PETITS,"440, boulevard Saint-Luc, local 104",440 boulevard Saint-Luc,440,boulevard saint-luc,,Saint-Jean-sur-Richelieu,,Province of Quèbec
11460,Kreative Kids Terry Fox,,nan,185,Wintermute Boulevard,,Scarborough,ON,Province of Ontario
20413,Canyon Springs Montessori Daycare,1277 Johnson St,1277 Johnson St,1277,johnson st,,Coquitlam,,Province of British Columbia
13505,St. Thomas Early Learning Centre-Whittaker,,nan,5840,Whittaker Lane,,Belmont,ON,Province of Ontario
19685,Torquay School Kids Klub,4413 Torquay Drive,4413 Torquay Drive,4413,torquay drive,,Victoria,,Province of British Columbia
5761,GARDERIE MYRIELLE GOUIN LEMIRE,"1800, boulevard Graham",1800 boulevard Graham,1800,boulevard graham,,Mont-Royal,,Province of Quèbec
3382,LITTLE EXPLORERS CHILD CARE & DISCOVERY CENTRE - DAY CARE PROGRAM,245 - 3 STREET WEST,245 3 STREET WEST,245,3 street west,,DRUMHELLER,,Province of Alberta
24490,Pathways Early Learning Centre,"720 20th Street West, Saskatoon, SK, S7M 0Y1",720 20th street west ,720,20th street west,,,,Province of Saskatchewan
15773,Kristopher Robyns Childcare,115 23 Akins Dr. St. Albert St. Albert AB,115 23 akins dr st albert ,115 23,akins dr st,,St. Albert,Alberta,GoDayCare.com
1956,NORTHALTA FAMILY DAY CARE SERVICE LTD.,8155 79 AVENUE NW,8155 79 AVENUE NW,8155,79 avenue nw,,EDMONTON,,Province of Alberta
11817,SCHOOL AGE PROGRAM - LORD NELSON PUBLIC SCHOOL,,nan,1990,Royal Crescent,,London,ON,Province of Ontario
995,THE WILLOWTREE CHILDREN'S CENTER,#9 MCKENZIE AVENUE,#9 MCKENZIE AVENUE,#9,mckenzie avenue,,HUGHENDEN,,Province of Alberta
23846,Kidz Kompany - Harbourside,2150 Departure Bay Road,2150 Departure Bay Road,2150,departure bay road,,Nanaimo,,Province of British Columbia
11034,Huron Superfriends Inc.,,nan,541,Huron Street,,Toronto,ON,Province of Ontario
11470,La Maison Montessori House,,nan,14,Stone Road,,Aurora,ON,Province of Ontario
9986,Christ Our King Nursery School,,nan,2150,Dundas Street,,Mississauga,ON,Province of Ontario
13700,Terrace Woods Day Care Services Inc. - PHDC,,nan,8611,Weston Road,,Vaughan,ON,Province of Ontario
23121,Truckin' Along Childcare,284 Pearkes Drive,284 Pearkes Drive,284,pearkes drive,,Revelstoke,,Province of British Columbia
15129,"YMCA, St. Theresa Early Learning Child Care Centre",,nan,1475,Main Street,,Callander,ON,Province of Ontario
8135,LA JUNGLE ÉDUCATIVE À MARIE-JO,"2330, chemin de Chambly",2330 chemin de Chambly,2330,chemin de chambly,,Longueuil,,Province of Quèbec
287,Garderie a petits pas,67 Road Ragged Point Saint John E2K 5C3 (506) 658-4607,67 road ragged point ,67,road ragged point,,,,Province of New Brunswick
6380,JARDIN D'ÉVEIL,"145, rue Sauvé Ouest",145 rue Sauvé Ouest,145,rue sauvé ouest,,Montréal,,Province of Quèbec
17452,Cutie Patootie Child Care,5607 Michigan Line Forest ON,5607 michigan line ,5607,michigan line,,Forest,Ontario,GoDayCare.com
4477,Sunnyside Child Care Centre Inc.,"Room 7, 8 and 10 530 Dieppe Road Winnipeg, MB",7 8 and 10 530 dieppe road ,530,dieppe road,,,,Province of Manitoba
7753,SYSTÈME MONTESSORI CHEZ DENYSE,"556, chemin du Village",556 chemin du Village,556,chemin du village,,Morin-Heights,,Province of Quèbec
2866,OLIVER CENTRE ELCC SITE,15830 100A AVE NW,15830 100A AVE NW,15830,100a ave nw,,EDMONTON,,Province of Alberta
18666,KidsPark Westmount,424 Claremont Avenue Westmount QC,424 claremont avenue ,424,claremont avenue,,Westmount,Quebec,GoDayCare.com
2265,ROTARY EARLY LEARNING PROGRAM CHILDCARE,"#106, 6770 129 AVENUE",#106 6770 129 AVENUE,6770,129 avenue,#106,EDMONTON,,Province of Alberta
9117,Andrew Fleck Child Care Services - Making Connections Nursery School,,nan,235,Donald Street,,Ottawa,ON,Province of Ontario
3132,APPLETON CHILDCARE CENTRE,10344 119 ST,10344 119 ST,10344,119 st,,EDMONTON,,Province of Alberta
21380,Ncbasp - Frank J. Ney,5301 Williamson Rd,5301 Williamson Rd,5301,williamson rd,,Nanaimo,,Province of British Columbia
5143,INSTALLATION DES BELLES-RIVIÈRES,"1295, rue des Loisirs Est",1295 rue des Loisirs Est,1295,rue des loisirs est,,L'Ancienne-Lorette,,Province of Quèbec
3904,The Young Men's Christian Association of Brandon,"YMCA Brandon 231 8th Street Brandon, MB",ymca brandon 231 8th street ,231,8th street,,,,Province of Manitoba
19191,Bright Beginnings,399 Main Street,399 Main Street,399,main street,,Bishop's Falls,,Province of Newfoundland and Labrador
9517,Bunting Child Care Program,,nan,348,Scott Street,,St. Catharines,ON,Province of Ontario
4092,Festival Early Learning and Child Care Cenre Inc.,"4057 Portage Avenue (Ave) Winnipeg , MB",4057 portage avenue ,4057,portage avenue,,,,Province of Manitoba
10214,Cottingham Day Care Program,,nan,85,Birch Avenue,,Toronto,ON,Province of Ontario
13586,Better B Kids,,nan,549,Frood Road,,Sudbury,ON,Province of Ontario
16069,"Choo Choo, Let's Go! Childcare Centre - Centre De Garde",2340 Sunriver Way Sooke BC,2340 sunriver way ,2340,sunriver way,,Sooke,British Columbia,GoDayCare.com
14641,YMCA Ham/Burl - YMCA SACC - Orchard Park,,nan,5151,Dryden Avenue,,Burlington,ON,Province of Ontario
18891,Mayflower After-School Program,1261 BELCHER ST.,1261 BELCHER ST,1261,belcher st,,PORT WILLIAMS,,Province of Nova Scotia
13258,Soup Kitchen Back to Basics,,nan,241,Albert Street,,Sault Ste marie,ON,Province of Ontario
1133,PINES DAY CARE,8 PAGE AVENUE,8 PAGE AVENUE,8,page avenue,,RED DEER,,Province of Alberta
13524,Step by Step Child Care Centre,,nan,2118,East Arthur Street,,Thunder Bay,ON,Province of Ontario
10591,Forest Hill Montessori School Inc.,,nan,2,Wembley Road,,Toronto,ON,Province of Ontario
20392,D's Daycare,1639 Pitt River Rd,1639 Pitt River Rd,1639,pitt river rd,,Port Coquitlam,,Province of British Columbia
7064,CENTRE DE LA PETITE ENFANCE SARALIKITAARAPIIT,", C.P. 130",CP 130,cp 130,,,Kangiqsualujjuaq,,Province of Quèbec
4290,Maryna Horyun,None,None,,,,,,Province of Manitoba
3677,LITTLE STEPS - DR JK MULLOY,7440 10 STREET NW,7440 10 STREET NW,7440,10 street nw,,CALGARY,,Province of Alberta
9731,Cedarbrae Day Nursery (20 Greencrest Circuit),,nan,20,Greencrest Circuit,,Toronto,ON,Province of Ontario
10473,Family Day Care Services - Armadale Child Care Centre,,nan,11,Coppard Avenue,,Markham,ON,Province of Ontario
10601,Forum Italia Child Care Center,,nan,195,Forum Drive,,Mississauga,ON,Province of Ontario
8294,CENTRE DE LA PETITE ENFANCE LES COQUELICOTS INC.,"2420, rue Lambert-Sarazin",2420 rue Lambert-Sarazin,2420,rue lambert-sarazin,,Saint-Hyacinthe,,Province of Quèbec
4250,Lorraine Desrosiers-Vaz,None,None,,,,,,Province of Manitoba
16383,Halte Scolaire Carrefour De La Jeunesse,4 Rue Eug√®ne St-Basile NB,4 rue eug√®ne ,4,rue eug√®ne,,St-basile,New Brunswick,GoDayCare.com
3387,FUTURE STARS DAYCARE,616 2 STREET WEST,616 2 STREET WEST,616,2 street west,,COCHRANE,,Province of Alberta
2382,WORSLEY PRESCHOOL,216 ALBERTA AVE,216 ALBERTA AVE,216,alberta ave,,WORSLEY,,Province of Alberta
42,Garderie Plein Soleil Parascolaire A #76,none,none,,,,Yellowknife,,Northwest Territories
15137,Family Y Childcare Centre - Ripley,,nan,18,Tain Street,,Ripley,ON,Province of Ontario
8621,Oxford Learning Centre - Oakville South,,nan,511,Maple Grove Drive,,Oakville,ON,Province of Ontario
17042,ITTY BITTY DAYCARE,38 THORNDALE ROAD Brampton ON,38 thorndale road ,38,thorndale road,,Brampton,Ontario,GoDayCare.com
5141,INSTALLATION AU CARROUSEL ENFANTIN,"2015, rue St-Jean Baptiste",2015 rue St-Jean Baptiste,2015,rue st-jean baptiste,,L'Ancienne-Lorette,,Province of Quèbec
10605,Franco-Sol - St. Edmond,,nan,1880,Totten Street,,Windsor,ON,Province of Ontario
4940,Funshine Early Learning Centre Inc.,"Mary Montgomery School Room 1 - 445 Lyons Street Virden, MB",mary montgomery school 1 445 lyons street ,445,lyons street,,,,Province of Manitoba
1270,TODDLE INN DAY CARE SOCIETY,309 - 2 AVENUE,309 2 AVENUE,309,2 avenue,,STRATHMORE,,Province of Alberta
23708,Kidsfirst Early Childhood Centre,20259 Hammond Rd,20259 Hammond Rd,20259,hammond rd,,Maple Ridge,,Province of British Columbia
9105,Montessori North School,,nan,4561,Highway 7 East Street,,Markham,ON,Province of Ontario
5992,CPE DU CARREFOUR INC.,"2025, rue Fullum, bureau 101",2025 rue Fullum,2025,rue fullum,,Montréal,,Province of Quèbec
3577,KINGSLAND COMMUNITY PRESCHOOL,505 78TH AVE SW,505 78TH AVE SW,505,78th ave sw,,CALGARY,,Province of Alberta
18468,"Hudson Home To Home Daycare, Subsidized ($8.05 Per Day)","Carmel,Windcrest Hudson QC",carmelwindcrest ,,,,Hudson,Quebec,GoDayCare.com
9039,Alexander's Day Care Centre Ltd.,,nan,3335,Banwell Road,,Windsor,ON,Province of Ontario
8260,CENTRE DU DÉVELOPPEMENT DE L'ENFANT MES PREMIERS PAS INC.,"4195, boulevard Westley",4195 boulevard Westley,4195,boulevard westley,,Saint-Hubert,,Province of Quèbec
3738,BGC OF STRATHCONA COUNTY - ARDROSSAN,53117 RANGE ROAD 222,53117 RANGE ROAD 222,222,range road,,ARDROSSAN,,Province of Alberta
2094,DALY GROVE DAY CARE,4231 23 AVENUE,4231 23 AVENUE,4231,23 avenue,,EDMONTON,,Province of Alberta
18454,Bright Minds Academy,Imp. Du Pampero Gatineau QC,imp du pampero ,,imp du pampero,,Gatineau,Quebec,GoDayCare.com
421,GARDERIE LES P'TITS DAUPHINS,44 Road Mill Moncton E1A 4A1 (506) 830-1827,44 road mill ,44,road,,,,Province of New Brunswick
1832,WESTPARK SCHOOL AGE PROGRAM,3814 - 55 AVENUE,3814 55 AVENUE,3814,55 avenue,,RED DEER,,Province of Alberta
17338,K.p. Best Start,289 Wice Road Dryden ON,289 wice road ,289,wice road,,Dryden,Ontario,GoDayCare.com
4723,Lac du Bonnet Children's Centre Inc.,"Centennial School science room,gym 285 Mcarthur Avenue (Ave) Lac Du Bonnet, MB",centennial school science 285 mcarthur avenue ,285,mcarthur avenue,,,,Province of Manitoba
1496,KRISTY'S LITTLE LEARNERS PLAYSCHOOL,SUITE B 221 FIRST AVENUE,SUITE B 221 FIRST AVENUE,221,first avenue,suite b,SPRUCE GROVE,,Province of Alberta
15480,St. Joseph's Kid's Club,,nan,2,Glass Drive,,Aurora,ON,Province of Ontario
5985,CITRONNELLE ET SES AMIS INC.,"8535, rue Sherbrooke Est",8535 rue Sherbrooke Est,8535,rue sherbrooke est,,Montréal,,Province of Quèbec
279,Fredericton Montessori Academy,131 Duncan Lane Fredericton E3B 9T1 (506) 444-6249,131 duncan lane ,131,duncan lane,,,,Province of New Brunswick
5665,GARDERIE SÉSAME INC.,"5555, avenue Westminster, bureau 220",5555 avenue Westminster,5555,avenue westminster,,Côte-Saint-Luc,,Province of Quèbec
8362,GARDERIE UN MONDE JUSTE POUR NOUS INC.,"499D, route de la Cité-des-Jeunes",499D route de la Cité-des-Jeunes,499d,route de la cité-des-jeunes,,Saint-Lazare,,Province of Quèbec
19233,Happy Days Daycare,533 Conception Bay Highway,533 Conception Bay Highway,533,conception bay highway,,Holyrood,,Province of Newfoundland and Labrador
3913,Heather Boyce,"440 Richmond Avenue (Ave) Brandon, MB",440 richmond avenue ,440,richmond avenue,,,,Province of Manitoba
11046,Tumpane Child Care Centre - (Ideal Child Services Group),,nan,48,Tumpane Street,,Toronto,ON,Province of Ontario
6027,GARDERIE AU JARDIN DES MERVEILLES # 1,"1144, rue Saint-Zotique Est",1144 rue Saint-Zotique Est,1144,rue saint-zotique est,,Montréal,,Province of Quèbec
5827,"CENTRE DE LA PETITE ENFANCE CARCAJOU, INC.","5100, rue Bossuet",5100 rue Bossuet,5100,rue bossuet,,Montréal,,Province of Quèbec
11632,Leitrim Montessori Preschool,,nan,4861,Bank Street,,Ottawa,ON,Province of Ontario
15098,YMCA Child Care-Jeanne Sauv√©,,nan,91,Bunting Road,,St. Catharines,ON,Province of Ontario
4277,Maribeth Amposta Saria,None,None,,,,,,Province of Manitoba
2004,BERGEN COMMUNITY PLAYSCHOOL,SE 5-32-5-5,SE 5 32 5 5,5,,se 5 32 5,BERGEN,,Province of Alberta
6409,LE CORBEAU ET LE RENARD GARDERIE ÉDUCATIVE,"60, rue de Port-Royal Est",60 rue de Port-Royal Est,60,rue de port-royal est,,Montréal,,Province of Quèbec
2005,ELLERSLIE ROAD PRE-SCHOOL,143/144/145 - 10603 ELLERSLIE ROAD,143/144/145 10603 ELLERSLIE ROAD,143/144/145 10603,ellerslie road,,EDMONTON,,Province of Alberta
17584,Carol's Daycare,651 County Road 29 Jasper ON,651 county road 29 ,651,county road 29,,Jasper,Ontario,GoDayCare.com
614,LE CLUB ANNA MALENFANT 2,500 rue Centrale Dieppe E1A 6V7 (506) 383-8470,500 rue centrale ,500,rue centrale,,,,Province of New Brunswick
3892,Brandon Friendship Centre,"836 Lorne Avenue (Ave) Brandon, MB",836 lorne avenue ,836,lorne avenue,,,,Province of Manitoba
8351,GARDERIE ÉDUCATIVE L'ARC-EN-CIEL,"2035-F, avenue Victoria",2035-F avenue Victoria,2035-f,avenue,,Saint-Lambert,,Province of Quèbec
23429,Young Explorers,3938 Brandon St,3938 Brandon St,3938,brandon st,,Burnaby,,Province of British Columbia
23245,New Kids On The Block Daycare,2969 Earl Grey St,2969 Earl Grey St,2969,earl grey st,,Victoria,,Province of British Columbia
1351,LEAP N' LEARN WALDEN,260 - 151 WALDEN GATE SE,260 151 WALDEN GATE SE,260 151,walden gate se,,CALGARY,,Province of Alberta
24065,Island Kids Academy Centre 2 (Forrest),542 Fraser St,542 Fraser St,542,fraser st,,Victoria,,Province of British Columbia
9963,Childrens Place Day Care,,nan,320,Ritson Road,,Oshawa,ON,Province of Ontario
19725,Kensington Prairie Community Centre,16824 32Nd Ave,16824 32Nd Ave,16824,32nd ave,,Surrey,,Province of British Columbia
21085,Kingsway Christian Children's Centre,4061 Kingsway,4061 Kingsway,4061,kingsway,,Burnaby,,Province of British Columbia
3876,Family or Group Child Care Home *,None,None,,,,,,Province of Manitoba
23217,Tall Timbers Preschool / Before & After School Care,4035 207Th St,4035 207Th St,4035,207th st,,Langley,,Province of British Columbia
9272,First Adventure Child Development Centre Our Lady of Fatima Campus,,nan,300,Sidney Street,,Belleville,ON,Province of Ontario
7599,GARDERIE AU PIED DE L'ARC-EN-CIEL,"2595, rue Yvan Varin",2595 rue Yvan Varin,2595,rue yvan varin,,Sainte-Julienne,,Province of Quèbec
18506,Au Jardin Des Petits Mozarts,505 Rue Guillemette Laval QC,505 rue guillemette ,505,rue guillemette,,Laval,Quebec,GoDayCare.com
23701,Wind And Tide Preschool - Dorothy Peacock,20292 91A Ave,20292 91A Ave,20292,91a ave,,Langley,,Province of British Columbia
23524,Tsleil-Waututh Child & Family Development Centre (>30 Mos),3036 Takaya Dr,3036 Takaya Dr,3036,takaya dr,,North Vancouver,,Province of British Columbia
21829,Hummingbird Ihmacc,1717 63Rd Ave E,1717 63Rd Ave E,1717,63rd ave e,,Vancouver,,Province of British Columbia
18234,Bright Way Dayhome,McKnight Ave. Waterdown ON,mcknight ave ,,mcknight ave,,Waterdown,Ontario,GoDayCare.com
9284,Best Friends Learning Centre of Windsor,,nan,1400,Roselawn Drive,,Windsor,ON,Province of Ontario
13134,Rippleton Roadsters Satellite Program,,nan,1340,Leslie Street,,Toronto,ON,Province of Ontario
2532,CHILD DEVELOPMENT DAYHOMES OF ALBERTA,10639 131 STREET,10639 131 STREET,10639,131 street,,EDMONTON,,Province of Alberta
15777,Tot Spot Academy,86 McKenney Ave St. Albert AB,86 mckenney ave ,86,mckenney ave,,St. Albert,Alberta,GoDayCare.com
7060,SERVICE DE GARDE TASIURVIK INC.,", C.P. 280",CP 280,cp 280,,,Inukjuak,,Province of Quèbec
15296,St. John French Immersion YMCA School Age,,nan,449,Hill Street,,London,ON,Province of Ontario
14590,YMCA SACC - Allan A. Greenleaf,,nan,211,Parkside Drive,,Waterdown,ON,Province of Ontario
18533,A Kid's World Daycare - Jean Talon,5075 Jean-Talon Ouest Suite 3 Montreal QC,5075 jean talon ouest suite 3 ,5075,jean talon ouest,suite 3,Montreal,Quebec,GoDayCare.com
5514,CENTRE DE LA PETITE ENFANCE SIX SAISONS,"68, rue Kenosi, c. p. 357",68 rue Kenosi c p 357,c p 357,rue kenosi,,Wemotaci,,Province of Quèbec
17450,Chippewas Of Kettle And Stony Point,9172 Tecumseh Dr Forest ON,9172 tecumseh dr ,9172,tecumseh dr,,Forest,Ontario,GoDayCare.com
23707,Orchid Family Child Care,789 14Th Ave E,789 14Th Ave E,789,14th ave e,,Vancouver,,Province of British Columbia
5931,CENTRE DE LA PETITE ENFANCE LES PETITS LUTINS DE CÔTE ST-PAUL INC.,"6050, rue Hamilton",6050 rue Hamilton,6050,rue hamilton,,Montréal,,Province of Quèbec
11746,Collingwood's Little People's Day Care Centre,,nan,325,Hurontario Street,,Collingwood,ON,Province of Ontario
3032,JUVENESCENCE - CRANSTON,205 CRANSTON DRIVE SE,205 CRANSTON DRIVE SE,205,cranston drive se,,CALGARY,,Province of Alberta
17229,Kyra's Home Daycare,Burham Ave Colborne ON,burham ave ,,burham ave,,Colborne,Ontario,GoDayCare.com
7335,GARDERIE AU CHAMP FLEURI,"6205, rue du Rouge-Gorge",6205 rue du Rouge-Gorge,6205,rue du rouge-gorge,,Laval,,Province of Quèbec
15994,Fraser Montessori Daycare,1408 5th AVE New Westminster BC,1408 5th ave ,1408,5th ave,,New Westminster,British Columbia,GoDayCare.com
3574,JUST FOR YOU DAY CARE 2004 LTD.,3 HUNTERHORN GATE NE,3 HUNTERHORN GATE NE,3,hunterhorn gate ne,,CALGARY,,Province of Alberta
5851,CENTRE DE LA PETITE ENFANCE DE MCGILL/MCGILL CHILDCARE CENTRE,"3483-3487, rue Peel",3483-3487 rue Peel,3483-3487,rue peel,,Montréal,,Province of Quèbec
801,SERVICES DE GARDE CHEZ TIAGO CHILDCARE SERVICES,100 rue Sunset Dieppe E1A 1T5 (506) 204-8088,100 rue sunset ,100,rue sunset,,,,Province of New Brunswick
5821,CENTRE DE LA PETITE ENFANCE BETH ESTHER,"5214B, rue Saint-Urbain",5214B rue Saint-Urbain,5214b,rue saint-urbain,,Montréal,,Province of Quèbec
14837,Westney Heights YMCA,,nan,45,Brennan Road,,Ajax,ON,Province of Ontario
1348,KIDSLAND PRE-SCHOOL LTD. #6,28 MACEWAN DRIVE NW,28 MACEWAN DRIVE NW,28,macewan drive nw,,CALGARY,,Province of Alberta
7277,CENTRE DE LA PETITE ENFANCE DU MANOIR INC.,"145, avenue Verdi",145 avenue Verdi,145,avenue verdi,,Laval,,Province of Quèbec
1992,TUSCANY CLUB OUT OF SCHOOL CARE,212 TUSCANY WAY NW,212 TUSCANY WAY NW,212,tuscany way nw,,CALGARY,,Province of Alberta
22582,Willowstone Academy,4091 Lakeshore Rd,4091 Lakeshore Rd,4091,lakeshore rd,,Kelowna,,Province of British Columbia
13777,The Family Place - Milton,,nan,1120,Main Street,,Milton,ON,Province of Ontario
19548,Monkey Minders,220 Blackman St,220 Blackman St,220,blackman st,,New Westminster,,Province of British Columbia
867,Townsview Curious Kids Child Care,122 Lewis P. Fisher Lane Woodstock E7M 0G6 (506) 450-0104,122 lewis p fisher lane ,122,lewis p fisher lane,,,,Province of New Brunswick
12932,Homemade Tales L.F.H.C.C.,,nan,375,Doran Street,,Pembroke,ON,Province of Ontario
21541,Lydia's Family Daycare,1819 Lipsett Crt,1819 Lipsett Crt,1819,lipsett crt,,Kelowna,,Province of British Columbia
14447,Where We Grow Early Learning Centre Inc. School Age,,nan,14460,Simcoe Street,,Port Perry,ON,Province of Ontario
24615,Shirley Duran,"762 Cowley Road, Saskatoon, SK, S7N 4J1",762 cowley road ,762,cowley road,,,,Province of Saskatchewan
20982,Hastings YMCA Kids Club,2625 Franklin St,2625 Franklin St,2625,franklin st,,Vancouver,,Province of British Columbia
6843,CENTRE DE LA PETITE ENFANCE COOP LIBELLE,"355, boulevard de la Cité-des-Jeunes",355 boulevard de la Cité-des-Jeunes,355,boulevard de la cité-des-jeunes,,Gatineau,,Province of Quèbec
15067,YMCA Child Care - Meadowvale,,nan,63,Cecil Street,,St. Catharines,ON,Province of Ontario
12982,Playful Steps Daycare Centre,,nan,12315,West Lake Road,,Tecumseh,ON,Province of Ontario
11900,MERRYMOUNT CHILDREN'S CENTRE,,nan,1064,Colborne Street,,London,ON,Province of Ontario
4654,Garderie de Bambins Co-op Inc.,"46 Benoit Avenue (Ave) St.Malo, MB",46 benoit avenue ,46,benoit avenue,,,,Province of Manitoba
21725,Ranger Station Daycare,639 Coleos Pl,639 Coleos Pl,639,coleos pl,,Victoria,,Province of British Columbia
17262,Rebecca's Home Away From Home Childcare!,wellington st Cookstown ON,wellington st ,,wellington st,,Cookstown,Ontario,GoDayCare.com
5036,CENTRE DE LA PETITE ENFANCE LES PINSONS INC.,"20, rue des Coquillages",20 rue des Coquillages,20,rue des coquillages,,Sainte-Luce-Luceville,,Province of Quèbec
22433,Evans Childcare Center,7434 Evans Rd,7434 Evans Rd,7434,evans rd,,Chilliwack,,Province of British Columbia
20621,Little Star Bugs Daycare,4931 Telqua Dr,4931 Telqua Dr,4931,telqua dr,,108 Mile Ranch,,Province of British Columbia
4410,The Young Men's and Young Women's Christian Association of Winnipeg Inc.,"Rooms 10,14,15, (Gym,Computer & Library) 350 Rockwood Street Winnipeg, MB",rooms 101415 350 rockwood street ,350,rockwood street,,,,Province of Manitoba
7215,LA PETITE ÉCOLE VISION BEAUCE,"1275, boulevard Dionne",1275 boulevard Dionne,1275,boulevard dionne,,Saint-Georges,,Province of Quèbec
21049,Echelon Day Care,101 575 8 Ave W,101 575 8 Ave W,101,575 8 ave w,,Vancouver,,Province of British Columbia
3895,Magical Memories Learning Centre Inc.,"911 26th Street Brandon, MB",911 26th street ,911,26th street,,,,Province of Manitoba
2226,KING'S KIDZ CHRISTIAN PRESCHOOL,13111 79 STREET,13111 79 STREET,13111,79 street,,EDMONTON,,Province of Alberta
4309,Family or Group Child Care Home *,None,None,,,,,,Province of Manitoba
1762,PRECIOUS ANGELS LTD. OSC,10915 110 STREET,10915 110 STREET,10915,110 street,,EDMONTON,,Province of Alberta
2015,KIDZ CLUB DAYCARE,UNIT 139 120 WYE ROAD,UNIT 139 120 WYE ROAD,120,wye road,unit 139,SHERWOOD PARK,,Province of Alberta
21791,Reach Developmental Preschool North Delta,10921 82Nd Ave,10921 82Nd Ave,10921,82nd ave,,Delta,,Province of British Columbia
15379,St. Ursula - YMCA School Age,,nan,426,Lacroix Street,,Chatham,ON,Province of Ontario
18874,Bye the Sea Nursery School,26 LINCOLN ST.,26 LINCOLN ST,26,lincoln st,,LUNENBURG,,Province of Nova Scotia
16652,Little Beginnings Family Childcare,Wakefield Court Middle Sackville NS,wakefield court ,,wakefield court,,Middle Sackville,Nova Scotia,GoDayCare.com
17308,Deep River Nursery School Cooperative,1 Brockhouse Way Deep River ON,1 brockhouse way ,1,brockhouse way,,Deep River,Ontario,GoDayCare.com
5679,L'ARBRE DE CONNAISSANCE 2 / THE LEARNING TREE 2,"16A, rue de Séville",16A rue de Séville,16a,rue de séville,,Dollard-des-Ormeaux,,Province of Quèbec
10864,Montessori Village Day Nursery,,nan,297,Old Kingston Road,,Toronto,ON,Province of Ontario
11495,Garderie Le Petit Voilier - Ecole La Source,,nan,70,Madelaine Promenade,,Barrie,ON,Province of Ontario
9497,Garderie d'Iroquois Falls Day Care,,nan,425,rue Teefy,,Iroquois Falls,ON,Province of Ontario
8432,CENTRE DE LA PETITE ENFANCE DANAHÉ,"2255, boulevard Saint-Louis",2255 boulevard Saint-Louis,2255,boulevard saint-louis,,Sorel-Tracy,,Province of Quèbec
7760,LA PETITE RUCHE ENSOLEILÉE,"820, boulevard de la Chapelle",820 boulevard de la Chapelle,820,boulevard de la chapelle,,Pointe-Calumet,,Province of Quèbec
16839,Delaney Daycare,Greenwood Drive Angus ON,greenwood drive ,,greenwood drive,,Angus,Ontario,GoDayCare.com
4124,Happiness Is...Inc Before and Afterschool Program (Provencher),"Rooms 21, 23 and Gym 320 ave de la Cathedrale avenue (av) Wpg, MB","Rooms 21 23 and Gym 320 ave de la Cathedrale avenue Wpg MB, Canada",320,ave de la cathedrale avenue,,,,Province of Manitoba
2693,OXFORD CHILD DEVELOPMENT CENTRE AFTER SCHOOL CARE,7608 154 STREET,7608 154 STREET,7608,154 street,,EDMONTON,,Province of Alberta
11305,Kids Campus - Jack Miner,,nan,144,Whitburn Street,,Whitby,ON,Province of Ontario
8743,Smart Start Learning Centre and Childcare - Middlecote,,nan,81,Middlecote Drive,,Ajax,ON,Province of Ontario
23187,Mountain Bear Daycare,7240 Bryant Pl,7240 Bryant Pl,7240,bryant pl,,Chilliwack,,Province of British Columbia
23591,Rainbows And Unicorns Preschool,5140 Smith Dr,5140 Smith Dr,5140,smith dr,,Richmond,,Province of British Columbia
6999,CENTRE DE LA PETITE ENFANCE FLEUR ET MIEL,"2501, route des Pionniers C.P. 65",2501 route des Pionniers CP 65,cp 65,route des pionniers,,Rouyn-Noranda,,Province of Quèbec
20774,Little Smiles Daycare,521 4Th Ave,521 4Th Ave,521,4th ave,,Fernie,,Province of British Columbia
8372,GARDERIE LES PETITS MATHIASSOIS,"18, rue Lussier",18 rue Lussier,18,rue lussier,,Saint-Mathias-sur-Richelieu,,Province of Quèbec
12788,PLASP - Thornwood Public School,,nan,277,Mississauga Valley Boulevard,,Mississauga,ON,Province of Ontario
10142,Programme Petit pas √† trois √©cole L'Envol,,nan,45,Johnson,,Trenton,ON,Province of Ontario
83,Northern Lights Day Home,none,none,,,,Inuvik,,Northwest Territories
2108,COMMUNITY CONNECTIONS CHILD CARE CENTRE,5108 50 STREET,5108 50 STREET,5108,50 street,,ROCKY MOUNTAIN HOUSE,,Province of Alberta
5613,CENTRE DE LA PETITE ENFANCE CRAYONS DE COULEUR INC.,"1145, rue Racine",1145 rue Racine,1145,rue racine,,Valcourt,,Province of Quèbec
4019,Family or Group Child Care Home *,None,None,,,,,,Province of Manitoba
24920,Kayla Nelson,"4231 Castle Road, Regina, SK, S4S 4N4",4231 castle road ,4231,castle road,,,,Province of Saskatchewan
8368,PETITE ÉCOLE MONTESSORI INC.,"1545, chemin Sainte-Angélique",1545 chemin Sainte-Angélique,1545,chemin sainte-angélique,,Saint-Lazare,,Province of Quèbec
13203,Snowdrop Montessori School Inc.,,nan,1428,Royal York Road,,Etobicoke,ON,Province of Ontario
1616,KIDS HAVEN CHILDCARE,2E SIR WINSTON CHURCHILL AVE,2E SIR WINSTON CHURCHILL AVE,2e,sir winston churchill ave,,ST. ALBERT,,Province of Alberta
6672,GARDERIE LES JOLIES FRIMOUSSES,"716, boulevard Décarie",716 boulevard Décarie,716,boulevard décarie,,Saint-Laurent,,Province of Quèbec
16047,Treasure Box Learning Centre,1409 Lewis Drive Quesnel BC,1409 lewis drive ,1409,lewis drive,,Quesnel,British Columbia,GoDayCare.com
6916,GARDERIE PLANÈTE KIDS (HULL),"260, boul. St-Raymond, unité 102",260 boul St-Raymond unité 102,260,boul st-raymond,unité 102,Gatineau,,Province of Quèbec
15811,Paige's Place-Child Day Home,5415 46th Street Whitecourt AB,5415 46th street ,5415,46th street,,Whitecourt,Alberta,GoDayCare.com
17061,Cheryl's Home Daycare,14 wedgewood brantford ON,14 wedgewood ,14,wedgewood,,Brantford,Ontario,GoDayCare.com
2077,BRIGHTPATH STONY PLAIN OSC,103/107/108/109 3805 49 AVENUE,103/107/108/109 3805 49 AVENUE,103/107/108/109,3805 49 avenue,,STONY PLAIN,,Province of Alberta
11663,Les √âtoiles Brillantes-Garderie,,nan,85,Forty First Street,,Toronto.,ON,Province of Ontario
12515,Mountshannon Early Learning Centre,,nan,60B,Mountshannon Drive,,Nepean,ON,Province of Ontario
1143,FIRST CHOICE OUT OF SCHOOL CARE,12506 118 AVENUE,12506 118 AVENUE,12506,118 avenue,,EDMONTON,,Province of Alberta
13573,Strath-MacLean Nursery School,,nan,860,St. Mary Street,,Peterborough,ON,Province of Ontario
9474,Caledon Hills Montessori,,nan,6046,Old Church Road,,Caledon East,ON,Province of Ontario
17799,Bright Beginnings Home Childcare,Sebastian Crescent Niagara Falls ON,sebastian crescent ,,sebastian crescent,,Niagara Falls,Ontario,GoDayCare.com
5263,GARDERIE DE L'INSTITUT,"900, avenue Joffre",900 avenue Joffre,900,avenue joffre,,Québec,,Province of Quèbec
21859,Blueberry Field Child Care Inc.,3720 Broadway Street,3720 Broadway Street,3720,broadway street,,Richmond,,Province of British Columbia
19544,Bgccvi - Ladysmith Child & Family Centre,220 High Street,220 High Street,220,high street,,Ladysmith,,Province of British Columbia
12595,P.R.Y.D.E. at St. Mark,,nan,95,Waller Street,,Whitby,ON,Province of Ontario
6346,GARDERIE ÉDUCATIVE LIBELLULES ET PAPILLONS INC.,"3645, boulevard Saint-Joseph Est",3645 boulevard Saint-Joseph Est,3645,boulevard saint-joseph est,,Montréal,,Province of Quèbec
22942,Britters' Critters Daycare,4661 Wilson Rd,4661 Wilson Rd,4661,wilson rd,,Duncan,,Province of British Columbia
15703,Tiny Tots,Somerset Lane Medicine Hat AB,somerset lane ,,somerset lane,,Medicine Hat,Alberta,GoDayCare.com
18856,Horton High Child Care Centre,75 GREENWICH RD. S,75 GREENWICH RD S,75,greenwich rd s,,WOLFVILLE RIDGE,,Province of Nova Scotia
20043,West Cambie Childrens Centre,4033 Stolberg Road,4033 Stolberg Road,4033,stolberg road,,Richmond,,Province of British Columbia
8974,A-Z Daycare,,nan,1145,St.Pierre Street,,Orl√©ans,ON,Province of Ontario
21950,Sweet Smile Montessori Childcare,727 Prairie Ave,727 Prairie Ave,727,prairie ave,,Port Coquitlam,,Province of British Columbia
14293,Sandbox Daycare,,nan,424,18th Avenue,,Hanover,ON,Province of Ontario
20387,Rutland Parent Participation Preschool,705 Kitch Rd,705 Kitch Rd,705,kitch rd,,Kelowna,,Province of British Columbia
22975,Megans Puddle Jumpers,519 Acland Ave,519 Acland Ave,519,acland ave,,Victoria,,Province of British Columbia
20887,City Hall Child Care Society,2685 Cambie St,2685 Cambie St,2685,cambie st,,Vancouver,,Province of British Columbia
23262,Mount Pleasant Neighbourhood House Group Day Care,800 East Broadway,800 East Broadway,800,east broadway,,Vancouver,,Province of British Columbia
11585,Le Carrefour d'Ottawa,,nan,35,Melrose Avenue (French),,Ottawa,ON,Province of Ontario
16106,Funfer All Daycare,17th Ave Vernon BC,17th ave ,,17th ave,,Vernon,British Columbia,GoDayCare.com
1913,WAVERLEY DAY CARE CENTRE PROGRAM FOR SCHOOL AGED CHILDREN,6825 89 AVENUE,6825 89 AVENUE,6825,89 avenue,,EDMONTON,,Province of Alberta
17011,Muskoka Family Focus And Children's Place-Bracebridge Children's Place,2 Tamarack Trail Bracebridge ON,2 tamarack trail ,2,tamarack trail,,Bracebridge,Ontario,GoDayCare.com
7856,CENTRE DE LA PETITE ENFANCE LES BONHEURS DE SOPHIE INSTALLATION JOUVENCE,"2115, Terrasse Jouvence",2115 Terrasse Jouvence,2115,terrasse jouvence,,Sainte-Sophie,,Province of Quèbec
7819,GARDERIE CHEZ NANY,"363, rue Gauthier",363 rue Gauthier,363,rue gauthier,,Saint-Jérôme,,Province of Quèbec
9369,Briarcrest Child Care Centre,,nan,60,Wellesworth Drive,,Toronto,ON,Province of Ontario
3389,BRIGHTPATH COCHRANE,609 1ST STREET WEST,609 1ST STREET WEST,609,1st street west,,COCHRANE,,Province of Alberta
12770,PLASP - St. Mark Catholic School,,nan,3675,Sawmill Valley Drive,,Mississauga,ON,Province of Ontario
2549,CLEAR WATER ACADEMY OUT OF SCHOOL CARE PROGRAM,2550 - DIEPPE AVE SW,2550 DIEPPE AVE SW,2550,dieppe ave sw,,CALGARY,,Province of Alberta
13325,"La Coccinelle, Saint-Guillaume",,nan,5750,Buckland Chemin,,Vars,ON,Province of Ontario
7778,CENTRE DE LA PETITE ENFANCE LES LUTINS ENCHANTEURS,"393, côte Saint-Paul",393 côte Saint-Paul,393,côte saint-paul,,Saint-Colomban,,Province of Quèbec
16498,Bo-Peep Nursery And Daycare,27 Connemara Place St. John's NL,27 connemara place ,27,connemara place,,St. John's,Newfoundland And Labrador,GoDayCare.com
2403,WESTEND COMMUNITY PLAYSCHOOL PARENTS ASSOCIATION,15108 - 76 AVENUE,15108 76 AVENUE,15108,76 avenue,,EDMONTON,,Province of Alberta
1057,FOOTSTEPS PRESCHOOL,"SANDSTONE RM., 101 RANCHEHOUSE ROAD",SANDSTONE RM 101 RANCHEHOUSE ROAD,,sandstone rm 101 ranchehouse road,,COCHRANE,,Province of Alberta
3616,KIDLETS 1 OSC,852 119 STREET SW,852 119 STREET SW,852,119 street sw,,EDMONTON,,Province of Alberta
19265,Little People's Workshop - Smallwood,58 Smallwood Drive,58 Smallwood Drive,58,smallwood drive,,Mount Pearl,,Province of Newfoundland and Labrador
9190,Atscott Pre-School Academy,,nan,16945,Leslie Street,,Newmarket,ON,Province of Ontario
16638,St. Paul's Youth Ctr And Nursery School,293 Etter Road Lantz NS,293 etter road ,293,etter road,,Lantz,Nova Scotia,GoDayCare.com
2339,KIDS R FUN PRESCHOOL AND OUT OF SCHOOL CARE,"#102, 1000 - 8 AVE SW",#102 1000 8 AVE SW,1000,8 ave sw,#102,CALGARY,,Province of Alberta
15135,"Family ""Y"" First Base - Elgin Market",,nan,305,Queen Street,,Kincardine,ON,Province of Ontario
4910,Family or Group Child Care Home *,None,None,,,,,,Province of Manitoba
6810,LES PETITS GÉNIES DE VERDUN INC.,"5365, boulevard LaSalle",5365 boulevard LaSalle,5365,boulevard lasalle,,Verdun,,Province of Quèbec
19042,The YMCA Association West Highlands Afterschool,18 MALTBY CRT.,18 MALTBY CRT,18,maltby crt,,AMHERST,,Province of Nova Scotia
24322,Smuyuq'wa' Lelum Ece Centre,4602 Blue Heron Dr,4602 Blue Heron Dr,4602,blue heron dr,,Tsawwassen,,Province of British Columbia
19536,Downtown Ymca-Ywca Childcare,851 Broughton Street,851 Broughton Street,851,broughton street,,Victoria,,Province of British Columbia
10823,Graydon Hall Child Care Services in Don Valley Business Park,,nan,150,Ferrand Drive,,Toronto,ON,Province of Ontario
22130,After School Warriors,201 - 22712 Dewdney Trunk Rd,201 22712 Dewdney Trunk Rd,201,dewdney trunk rd,,Maple Ridge,,Province of British Columbia
21648,Dobbs Family Daycare,2321 Bowen Rd,2321 Bowen Rd,2321,bowen rd,,Nanaimo,,Province of British Columbia
18910,First Friends Day Care Society,4 JUDY AVE.,4 JUDY AVE,4,judy ave,,LOWER SACKVILLE,,Province of Nova Scotia
21848,Puddle Jumpers Daycare,538 Midnight Dr,538 Midnight Dr,538,midnight dr,,Williams Lake,,Province of British Columbia
15631,"Day Care Terwillegar Early Years Day Home Close To Windermere, Riverbend,Am","6835,speaker vista nw edmonton Edmonton AB",6835speaker vista nw edmonton ,,6835speaker vista nw,,Edmonton,Alberta,GoDayCare.com
1929,ADVENTURERS SCHOOL AGE CARE LTD: ST. BRIGID,730 CITADEL WAY NW,730 CITADEL WAY NW,730,citadel way nw,,CALGARY,,Province of Alberta
16200,Le Paradis Des Petits Lt√©e,P.o.box 1098 Cap-Pel√© NB,"Pobox 1098 Cap Pel√© NB, Canada",,,,Cap-pele,New Brunswick,GoDayCare.com
13941,The Village Children's Programs - Sir Richard W. Scott School Age,,nan,90,Roxbury Street,,Markham,ON,Province of Ontario
18524,Garderie La La Land Inc.,13926 Ch. Saint-Simon Mirabel QC,13926 ch saint simon ,13926,ch saint simon,,Mirabel,Quebec,GoDayCare.com
9672,Caring For Kids-Castle Oak,,nan,155,Castle Oaks Crossing,,Brampton,ON,Province of Ontario
1635,FIRST LUTHERAN NURSERY SCHOOL,2925 - 57A AVENUE,2925 57A AVENUE,2925,57a avenue,,LLOYDMINSTER,,Province of Alberta
6025,GARDERIE AU COIN DES AMI(E)S,"8862, rue Hochelaga",8862 rue Hochelaga,8862,rue hochelaga,,Montréal,,Province of Quèbec
15658,High River DayCare,1006 11 Ave. SE High River AB,1006 11 ave se ,1006,11 ave se,,High River,Alberta,GoDayCare.com
21293,Little Angels Preschool Day Care,9731 No 3 Rd,9731 No 3 Rd,9731,no 3 rd,,Richmond,,Province of British Columbia
3937,Angela Peterson,"70 Hallet Avenue (Ave) Winnipeg, MB",70 hallet avenue ,70,hallet avenue,,,,Province of Manitoba
17209,St. Patrick's School Age Day Care Centre,1001 Promenade HÃ©ritage Clarence-Rockland ON,1001 promenade hã©ritage ,1001,promenade hã©ritage,,Clarence-rockland,Ontario,GoDayCare.com
16242,Creative Childcare,1691 Lincoln Rd Fredericton NB,1691 lincoln rd ,1691,lincoln rd,,Fredericton,New Brunswick,GoDayCare.com
18170,A And A Learning Centre,3030 Midland Ave Toronto ON,3030 midland ave ,3030,midland ave,,Toronto,Ontario,GoDayCare.com
20626,Three Little Pigs Daycare,7338 192 St,7338 192 St,7338,192 st,,Surrey,,Province of British Columbia
10433,Rutherford School,,nan,37,Jacob Keffer Parkway,,Maple,ON,Province of Ontario
2956,LA GARDERIE LES PETITS OURSONS,4617-50 AVE,4617 50 AVE,4617,50 ave,,ST. PAUL,,Province of Alberta
13006,Preschool Petit Bateau Inc. - Garderie Educative,,nan,385,Meadows Boulevard,,Mississauga,ON,Province of Ontario
15920,A-Mission Creek Family Daycare,Radant Rd Kelowna BC,radant rd ,,radant rd,,Kelowna,British Columbia,GoDayCare.com
14264,Wellington Street Day Care,,nan,27,Wellington Street,,Alliston,ON,Province of Ontario
4669,Growing Minds Child Care Inc.,"21-25 Main Street Niverville, MB",21 25 main street ,21 25,main street,,,,Province of Manitoba
17194,"Our Children, Our Future-Nos Enfants, Notre Avenir - Chelmsford Public Scho",121 Charlotte Street Chelmsford ON,121 charlotte street ,121,charlotte street,,Chelmsford,Ontario,GoDayCare.com
3082,ACME DAY CARE - CURIOSITY CORNER,323 CLARKE STREET,323 CLARKE STREET,323,clarke street,,ACME,,Province of Alberta
2429,WEST EDMONTON PLAYSCHOOL SOCIETY,15525 84 AVENUE,15525 84 AVENUE,15525,84 avenue,,EDMONTON,,Province of Alberta
13084,Rockcliffe Montessori Pre-School,,nan,415,McArthur Avenue,,Ottawa,ON,Province of Ontario
6577,GARDERIE K.I.D.S. PIERREFONDS II,"4499, boulevard Westpark",4499 boulevard Westpark,4499,boulevard westpark,,Pierrefonds,,Province of Quèbec
12041,Meadowest Preschool Inc.,,nan,N9-6975,Meadowvale Town Centre Circle,,Mississauga,ON,Province of Ontario
7468,LOMBRIC-À-BRAC,"4830, boulevard Dagenais Ouest",4830 boulevard Dagenais Ouest,4830,boulevard dagenais ouest,,Laval,,Province of Quèbec
24631,Navjot Kaur,"335 Fast Court, Saskatoon, SK, S7W 0W8",335 fast court ,335,fast court,,,,Province of Saskatchewan
19241,International Friends,10 Smithville Crescent,10 Smithville Crescent,10,smithville crescent,,St. John's,,Province of Newfoundland and Labrador
17003,Cathie's Tiny Tots,West Side Drive Bowmanville ON,west side drive ,,west side drive,,Bowmanville,Ontario,GoDayCare.com
8190,GARDERIE ÉDUCATIVE DAMILIA 2,"30A, rue Saint-Jean Baptiste Ouest",30A rue Saint-Jean Baptiste Ouest,30a,rue saint-jean baptiste ouest,,Rigaud,,Province of Quèbec
7029,CENTRE DE LA PETITE ENFANCE PICASSOU INC.,"1310, rue de la Digue",1310 rue de la Digue,1310,rue de la digue,,Havre-Saint-Pierre,,Province of Quèbec
4621,Family or Group Child Care Home *,None,None,,,,,,Province of Manitoba
12279,The Munchkin Manor Daycare and Early Learning Centre,,nan,1087,Lillian Street,,Toronto,ON,Province of Ontario
22264,Brockton School Junior Kindergarten,3467 Duval Rd,3467 Duval Rd,3467,duval rd,,North Vancouver,,Province of British Columbia
20326,Magic Bean Daycare,4891 Hermitage Dr,4891 Hermitage Dr,4891,hermitage dr,,Richmond,,Province of British Columbia
17054,ACADEMY OF MONTESSORI INC BRANTFORD,714 COLBORNE STREET EAST Brantford ON,714 colborne street east ,714,colborne street east,,Brantford,Ontario,GoDayCare.com
25117,Kids on the Beach Daycare,P.O.Box 933,PO,,,,,,Nunavut
716,NORTHEND LEARNING CENTER,96 Gorge Road Moncton E1G 1E6 (506) 384-5437,96 gorge road ,96,gorge road,,,,Province of New Brunswick
7749,CENTRE DE LA PETITE ENFANCE L'ANTRE-TEMPS,"700, rue de Saint-Jovite",700 rue de Saint-Jovite,700,rue de saint-jovite,,Mont-Tremblant,,Province of Quèbec
15921,Adventure Land Day Care,Lindahl Street Kelowna BC,lindahl street ,,lindahl street,,Kelowna,British Columbia,GoDayCare.com
11396,King Academy Child Care Centre Inc.,,nan,225,Castle Oaks Crossing,,Brampton,ON,Province of Ontario
8092,CENTRE DE LA PETITE ENFANCE MON MONDE À MOI,"2326, boulevard Marie-Victorin",2326 boulevard Marie-Victorin,2326,boulevard marie-victorin,,Longueuil,,Province of Quèbec
3122,PREFERRED CHILD CARE LTD.,"#1, 3109 PALLISER DRIVE SW",#1 3109 PALLISER DRIVE SW,3109,palliser drive sw,#1,CALGARY,,Province of Alberta
4947,Landmark Preschool Inc.,"Prairie Rose Evangelical Church gym 27093 MB ProvHwy 210 Landmark, MB",prairie rose evangelical church 27093 mb provhwy 210 ,210,mb provhwy,,,,Province of Manitoba
19399,Hunter River Early Learning Centre,"PO BOX 178, HUNTER RIVER","PO BOX 178 HUNTER RIVER PE, Canada",,,,,,Province of Prince Edward Island
19756,Little Koala Montessori Academy Childcare,10011 Blundell Rd,10011 Blundell Rd,10011,blundell rd,,Richmond,,Province of British Columbia
12606,PLASP St. Albert Catholic School,,nan,1125,Midland Avenue,,Scarborough,ON,Province of Ontario
18282,Robin's Home Daycare,"3748 County Road 31, R.R.1 Williamsburg ON",3748 county road 31 rr1 ,3748,county road 31 rr1,,Williamsburg,Ontario,GoDayCare.com
14240,Upper Canada Creative Child Care Centres of Ontario - St. John Chrysostom,,nan,800,Joe Persechini Drive,,Newmarket,ON,Province of Ontario
10860,Guelph School Age Care - St Paul,,nan,182,Clairefields Drive,,Guelph,ON,Province of Ontario
2181,WINFIELD PRE-KINDERGARTEN,401 4 AVENUE EAST,401 4 AVENUE EAST,401,4 avenue east,,WINFIELD,,Province of Alberta
9690,Brooke Montessori Toddler School,,nan,435,21st Street,,Owen Sound,ON,Province of Ontario
17972,Handprints Montessori Daycare,Canterbury crt Richmond Hill ON,canterbury crt ,,canterbury crt,,Richmond Hill,Ontario,GoDayCare.com
6258,GARDERIE PRÉSCOLAIRE MONTESSORI INTERNATIONALE (DÉCARIE),"6525, boulevard Décarie, bureau 122",6525 boulevard Décarie,6525,boulevard décarie,,Montréal,,Province of Quèbec
10757,Glebe Parent's Daycare Mutchmor Campus,,nan,185,Fifth Avenue,,Ottawa,ON,Province of Ontario
10124,OXFORD LEARNING CENTRE - RATHBURN,,nan,925,Rathburn Road,,Mississauga,ON,Province of Ontario
11680,"Le Man√®ge, Sainte-Kateri",,nan,2450,River Mist,,Ottawa,ON,Province of Ontario
4245,Little Voyageurs Learning Centre Inc.,"649 Brazier Street Winnipeg, MB",649 brazier street ,649,brazier street,,,,Province of Manitoba
15390,ST. ANNE'S CHILD CARE CENTRE,,nan,1000,The Rapids Parkway,,Sarnia,ON,Province of Ontario
13576,Blessed Mother Teresa House,,nan,652,South Pelham Road,,Welland,ON,Province of Ontario
15795,Tsuu T'Ina Sarcee Day Care Centre,9911 Chiila Blvd SW Strathmore AB,9911 chiila blvd sw ,9911,chiila blvd sw,,Strathmore,Alberta,GoDayCare.com
15354,Rosedale YMCA School Age,,nan,1018,Indian Road,,Sarnia,ON,Province of Ontario
16993,Garderie Le Petit Voilier - Ecole Marguerite Bourgeois,113 Rue Waterloo Est Borden ON,113 rue waterloo est ,113,rue waterloo est,,Borden,Ontario,GoDayCare.com
18362,Chez Moi-private Daycare,232 rue robert martial Aylmer QC,232 rue robert martial ,232,rue robert martial,,Aylmer,Quebec,GoDayCare.com
21076,West-Mont School,4075 Metchosin Road,4075 Metchosin Road,4075,metchosin road,,Victoria,,Province of British Columbia
3306,KIDS U WALDEN,250 WALDEN DRIVE SE,250 WALDEN DRIVE SE,250,walden drive se,,CALGARY,,Province of Alberta
19974,Brentwood Montessori Child Care Ltd.,101 - 1950 Bellwood Ave,101 1950 Bellwood Ave,101 1950,bellwood ave,,Burnaby,,Province of British Columbia
8433,CENTRE DE LA PETITE ENFANCE DES MARGUERITES (1976),"40D, rue Albert",40D rue Albert,40d,rue albert,,Sorel-Tracy,,Province of Quèbec
17241,Little Wonders,Davis St Collingwood ON,davis st ,,davis st,,Collingwood,Ontario,GoDayCare.com
17515,Lil' Ducks Home Daycare,Calwood Ave Greely ON,calwood ave ,,calwood ave,,Greely,Ontario,GoDayCare.com
15095,YMCA Child Care- Father Fogarty 2,,nan,269,Thorold Road,,Welland,ON,Province of Ontario
22491,Butterfly Early Learning Center,511 San Remo Dr,511 San Remo Dr,511,san remo dr,,Port Moody,,Province of British Columbia
3767,GU CHINESE SCHOOL OUT OF SCHOOL CARE PROGRAM,11435 40 AVENUE NW,11435 40 AVENUE NW,11435,40 avenue nw,,EDMONTON,,Province of Alberta
23497,Rainbow Kids Daycare,4521 Stauble Rd,4521 Stauble Rd,4521,stauble rd,,Prince George,,Province of British Columbia
7478,CENTRE DE LA PETITE ENFANCE BOUTON DE ROSE,"880, rue Sagala",880 rue Sagala,880,rue sagala,,Berthierville,,Province of Quèbec
12192,MIFO √©cole des Voyageurs,,nan,6030,Voyageur Promenade,,Orl√©ans,ON,Province of Ontario
21733,Mooshy Daycare,4417 Valencia Ave,4417 Valencia Ave,4417,valencia ave,,North Vancouver,,Province of British Columbia
24616,Olivia Felipe,"894 Kingsmere Blvd, Saskatoon, SK, S7J 4J7",894 kingsmere blvd ,894,kingsmere blvd,,,,Province of Saskatchewan
11597,EJ Sands Le Club,,nan,21,Mullen Drive,,Thronhill,ON,Province of Ontario
3355,KIDS @ PLAY DAY CARE,#208 4201 28 STREET,#208 4201 28 STREET,4201,28 street,#208,STONY PLAIN,,Province of Alberta
16565,French Daycare - Garderie Francais,52 stirling Dr Cole Harbour NS,52 stirling dr ,52,stirling dr,,Cole Harbour,Nova Scotia,GoDayCare.com
3363,DAVAR CHILD DEVELOPMENT CENTRE,3413 - 19TH AVE. SE,3413 19TH AVE SE,3413,19th ave se,,CALGARY,,Province of Alberta
14706,Kingston Family YMCA Arbour Heights Child Care Centre,,nan,564,Tanner Drive,,Kingston,ON,Province of Ontario
5904,CENTRE DE LA PETITE ENFANCE LE P'TIT TERMINUS,"3350, boulevard des Trinitaires",3350 boulevard des Trinitaires,3350,boulevard des trinitaires,,Montréal,,Province of Quèbec
20482,Acorn To Oaks Academy,9080 Granville Ave,9080 Granville Ave,9080,granville ave,,Richmond,,Province of British Columbia
9209,Willowbrae Childcare Academy,,nan,126,Wellington Street,,Aurora,ON,Province of Ontario
2079,WINDERMERE EARLY LEARNING CENTRE,6086 ANDREWS WAY SW,6086 ANDREWS WAY SW,6086,andrews way sw,,EDMONTON,,Province of Alberta
23586,Ross Bay Preschool Ltd,1620 Earle Street,1620 Earle Street,1620,earle street,,Victoria,,Province of British Columbia
7735,GARDERIE LES MINI SOLEILS II INC.,"17600, rue du Val-d'Espoir",17600 rue du Val-d'Espoir,17600,rue du val-d'espoir,,Mirabel,,Province of Quèbec
3951,Assiniboine Castle Daycare Co-op Inc.,"500 Shaftesbury Boulevard (Blvd) Winnipeg, MB",500 shaftesbury boulevard ,500,shaftesbury boulevard,,,,Province of Manitoba
6603,ECOLE MONTESSORI DE POINTE-CLAIRE (2),"116A, avenue Sunderland",116A avenue Sunderland,,116a avenue sunderland,,Pointe-Claire,,Province of Quèbec
3970,Bright Beginnings Educare Inc.,"5330 Monterey Road Headingley, MB",5330 monterey road ,5330,monterey road,,,,Province of Manitoba
24877,Nazia Mir,"115 Scrivener Crescent, Regina, SK, S4N 4V6",115 scrivener crescent ,115,scrivener crescent,,,,Province of Saskatchewan
7810,CENTRE DE LA PETITE ENFANCE LE FUNAMBULE INC.,"220, rue Saint-Marc",220 rue Saint-Marc,220,rue saint-marc,,Saint-Jérôme,,Province of Quèbec
13148,Rocking Horse Early Learning Centre,,nan,74,Christie Street,,Rockwood,ON,Province of Ontario
19591,Mountain View Preschool,2725 Lonsdale Ave,2725 Lonsdale Ave,2725,lonsdale ave,,North Vancouver,,Province of British Columbia
20064,Mish Mash,40022 Government Rd,40022 Government Rd,40022,government rd,,Squamish,,Province of British Columbia
6698,P'TIT TRAIN EXPRESS INC.,"3500, boulevard de la Côte-Vertu, porte 132",3500 boulevard de la Côte-Vertu porte 132,3500,boulevard de la côte-vertu,porte 132,Saint-Laurent,,Province of Quèbec
6342,GARDERIE ÉDUCATIVE LES PETITS SOURIRES,"6206, avenue Somerled",6206 avenue Somerled,6206,avenue somerled,,Montréal,,Province of Quèbec
19293,Panda Bear Daycare,44 Linegar Avenue,44 Linegar Avenue,44,linegar avenue,,St. John's,,Province of Newfoundland and Labrador
16518,Bright Beginnings Child Care Centre,25 Park St Amherst NS,25 park st ,25,park st,,Amherst,Nova Scotia,GoDayCare.com
8755,Little Steps Early Learning and Child Care Centre,,nan,9418,Highway 48,,Markham,ON,Province of Ontario
18367,KinderGarden House,493 Beaconsfield Boul. Beaconsfield QC,493 beaconsfield boul ,493,beaconsfield boul,,Beaconsfield,Quebec,GoDayCare.com
17315,Teenies Tots Daycare,Connaught st Delhi ON,connaught st ,,connaught st,,Delhi,Ontario,GoDayCare.com
1543,MAMA'S DAYCARE,6414 118 AVENUE,6414 118 AVENUE,6414,118 avenue,,EDMONTON,,Province of Alberta
5673,GARDERIE LE LAPIN BLEU I,"1885A, rue Saint-Régis",1885A rue Saint-Régis,1885a,rue saint-régis,,Dollard-des-Ormeaux,,Province of Quèbec
13470,St. George Mini School - Mallard,,nan,33,Mallard Road,,Toronto,ON,Province of Ontario
15555,Airdrie Prairie Springs Dayhome,Prairie Springs Airdrie AB,prairie springs ,,,,Airdrie,Alberta,GoDayCare.com
22259,Precious Time Child Care,1408 17Th St S,1408 17Th St S,1408,17th st s,,Cranbrook,,Province of British Columbia
847,The Preschool Centre on Main St 2,115 Main Street Fredericton E3A 1C6 (506) 458-8980,115 main street ,115,main street,,,,Province of New Brunswick
3983,Busy Bee Day Care Centre Inc.,"646 - 648 McGee Street Winnipeg, MB",646 648 mcgee street ,646 648,mcgee street,,,,Province of Manitoba
10624,R2L with Free to Become at Longue Sault Public School,,nan,13,Bethune Street,,Longue Sault,ON,Province of Ontario
15048,YMCA Child Care - Briardale,,nan,1,Caroline Street,,St. Catharines,ON,Province of Ontario
5219,CENTRE DE LA PETITE ENFANCE LES ÉCLATS DE RIRE,"2210, rue Desroches",2210 rue Desroches,2210,rue desroches,,Québec,,Province of Quèbec
16515,Num Num,dee dee Inuvik NT,dee dee ,,,,Inuvik,Northwest Territories,GoDayCare.com
8273,GARDERIE ÉDUCATIVE LES SENTIERS DE L'ENFANCE,"4600, rue Armand-Frappier",4600 rue Armand-Frappier,4600,rue armand-frappier,,Saint-Hubert,,Province of Quèbec
24054,Our Lady Of Fatima Pre-School,315 Walker Street,315 Walker Street,315,walker street,,Coquitlam,,Province of British Columbia
17225,Terry Fox YMCA Child Care,1065 Riddell Avenue Cobourg ON,1065 riddell avenue ,1065,riddell avenue,,Cobourg,Ontario,GoDayCare.com
13980,Tilbury Tots Early Learning Centre - TAPS,,nan,5,Mable Street,,Tilbury,ON,Province of Ontario
8487,CENTRE DE LA PETITE ENFANCE COOPÉRATIF LES P'TITES ABEILLES,"155, rue Dunkin",155 rue Dunkin,155,rue dunkin,,Drummondville,,Province of Quèbec
11393,Kinderplace Childcare Centre Inc.,,nan,1000,Huron Avenue,,Thunder Bay,ON,Province of Ontario
7039,INSTALLATION MAGIMUSE,"37, route 138",37 route 138,37,route 138,,Ragueneau,,Province of Quèbec
13708,The Alderbuds Child Care Centre of Etobicoke 2,,nan,399,The West Mall,,Etobicoke,ON,Province of Ontario
5253,FANFOURIRE,"166, avenue Bernatchez",166 avenue Bernatchez,166,avenue bernatchez,,Québec,,Province of Quèbec
7537,CENTRE DE LA PETITE ENFANCE COEUR DE POMME,"305, boulevard Lacombe",305 boulevard Lacombe,305,boulevard lacombe,,Repentigny,,Province of Quèbec
22807,Happy Campers Osc - David Cameron,675 Meaford Avenue,675 Meaford Avenue,675,meaford avenue,,Colwood,,Province of British Columbia
18749,Adelle's Daycare,303 112th st Saskatoon SK,303 112th st ,303,112th st,,Saskatoon,Saskatchewan,GoDayCare.com
19523,The Maria Montessori School,8597 156 St,8597 156 St,8597,156 st,,Surrey,,Province of British Columbia
7015,CENTRE DE LA PETITE ENFANCE VALLÉE DES LOUPIOTS,"351, rue de l'Église",351 rue de l'Église,351,rue de l'église,,Val-d'Or,,Province of Quèbec
18807,Church Of Nazarene Daycare,2111 Centennial Street Whitehorse YT,2111 centennial street ,2111,centennial street,,Whitehorse,Yukon Territory,GoDayCare.com
19047,14 Wing Greenwood Military Family Resource Centre,64 SCHOOL RD.,64 SCHOOL RD,64,school rd,,CFB GREENWOOD,,Province of Nova Scotia
5973,CENTRE POUR ENFANT NAMASTÉ INC. / NAMASTÉ CHILDRENS CENTER INC.,"1751, rue Richardson, appartement 1.052",1751 rue Richardson appartement 1052,1751,rue richardson,appartement 1052,Montréal,,Province of Quèbec
17351,Kate's Home Daycare,20 Hope st dundas ON,20 hope st ,20,hope st,,Dundas,Ontario,GoDayCare.com
21371,Little Willows Early Learning Childcare Centre (Powell) Inc,23500 Dewdney Trunk Rd,23500 Dewdney Trunk Rd,23500,dewdney trunk rd,,Maple Ridge,,Province of British Columbia
14748,North York Junior Y (YMCA),,nan,567,Sheppard Avenue,,Toronto,ON,Province of Ontario
21614,It's A Small World Daycare,11555 239A St,11555 239A St,11555,239a st,,Maple Ridge,,Province of British Columbia
18773,Tadpoles Day Care,Ens Lane Warman SK,ens lane ,,ens lane,,Warman,Saskatchewan,GoDayCare.com
2174,DOLPHIN CHILD DEVELOPMENT CENTRE,5019 51 AVENUE,5019 51 AVENUE,5019,51 avenue,,GIBBONS,,Province of Alberta
1524,WILDFLOWERS CHILDCARE,303 BONHOMME STREET,303 BONHOMME STREET,303,bonhomme street,,JASPER,,Province of Alberta
13881,The Monkey Barrel Indoor Play Inc,,nan,61,Victoria Street,,Southampton,ON,Province of Ontario
16441,Come And Play Preschool,P.o. Box 836 Corner Brook NL,po ,,,,Corner Brook,Newfoundland And Labrador,GoDayCare.com
14802,Meadowcrest YMCA,,nan,20,Vipond Road,,Brooklin,ON,Province of Ontario
7483,LE ROYAUME DES Z'AMOURS INC.,"3, rue Quintal",3 rue Quintal,3,rue quintal,,Charlemagne,,Province of Quèbec
15898,Delta Daycare,7675 116A Street Delta BC,7675 116a street ,7675,116a street,,Delta,British Columbia,GoDayCare.com
16943,Oldfield Academy,419 Dayfoot street Beeton ON,419 dayfoot street ,419,dayfoot street,,Beeton,Ontario,GoDayCare.com
7133,CENTRE DE LA PETITE ENFANCE L'ARC-EN-CIEL INC.,"269-271, rue Saint-Joseph",269-271 rue Saint-Joseph,269-271,rue saint-joseph,,Lévis,,Province of Quèbec
10942,St. Mark Before and After School Program,,nan,43,Whitedeer Road,,Stoney Creek,ON,Province of Ontario
13685,Teddy Bears Picnic Child Care - Full Day,,nan,221,Main Street,,Newmarket,ON,Province of Ontario
24336,Kootenay Kinderschool,523 Mill St,523 Mill St,523,mill st,,Nelson,,Province of British Columbia
15814,Abbotsford Christian Preschool,3939 Old Clayburn Rd Abbotsford BC,3939 old clayburn rd ,3939,old clayburn rd,,Abbotsford,British Columbia,GoDayCare.com
15568,Alberta Aproved Family Day Home,47 greenbrook mobile village Brooks AB,47 greenbrook mobile village ,47,greenbrook mobile village,,Brooks,Alberta,GoDayCare.com
11102,Jamesville Children's Centre,,nan,252,James Street,,Hamilton,ON,Province of Ontario
6667,GARDERIE LE PETIT SAFARI,"1260, boulevard Marcel-Laurin",1260 boulevard Marcel-Laurin,1260,boulevard marcel-laurin,,Saint-Laurent,,Province of Quèbec
5496,GARDERIE JARDIN DES PETITS POUCETS,"6600, rue Amyot",6600 rue Amyot,6600,rue amyot,,Trois-Rivières,,Province of Quèbec
21499,Joey's Out Of School Care,523 Mill St,523 Mill St,523,mill st,,Nelson,,Province of British Columbia
20349,Abc Childcare Centre,32340 Mouat Dr,32340 Mouat Dr,32340,mouat dr,,Abbotsford,,Province of British Columbia
23967,Altamont Child Development Centre Inc.,2879 Marine Drive,2879 Marine Drive,2879,marine drive,,West Vancouver,,Province of British Columbia
6147,GARDERIE LE MONDE DE L'ENFANT INC.,"880, avenue Ogilvy",880 avenue Ogilvy,880,avenue ogilvy,,Montréal,,Province of Quèbec
13106,Reaching for Rainbows,,nan,31,King Street,,Picton,ON,Province of Ontario
4753,Dauphin Magical Horizons Day Care Center Inc.,"135 6th Avenue (Ave) SW Dauphin, MB",135 6th avenue sw ,135,6th avenue sw,,,,Province of Manitoba
23057,Marble Hill Childcare,7105B Tahoma Pl,7105B Tahoma Pl,7105b,tahoma pl,,Chilliwack,,Province of British Columbia
10503,Family Day Care Services - Holy Spirit Before & After School Program,,nan,25,Bloomsbury Avenue,,Brampton,ON,Province of Ontario
23227,Kidzee Land Child Care,14552 88 Ave,14552 88 Ave,14552,88 ave,,Surrey,,Province of British Columbia
24099,Bugs N Butterflies,224 Potlatch St,224 Potlatch St,224,potlatch st,,Parksville,,Province of British Columbia
7895,CENTRE DE LA PETITE ENFANCE LA RUCHE MAGIQUE INC.,"1016, rue Charcot",1016 rue Charcot,1016,rue charcot,,Boucherville,,Province of Quèbec
13779,The Fonthill Baptist Church Nursery School,,nan,1,Church Hill Street,,Fonthill,ON,Province of Ontario
1007,WEE WILD ONES,10 - 11A ST. NE,10 11A ST NE,10,11a st ne,,CALGARY,,Province of Alberta
9168,As-Sadiq Day Care,,nan,9000,Bathurst Street,,Thornhill,ON,Province of Ontario
25045,Redvers Early Learning and Child Care Centres Inc,"#7 Service Road, Box 75, Redvers, SK, S0C 2H0",#7 service road ,#7,service road,,,,Province of Saskatchewan
749,PLAYSCHOOL,A 223 Main Street Sackville E4L 3A7 (506) 536-1837,a 223 main street ,223,main street,,,,Province of New Brunswick
4728,Childcare - Family Access Network Inc.,"159 Fosberry Street Laurier, MB",159 fosberry street ,159,fosberry street,,,,Province of Manitoba
3239,TCS GREAT BEGINNINGS,21410 HWY 18,21410 HWY 18,21410,hwy 18,,THORHILD,,Province of Alberta
23464,Little Bambi's Daycare,203 Davis Cres,203 Davis Cres,203,davis cres,,Aldergrove,,Province of British Columbia
10137,Programme Petits pas √† trois √©cole Marius-Barbeau,,nan,1345,Nottinghill Avenue,,Ottawa,ON,Province of Ontario
13472,St. George's School Age Child Care Programme (Facility #11987),,nan,70,Princess Anne Crescent,,Toronto,ON,Province of Ontario
14681,Lakefield YMCA-St. Pauls Schoolage Program,,nan,2,Grant Avenue,,Selwyn,ON,Province of Ontario
12939,Perth Early Learning Centre,,nan,14,Ruskin Avenue,,Toronto,ON,Province of Ontario
18131,Celine's Daycare,keefer rd Thorold ON,keefer rd ,,keefer rd,,Thorold,Ontario,GoDayCare.com
7317,CENTRE DE LA PETITE ENFANCE YOUPI,"475, boulevard de l'Avenir",475 boulevard de l'Avenir,475,boulevard de l'avenir,,Laval,,Province of Quèbec
17423,Munchkinz Preschool,260 The Queensway Etobicoke ON,260 the queensway ,260,the queensway,,Etobicoke,Ontario,GoDayCare.com
10006,Churchill Chums School Age Child Care Centre,,nan,188,Churchill Avenue,,Toronto,ON,Province of Ontario
5350,JARDIN D'ENFANTS DUROCHER,"390, rue Arago Ouest",390 rue Arago Ouest,390,rue arago ouest,,Québec,,Province of Quèbec
15697,SunDance Day Care,226 Mt. Sundance Cres. West Lethbridge AB,226 mt sundance cres west ,226,mt sundance cres west,,Lethbridge,Alberta,GoDayCare.com
18499,Happy Smiles Daycare,maria Lasalle QC,maria ,,,,Lasalle,Quebec,GoDayCare.com
9445,Commonwealth YMCA Child Development Centre,,nan,166,Pearl Street,,Brockville,ON,Province of Ontario
22210,Sunnyside Daycare,5211 Cottonwood Rd,5211 Cottonwood Rd,5211,cottonwood rd,,Fort Nelson,,Province of British Columbia
130,YWCA Afterschool Program-NJ MacPherson Senior 148,none,none,,,,Yellowknife,,Northwest Territories
20476,Happy Campers - Otter Point,2080 Otter Point Rd,2080 Otter Point Rd,2080,otter point rd,,Sooke,,Province of British Columbia
16871,Aurora Nursery School,33 Mosley Street Aurora ON,33 mosley street ,33,mosley street,,Aurora,Ontario,GoDayCare.com
11805,SCHOOL AGE PROGRAM - EMILY CARR PUBLIC SCHOOL,,nan,44,Hawthorne Road,,London,ON,Province of Ontario
4923,Family or Group Child Care Home *,None,None,,,,,,Province of Manitoba
25051,Toys FDH,"15 Cedar Cres, Y1A 4P2",15 Cedar Cres,15,cedar cres,,,,Yukon Territory
17555,Lacey Szabo's Private In Home Day Care,21st A. Ave Hanover ON,21st a ave ,,21st a ave,,Hanover,Ontario,GoDayCare.com
14275,Valleyway Day Care Centre- Mary Ward Centre,,nan,2999,Dorchester Road,,Niagara Falls,ON,Province of Ontario
2743,THE CALGARY JEWISH ACADEMY,6700 KOOTENAY ST SW,6700 KOOTENAY ST SW,6700,kootenay st sw,,CALGARY,,Province of Alberta
18486,Angel's Keeper Daycare,Provost Lachine QC,provost ,,,,Lachine,Quebec,GoDayCare.com
14189,Holy Name Child Care,,nan,65,Spring Hill Drive,,King City,ON,Province of Ontario
19079,Project Elm (Upper Musquodoboit),8416 HIGHWAY 224 HWY.,8416 HIGHWAY 224 HWY,8416,highway 224 hwy,,UPPER MUSQUODOBOIT,,Province of Nova Scotia
14769,William Burgess Jr Y Day Care (YMCA),,nan,100,Torrens Avenue,,Toronto,ON,Province of Ontario
23222,Green House Studio,737 Wilson St,737 Wilson St,737,wilson st,,Victoria,,Province of British Columbia
6208,GARDERIE LES ÉTOILES,"7571, 17e avenue",7571 17e avenue,7571,17e avenue,,Montréal,,Province of Quèbec
414,Garderie Les P'tites Tornades,64 rue Arlequin Sainte-Marie-Saint-Raphal E8T 1N4 (506) 344-5404,64 rue arlequin ,64,rue arlequin,,,,Province of New Brunswick
13372,S.E.E.D.S. Childcare - St. Marguerite d'Youville,,nan,87,Hanmer Street,,Barrie,ON,Province of Ontario
3180,ACCI - DAYCARE,"134, 85 RAILWAY AVENUE SW",134 85 RAILWAY AVENUE SW,134 85,railway avenue sw,,AIRDRIE,,Province of Alberta
6714,CENTRE EDUCATIF FLEURY INC.,"6365, boulevard Robert",6365 boulevard Robert,6365,boulevard robert,,Saint-Léonard,,Province of Quèbec
20805,Echo Academy,100 - 1605 Sutherland Ave,100 1605 Sutherland Ave,100 1605,sutherland ave,,Kelowna,,Province of British Columbia
8057,GARDERIE IMAGINACTION,"1000, boulevard Taschereau",1000 boulevard Taschereau,1000,boulevard taschereau,,La Prairie,,Province of Quèbec
893,WEE COLLEGE HILDEGARD CAMPUS 1,31 Hildegard Drive Moncton E1G 2G5 (506) 830-2400,31 hildegard drive ,31,hildegard drive,,,,Province of New Brunswick
25090,Kidz Spot FDH,"112 Alsek Road, Y1A 3K6",112 Alsek Road,112,alsek road,,,,Yukon Territory
19389,Kidhub Maple,"56 MAPLE AVENUE, CHARLOTTETOWN",56 maple avenue ,56,maple avenue,,,,Province of Prince Edward Island
7167,GARDERIE LES PETITS SEIGNEURS,"648, rue Drouin",648 rue Drouin,648,rue drouin,,Lévis,,Province of Quèbec
12897,Parkway Day Care BASP-Walpole,,nan,1895,Haldimand Road 55 Road,,Hagersville,ON,Province of Ontario
18017,BEAUTIFUL BEGINNINGS HOME DAYCARE,ROTARY DRIVE Scarborough ON,rotary drive ,,rotary drive,,Scarborough,Ontario,GoDayCare.com
25057,Creative Play Inc.,"312 Strickland Street, Y1A 2K1",312 Strickland Street,312,strickland street,,,,Yukon Territory
22355,Little Orca's Early Learning Centre,415 Pinecrest Rd,415 Pinecrest Rd,415,pinecrest rd,,Campbell River,,Province of British Columbia
16892,Centre Pivot Du Triangle Magique De Rayside Balfour - Ãâcole Ste-Marie,25 Rue Marier Azilda ON,25 rue marier ,25,rue marier,,Azilda,Ontario,GoDayCare.com
17770,Barrhaven - Cecilia's Home Daycare,Kennacraig Pvt. Nepean ON,kennacraig pvt ,,kennacraig pvt,,Nepean,Ontario,GoDayCare.com
20726,Cariboo Clubhouse After School Care & Activity Centre,2075 Balsam Ave,2075 Balsam Ave,2075,balsam ave,,Quesnel,,Province of British Columbia
8675,Little House Montessori School,,nan,140,Maple Street,,Collingwood,ON,Province of Ontario
15073,YMCA Child Care - Park,,nan,217,Main Street,,Grimsby,ON,Province of Ontario
10511,Family Day Care Services - St. Maria Goretti Child Care Centre,,nan,121,Royal Orchard Drive,,Brampton,ON,Province of Ontario
9737,Centennial College East York Day Care (Plains Rd),,nan,175,Plains Road,,Toronto,ON,Province of Ontario
22818,Squamish Waldorf Huckleberry Daycare,38265 Westway Ave,38265 Westway Ave,38265,westway ave,,Squamish,,Province of British Columbia
15762,For Infants Only,Greenwood Drive Spruce Grove AB,greenwood drive ,,greenwood drive,,Spruce Grove,Alberta,GoDayCare.com
8320,CENTRE DE LA PETITE ENFANCE LA P'TITE CABOCHE,"405, rue Coderre",405 rue Coderre,405,rue coderre,,Saint-Jean-sur-Richelieu,,Province of Quèbec
28,AFCHR - Ecole Boreale garde apres ecole,"145 Riverview Drive, Ecole Boreale",145 Riverview Drive Ecole Boreale,145,riverview drive ecole boreale,,Hay River NT,,Northwest Territories
15541,Chabad of Danforth - Beaches,,nan,2273,queen Street,,Toronto,ON,Province of Ontario
15579,Lil Ren's Tot Watch,Cougar Plateau Mews SW Calgary AB,cougar plateau mews sw ,,cougar plateau mews sw,,Calgary,Alberta,GoDayCare.com
11270,Kids & Company Ltd. - Consumers Site,,nan,251,Consumers Road,,Toronto,ON,Province of Ontario
18204,1.2..me...Daycare,Ethel Street Vanier ON,ethel street ,,ethel street,,Vanier,Ontario,GoDayCare.com
16710,Brins De Soleil,15 Inglis St Sydney NS,15 inglis st ,15,inglis st,,Sydney,Nova Scotia,GoDayCare.com
8990,Applewood Montessori Academy & Daycare,,nan,333,Fairhill Avenue,,Brampton,ON,Province of Ontario
6665,GARDERIE LA PETITE MAISON ROUGE,"1701-1703, rue Poirier",1701-1703 rue Poirier,1701-1703,rue poirier,,Saint-Laurent,,Province of Quèbec
334,GARDERIE CHEZ SMARTIES,2175 Route 133 Grand-Barachois E4P 8E8 (506) 874-8857,2175 route 133 ,2175,route 133,,,,Province of New Brunswick
23742,Nena's Day Care,3632 Greentree Lane,3632 Greentree Lane,3632,greentree lane,,North Vancouver,,Province of British Columbia
16662,Microtots Preschool,539 Martin Ave New Glasgow NS,539 martin ave ,539,martin ave,,New Glasgow,Nova Scotia,GoDayCare.com
8396,GARDERIE PRIVÉE INTERNATIONALE STE-CATHERINE,"520, rue Centrale",520 rue Centrale,520,rue centrale,,Sainte-Catherine,,Province of Quèbec
24774,Swift Current Child Care Centre,"287 13th Avenue Northeast, Swift Current, SK, S9H 2V8",287 13th avenue northeast ,287,13th avenue northeast,,,,Province of Saskatchewan
16685,Lower Sackville Nursery School,567 Sackville Dr Sackville NS,567 sackville dr ,567,sackville dr,,Sackville,Nova Scotia,GoDayCare.com
14817,St Thomas Aquinas YMCA Before and After School,,nan,400,Pacific Avenue,,Oshawa,ON,Province of Ontario
3717,MAGIC MOUNTAIN AIRDRIE CROSSING,20 GATEWAY DRIVE NW,20 GATEWAY DRIVE NW,20,gateway drive nw,,AIRDRIE,,Province of Alberta
4285,Family or Group Child Care Home *,None,None,,,,,,Province of Manitoba
20625,Sondra's Place,2087 Lambert Dr,2087 Lambert Dr,2087,lambert dr,,Courtenay,,Province of British Columbia
16687,Mother Hubbard 'N' Friends Daycare,22 Glendale Ave Sackville NS,22 glendale ave ,22,glendale ave,,Sackville,Nova Scotia,GoDayCare.com
20159,Mickey's Playhouse Family Child Care,1657 Bowser Ave,1657 Bowser Ave,1657,bowser ave,,North Vancouver,,Province of British Columbia
12956,North Side Childcare Service,,nan,16,Regalbuto Street,,Petawawa,ON,Province of Ontario
17257,Babies And Bears Daycare,65 Fourth ave Coniston ON,65 fourth ave ,65,fourth ave,,Coniston,Ontario,GoDayCare.com
15424,YWCA Hamilton - Buchannan Park Before and After School Program,,nan,30,Laurier Avenue,,Hamilton,ON,Province of Ontario
8855,605061 Ontario Ltd. - Best Friends School Age Program,,nan,70,Devins Drive,,Aurora,ON,Province of Ontario
3656,ADVENTURES CHILD CARE 6,950 6 STREET NE,950 6 STREET NE,950,6 street ne,,CALGARY,,Province of Alberta
1493,KEPLER ACADEMY EARLY LEARNING AND CHILDCARE INC.,10123 99 STREET,10123 99 STREET,10123,99 street,,EDMONTON,,Province of Alberta
12637,All Saints Early Learning and Child Care Centre,,nan,4105,Colonial Drive,,Mississauga,ON,Province of Ontario
6646,CENTRE ÉDUCATIF BARRÉ,"2100, rue de Londres",2100 rue de Londres,2100,rue de londres,,Saint-Laurent,,Province of Quèbec
19156,Jubilee Road Children's Centre,6117 JUBILEE RD.,6117 JUBILEE RD,6117,jubilee rd,,HALIFAX,,Province of Nova Scotia
12282,Head Start Montessori,,nan,2235,Sheppard Avenue,,Toronto,ON,Province of Ontario
24680,Tykes and Tots Early Learning Centre - Caswell Hill,"515 - 28th Street West, Saskatoon, SK, S7L 4R5",515 28th street west ,515,28th street west,,,,Province of Saskatchewan
2187,PRESCHOOL 101 INC.,"#20, 20 PANATELLA BLVD. NW",#20 20 PANATELLA BLVD NW,20,panatella blvd nw,#20,CALGARY,,Province of Alberta
8300,GARDERIE LES ARCS-EN-CIEL FRANLOU INC.,"3095, rue Saint-Charles",3095 rue Saint-Charles,3095,rue saint-charles,,Saint-Hyacinthe,,Province of Quèbec
18925,Project ELM Pre-school (Dutch Settlement),780 HIGHWAY 277,780 HIGHWAY 277,780,highway 277,,DUTCH SETTLEMENT,,Province of Nova Scotia
9120,Andrew Fleck Children's Services - Centre √©ducatif Sunflower Child Care Centre,,nan,700,Montreal,,Ottawa,ON,Province of Ontario
20914,SFU Childcare Society (Skyfire),8888 University Dr Simon Fraser University,8888 University Dr Simon Fraser University,8888,university dr,,Burnaby,,Province of British Columbia
4938,"Flin Flon and District Guidance Nursery, Inc.","Ruth Betts Sch. 9 Terrace Avenue (Ave) Flin Flon, MB",ruth betts sch 9 terrace avenue ,9,terrace avenue,,,,Province of Manitoba
11603,Le Club - Woodland,,nan,120,Royal Orchard Boulevard,,Thornhill,ON,Province of Ontario
3569,SEEDS OF S.P.I.C.E. EARLY LEARNING CENTRE INC.,5225 VARSITY DRIVE NW,5225 VARSITY DRIVE NW,5225,varsity drive nw,,CALGARY,,Province of Alberta
3854,SKY OUT OF SCHOOL CARE,2503 ELLWOOD DRIVE SW,2503 ELLWOOD DRIVE SW,2503,ellwood drive sw,,EDMONTON,,Province of Alberta
10177,WNCCC - Service de garde des Louveteaux,,nan,93,Michaud Rue,,Sturgeon Falls,ON,Province of Ontario
6557,L'OASIS DES TOUT P'TITS,"1490, avenue Ducharme",1490 avenue Ducharme,1490,avenue ducharme,,Outremont,,Province of Quèbec
17609,Bilingual Daycare - Located In Keswick,000 Dovedale Dr Keswick ON,000 dovedale dr ,000,dovedale dr,,Keswick,Ontario,GoDayCare.com
3576,EARLY MINDS PRESCHOOL - MAHOGANY,130 MAHOGANY PLAZA SE,130 MAHOGANY PLAZA SE,130,mahogany plaza se,,CALGARY,,Province of Alberta
4140,The Young Men's and Young Women's Christian Association Of Winnipeg Inc.,"Preschool and Infant centre,MPR,Rm 3,gym 99 Highbury Road Winnipeg, MB",preschool and infant centrempr 3 99 highbury road ,99,highbury road,,,,Province of Manitoba
14129,Vincent Massey/Oshawa Before and After School Age Program,,nan,211,Harmony Road,,Oshawa,ON,Province of Ontario
10319,Discovery Early Learning and Care Holy Trinity Site,,nan,1945,Hawthorne Drive,,Sudbury,ON,Province of Ontario
3923,Agassiz Child Care Centre Inc.,"131 Leach Street Winnipeg, MB",131 leach street ,131,leach street,,,,Province of Manitoba
20868,Sweet Pea's Daycare,699 Accacia Ave,699 Accacia Ave,699,accacia ave,,Coquitlam,,Province of British Columbia
14130,Walter E.Harris Before and After School Age Program,,nan,495,Central Park Boulevard,,Oshawa,ON,Province of Ontario
2795,BETHEL DAYCARE BEACON HILL,210 BEACON HILL DRIVE,210 BEACON HILL DRIVE,210,beacon hill drive,,FORT MCMURRAY,,Province of Alberta
8011,CENTRE DE LA PETITE ENFANCE NEZ-À-NEZ,"220, rue Davignon",220 rue Davignon,220,rue davignon,,Granby,,Province of Quèbec
12498,Ottawa Carleton District School Board (Rideau High School Infant Toddler Preschool Program),,nan,815,St.Laurent Boulevard,,Ottawa,ON,Province of Ontario
2771,ASSOCIATION PREMATERNELLE GRANDIR A PETITS PAS,5505 MAGASIN AVENUE,5505 MAGASIN AVENUE,5505,magasin avenue,,BEAUMONT,,Province of Alberta
22553,Fun Planet Childcare And Learning Centre,3540 Mahon Ave,3540 Mahon Ave,3540,mahon ave,,North Vancouver,,Province of British Columbia
12269,NYAD - Guildwood,,nan,225,Livingston Road,,Toronto,ON,Province of Ontario
21966,Bumble Bees & Butterflies Childcare,4008 Best St,4008 Best St,4008,best st,,Terrace,,Province of British Columbia
27,Children First Centre,none,none,,,,Inuvik,,Northwest Territories
3862,KIDSZONE PLAYHOUSE DAYCARE,53 SILVERADO SKIES WAY SW,53 SILVERADO SKIES WAY SW,53,silverado skies way sw,,CALGARY,,Province of Alberta
6325,GARDERIE ÉDUCATIVE LE ROYAUME DE LA MAGIE INC.,"8676, rue Sainte-Claire",8676 rue Sainte-Claire,8676,rue sainte-claire,,Montréal,,Province of Quèbec
19542,Little Harvard Learning Centre Ltd.,6985 142 St,6985 142 St,6985,142 st,,Surrey,,Province of British Columbia
824,Stoney Creek Daycare,419 Stoney Creek Road Pine Glen E1J 0E2 (506) 830-1162,419 stoney creek road ,419,stoney creek road,,,,Province of New Brunswick
16488,Priceless Treasures,73 St. Thomas Line Paradise NL,73 st thomas line ,73,st thomas line,,Paradise,Newfoundland And Labrador,GoDayCare.com
16736,Fox Hollow Child Care Centre,1 Fox Hollow Dr Upper Tantallon NS,1 fox hollow dr ,1,fox hollow dr,,Upper Tantallon,Nova Scotia,GoDayCare.com
23535,Wee Care @ Ecole Robb Road,1909 Robb Rd,1909 Robb Rd,1909,robb rd,,Comox,,Province of British Columbia
4850,Small Endeavors Inc,"Centennial Street Swan Lake, MB",centennial street swan ,,centennial street swan,,,,Province of Manitoba
13501,St. Peter's Pre-School Learning Centre,,nan,240,College Street,,Cobourg,ON,Province of Ontario
22114,Cottontail Cottage Childcare,9003 99 Ave,9003 99 Ave,9003,99 ave,,Fort St. John,,Province of British Columbia
5715,GARDERIE LA PETITE TENDRESSE INC.,"8801, rue Beyries",8801 rue Beyries,8801,rue beyries,,LaSalle,,Province of Quèbec
23921,Daryl-Anne's Family Daycare,10237 125A St,10237 125A St,10237,125a st,,Surrey,,Province of British Columbia
16669,Cumberland YMCA-Oxford Site,Oxford Elementary School Oxford NS,oxford elementary school ,,,,Oxford,Nova Scotia,GoDayCare.com
9482,Busy Hands 'N' Minds Childcare Centre Brampton,,nan,8255,Financial Drive,,Brampton,ON,Province of Ontario
24530,Brenda Venne,"3145 Massey Drive, Saskatoon, SK, S7L 3X7",3145 massey drive ,3145,massey drive,,,,Province of Saskatchewan
18882,North End Community Day Care Centre,5540 RUSSELL ST.,5540 RUSSELL ST,5540,russell st,,HALIFAX,,Province of Nova Scotia
1202,BRIGHTPATH MIDNAPORE,155 MIDRIDGE PLACE SE,155 MIDRIDGE PLACE SE,155,midridge place se,,CALGARY,,Province of Alberta
6113,GARDERIE JEUNES DÉCOUVREURS 1 INC.//YOUNG DISCOVERERS DAYCARE 1 INC.,"5200C, rue de la Savane",5200C rue de la Savane,5200c,rue de la savane,,Montréal,,Province of Quèbec
2361,LIL' DREAMERS PRESCHOOL,11-315 10 AVENUE,11 315 10 AVENUE,11 315,10 avenue,,CARSTAIRS,,Province of Alberta
14570,YMCA SACC - Resurrection,,nan,17,Ravenwood Road,,Brantford,ON,Province of Ontario
15397,YMCA London Rd,,nan,240,London Road,,Sarnia,ON,Province of Ontario
13319,La Coccinelle √âcole la Source,,nan,1445,Duford Promenade,,Ottawa,ON,Province of Ontario
10306,Denlow Community Child Care - North York,,nan,50,Denlow Boulevard,,Toronto,ON,Province of Ontario
6940,LA PETITE ÉCOLE VISION GATINEAU,"1040, boulevard Saint-Joseph",1040 boulevard Saint-Joseph,1040,boulevard saint-joseph,,Gatineau,,Province of Quèbec
20682,Stepping Stones Family Childcare,41709 Reid Rd,41709 Reid Rd,41709,reid rd,,Brackendale,,Province of British Columbia
17464,YMCA - Fort Erie Public School,474 Central Avenue Fort Erie ON,474 central avenue ,474,central avenue,,Fort Erie,Ontario,GoDayCare.com
18355,Addy's In-Home Daycare!,Rue Helenore Aylmer QC,rue helenore ,,rue helenore,,Aylmer,Quebec,GoDayCare.com
14575,YMCA SACC - St. Patrick's,,nan,320,Fairview Drive,,Brantford,ON,Province of Ontario
24423,Tiny Treasures Family Childcare,5241 Miller Rd,5241 Miller Rd,5241,miller rd,,Duncan,,Province of British Columbia
20417,Muziknotes Multiage Childcare,7162 198Th St,7162 198Th St,7162,198th st,,Langley,,Province of British Columbia
23882,Kids In Paradise,25 1835 56Th Street,25 1835 56Th Street,25 1835,56th street,,Delta,,Province of British Columbia
20170,Happiness Starts Here Childcare Centre,18720 66 Ave,18720 66 Ave,18720,66 ave,,Surrey,,Province of British Columbia
3187,DAYSTAR CHILDCARE CENTRE,101 ABRAHAM GATE,101 ABRAHAM GATE,101,abraham gate,,FORT MCMURRAY,,Province of Alberta
322,Garderie chez Cyn,114 chemin Rang 7 Et 8 Kedgwick E8B 1W1 (506) 284-3280,114 chemin rang 7 et 8 ,114,chemin rang 7,,,,Province of New Brunswick
536,Here We Grow Little Learners,57 Boyd Street Salisbury E4J 2A6 (506) 372-9459,57 boyd street ,57,boyd street,,,,Province of New Brunswick
22820,Birch Bear Cubs,1609 Birch Dr,1609 Birch Dr,1609,birch dr,,Revelstoke,,Province of British Columbia
4545,YMCA-YWCA of Winnipeg Tyndall Park Before & After,"Multi purpose room and Gym 2221 King Edward Street Winnipeg, MB",multi purpose and gym 2221 king edward street ,2221,king edward street,,,,Province of Manitoba
14723,Bridlewood Jr. Y. Day Care - (YMCA),,nan,60,Bridlewood Boulevard,,Toronto,ON,Province of Ontario
11215,Kanata Research Park Family Centre - Summer Camp Program,,nan,100,Penfield Drive,,Kanata,ON,Province of Ontario
14242,Viola Desmond Children's Centre,,nan,25,Farrell Road,,Maple,ON,Province of Ontario
22191,Jenina's Family Childcare,162 Walter Hardwick Ave,162 Walter Hardwick Ave,162,walter hardwick ave,,Vancouver,,Province of British Columbia
10130,Garderie Porte-Soleil,,nan,34,Miller Drive,,Georgetown,ON,Province of Ontario
15720,Noralta Little Tykes Lodge,2710 5th Street Nisku AB,2710 5th street ,2710,5th street,,Nisku,Alberta,GoDayCare.com
21839,Owl And Feather Child Care Center,2282 Setchfield Ave,2282 Setchfield Ave,2282,setchfield ave,,Victoria,,Province of British Columbia
10281,Montague Extended Program,,nan,1200,Rosedale Road,,Smith Falls,ON,Province of Ontario
4525,Family or Group Child Care Home *,None,None,,,,,,Province of Manitoba
2512,THE CHAMPIONS ACADEMY,6814 104 STREET,6814 104 STREET,6814,104 street,,EDMONTON,,Province of Alberta
14785,Dr. Emily Stowe Child Care Centre,,nan,71A,Sandringham Drive,,Courtice,ON,Province of Ontario
23702,Wind And Tide Preschool - Uplands,4471 207A St,4471 207A St,4471,207a st,,Langley,,Province of British Columbia
6780,CPE CHEZ PICOTINE - INSTALLATION FANTOCHE,"722, rue de l'Église",722 rue de l'Église,722,rue de l'église,,Verdun,,Province of Quèbec
23738,Sowing Seeds Preschool,7086 124Th St,7086 124Th St,7086,124th st,,Surrey,,Province of British Columbia
341,Garderie Cooprative de Rogersville,2 65 rue De L'cole Rogersville E4Y 1V4 (506) 623-8069,2 65 rue de l'cole ,2 65,rue de l'cole,,,,Province of New Brunswick
21239,Saxe Point Daycare,477 Joffre St S,477 Joffre St S,477,joffre st s,,Victoria,,Province of British Columbia
9280,Benjamin Bunny Nursery School,,nan,306,Parkside Drive,,Waterdown,ON,Province of Ontario
9576,Lawrence Avenue East Early Learning & Child Care Centre,,nan,3847,Lawrence Avenue,,Toronto,ON,Province of Ontario
3298,CALGARY CHILDCARE CENTRE,201 - 830 1 AVE NE,201 830 1 AVE NE,201,830 1 ave ne,,CALGARY,,Province of Alberta
16731,Little Wonders Child Care Ctr,334 Pictou Rd Truro NS,334 pictou rd ,334,pictou rd,,Truro,Nova Scotia,GoDayCare.com
1347,LEAP N' LEARN WALDEN,260 - 151 WALDEN GATE SE,260 151 WALDEN GATE SE,260 151,walden gate se,,CALGARY,,Province of Alberta
18398,Les Petits Lapins,212 st jean baptiste Chateauguay QC,212 st jean baptiste ,212,st jean baptiste,,Chateauguay,Quebec,GoDayCare.com
8927,Safari Kid Markham,,nan,9610,McCowan Road,,Markham,ON,Province of Ontario
6344,GARDERIE ÉDUCATIVE LES TRÉSORS DE BEAUMONT,"444, avenue Beaumont",444 avenue Beaumont,444,avenue beaumont,,Montréal,,Province of Quèbec
23134,Dragonfly Discovery Children's Centre,818 12Th Street,818 12Th Street,818,12th street,,Invermere,,Province of British Columbia
1926,LITTLE TREASURES INC. - AIRDRIE,"411, 401 COOPERS BLVD SW",411 401 COOPERS BLVD SW,411,401 coopers blvd sw,,AIRDRIE,,Province of Alberta
10361,Altona Road Day Care Centre,,nan,1367,Altona Road,,Pickering,ON,Province of Ontario
11338,Kids Connection at Michaelle Jean,,nan,320,Shirley Drive,,Richmond Hill,ON,Province of Ontario
15029,YMCA Toronto - Escarpment View School Age,,nan,351,Scott Boulevard,,Milton,ON,Province of Ontario
15019,Martin Street YMCA,,nan,184,Martin Street,,Milton,ON,Province of Ontario
6111,GARDERIE JARDIN DES JONQUILLES INC.,"9121, rue Lajeunesse",9121 rue Lajeunesse,9121,rue lajeunesse,,Montréal,,Province of Quèbec
1158,THICKWOOD HEIGHTS PRESCHOOL,110 EYMUNDSON ROAD,110 EYMUNDSON ROAD,110,eymundson road,,FORT MCMURRAY,,Province of Alberta
2287,SHERWOOD PARK KIDS & COMPANY OSC,3/20 2016 SHERWOOD DRIVE,3/20 2016 SHERWOOD DRIVE,3/20 2016,sherwood drive,,SHERWOOD PARK,,Province of Alberta
23355,Kids At G.F. Strong Child Development Centre,4255 Laurel St,4255 Laurel St,4255,laurel st,,Vancouver,,Province of British Columbia
17658,Morellis Day Care,28 northlin park road Lindsay ON,28 northlin park road ,28,northlin park road,,Lindsay,Ontario,GoDayCare.com
6920,GARDERIE UNIK,"300, boulevard Saint-Raymond",300 boulevard Saint-Raymond,300,boulevard saint-raymond,,Gatineau,,Province of Quèbec
8061,GARDERIE LES MILLE ET UN PLAISIRS,"751, chemin de Saint-Jean",751 chemin de Saint-Jean,751,chemin de saint-jean,,La Prairie,,Province of Quèbec
8516,CENTRE DE LA PETITE ENFANCE LA GIROUETTE INC. VOLET INSTALLATION,"2255, rue Bécancour",2255 rue Bécancour,2255,rue bécancour,,Lyster,,Province of Quèbec
18615,Centre De La Petite Enfance ImagÃ©mo,1650 Rue Dominion Sherbrooke QC,1650 rue dominion ,1650,rue dominion,,Sherbrooke,Quebec,GoDayCare.com
19200,Campus Childcare - Preschool I,"Burtons Pond Road, MUN Campus",Burtons Pond Road MUN Campus,,burtons pond road mun campus,,St. John's,,Province of Newfoundland and Labrador
13246,First Years Montessori,,nan,2501,Eaglesfield Drive,,burlington,ON,Province of Ontario
4883,The Carpenter's Montessori School Inc.,"300 - 400 Fort Whyte Way Oak Bluff , MB",300 400 fort whyte way ,300 400,fort whyte way,,,,Province of Manitoba
17365,Charlene's Home Childcare,"Mount Albert Road, Sharon east gwillimbury ON",mount albert road ,,mount albert road,,East Gwillimbury,Ontario,GoDayCare.com
4980,Kiddie Corner Early Learning Inc.,"# 4 - 417 King Avenue (Ave) Killarney, MB",# 4 417 king avenue ,417,king avenue,# 4,,,Province of Manitoba
22325,Bowen Children's Centre - Infant Toddler Centre,650 Carter Rd,650 Carter Rd,650,carter rd,,Bowen Island,,Province of British Columbia
13655,The Kangaroo's Pouch Daycare,,nan,1410,Kilally Road,,London,ON,Province of Ontario
22050,Castle Court Child Care (C.C.C.C),6877 Simon Fraser Ave,6877 Simon Fraser Ave,6877,simon fraser ave,,Prince George,,Province of British Columbia
18621,Centre Educatif St-Laurent Concept Vert,1595 rue Barre St-Laurent QC,1595 rue barre ,1595,rue barre,,St-laurent,Quebec,GoDayCare.com
16582,Digby Pre-School Co-Op,84 Warwick St Digby NS,84 warwick st ,84,warwick st,,Digby,Nova Scotia,GoDayCare.com
24287,The Town Preschool,704 Hillcrest Road,704 Hillcrest Road,704,hillcrest road,,Gibsons,,Province of British Columbia
2982,MCMAN FAMILY DAY HOME PROGRAM,401 CENTRE STREET,401 CENTRE STREET,401,centre street,,HANNA,,Province of Alberta
21885,Westbank First Nation After School Program,1880 Quail Lane,1880 Quail Lane,1880,quail lane,,Westbank,,Province of British Columbia
2988,RANCHLANDS PLAYCARE LTD / O/A PANDA CHILD DEVELOPMENT CENTRE,8032 RANCHERO DRIVE NW,8032 RANCHERO DRIVE NW,8032,ranchero drive nw,,CALGARY,,Province of Alberta
6333,GARDERIE ÉDUCATIVE LES FUTURS GÉNIES,"260, boulevard Henri-Bourassa Ouest",260 boulevard Henri-Bourassa Ouest,260,boulevard henri-bourassa ouest,,Montréal,,Province of Quèbec
22814,Hatchling House,1775 7Th Avenue,1775 7Th Avenue,1775,7th avenue,,Prince George,,Province of British Columbia
3579,ACTIVE EXPLORERS PRESCHOOL,"10,11166 - 42 STREET SE",1011166 42 STREET SE,1011166,42 street se,,CALGARY,,Province of Alberta
16713,Harbourview Montessori,290 Murphy Road Sydney NS,290 murphy road ,290,murphy road,,Sydney,Nova Scotia,GoDayCare.com
1047,MINI FRIENDS AFTERSCHOOL CARE,14510 118 STREET,14510 118 STREET,14510,118 street,,EDMONTON,,Province of Alberta
5343,INSTALLATION LE COLOMBIER,"889, avenue du Bon-Air",889 avenue du Bon-Air,889,avenue du bon-air,,Québec,,Province of Quèbec
16247,Grand Manan Day Care Centre,1021 Route 776 Grand Manan NB,1021 route 776 ,1021,route 776,,Grand Manan,New Brunswick,GoDayCare.com
16152,Tiger Hills Community Resource Centre,226 Andrews Street Treherne MB,226 andrews street ,226,andrews street,,Treherne,Manitoba,GoDayCare.com
1662,CAROUSEL MONTESSORI CHILDREN'S CENTRE,100 CASTLEBROOK WAY NE,100 CASTLEBROOK WAY NE,100,castlebrook way ne,,CALGARY,,Province of Alberta
2986,CITY WEST CHILDCARE,9915 148 STREET,9915 148 STREET,9915,148 street,,EDMONTON,,Province of Alberta
14939,Churchville YMCA,,nan,90,Bonnie Braes Drive,,Brampton,ON,Province of Ontario
58,Inuvik Youth Centre Society,none,none,,,,Inuvik,,Northwest Territories
14092,Trent Child Care - Monsignor O'Donoghue,,nan,2400,Marsdale Drive,,Peterborough,ON,Province of Ontario
14793,Father Fenelon YMCA,,nan,795,Eyer Drive,,Pickering,ON,Province of Ontario
21983,Smiles For Miles Childcare,285 Cedar Ave,285 Cedar Ave,285,cedar ave,,100 Mile House,,Province of British Columbia
819,ST. PAUL'S AFTER SCHOOL PROGRAM,4 Church Avenue Rothesay E2E 5G4 (506) 847-1812,4 church avenue ,4,church avenue,,,,Province of New Brunswick
23214,Tynehead Learning Centre,15519 98 Ave,15519 98 Ave,15519,98 ave,,Surrey,,Province of British Columbia
7940,JARDIN DES PETITS AMIS,"7595, rue Malherbe",7595 rue Malherbe,7595,rue malherbe,,Brossard,,Province of Quèbec
10720,GENERATIONS DAY CARE - HOLY ROSARY SITE,,nan,715,London Street,,Wyoming,ON,Province of Ontario
21494,The Playhouse,1080 Cypress Rd,1080 Cypress Rd,1080,cypress rd,,Sidney,,Province of British Columbia
24469,Hellokids Childcare Centre,1020 Ridgeway Ave,1020 Ridgeway Ave,1020,ridgeway ave,,Coquitlam,,Province of British Columbia
11402,Kingsdale Participating Preschool,,nan,317,Franklin Street,,Kitchener,ON,Province of Ontario
8347,ÉCOLE TRILINGUE VISION ST-JEAN,"425, rue des Colibris",425 rue des Colibris,425,rue des colibris,,Saint-Jean-sur-Richelieu,,Province of Quèbec
545,JD Tae Kwon Do,445 Elmwood Drive Moncton E1A 2X2 (506) 860-7215,445 elmwood drive ,445,elmwood drive,,,,Province of New Brunswick
14554,YMCA Echo Place/Woodman SACC,,nan,51,Woodman Drive,,Brantford,ON,Province of Ontario
22978,Kids At Play,3996 Bernard Ave,3996 Bernard Ave,3996,bernard ave,,Quesnel,,Province of British Columbia
1851,RED ROSE OUT OF SCHOOL CARE,15830 STONY PLAIN ROAD,15830 STONY PLAIN ROAD,15830,stony plain road,,EDMONTON,,Province of Alberta
14017,Tobermory's Primary Place,,nan,3,Centennial Drive,,Tobermory,ON,Province of Ontario
13614,Sunny Faces Day Care Centre - St. Benedict Site,,nan,2202,kipling Avenue,,Toronto,ON,Province of Ontario
11626,Learning Step Children's Centre,,nan,1645,Queen Street,,Toronto,ON,Province of Ontario
15757,Joanna's Dayhome,Foxhaven Area Sherwood Park AB,foxhaven area ,,,,Sherwood Park,Alberta,GoDayCare.com
6159,GARDERIE LE TRÉSOR DES PETITS GÉNIES INC.,"4353, rue Beaubien Est",4353 rue Beaubien Est,4353,rue beaubien est,,Montréal,,Province of Quèbec
15028,YMCA Toronto - E.W. Foster YMCA Schoolage Program,,nan,320,Coxe Boulevard,,Milton,ON,Province of Ontario
11747,Little Peoples Day Care Centre,,nan,510,Mohawk Road,,Hamilton,ON,Province of Ontario
14054,Topcliff Community Childcare,,nan,65,Topcliff Avenue,,Toronto,ON,Province of Ontario
10409,Echo Montessori,,nan,798,Scottsdale Drive,,Guelph,ON,Province of Ontario
2933,YMCA ST. THOMAS AQUINAS OUT OF SCHOOL CARE,420 DESROCHERS BOULEVARD SW,420 DESROCHERS BOULEVARD SW,420,desrochers boulevard sw,,EDMONTON,,Province of Alberta
20532,Okanagan Montessori West Kelowna,1162 Hudson Rd,1162 Hudson Rd,1162,hudson rd,,West Kelowna,,Province of British Columbia
23954,Abc Family Daycare,6390 Charles St,6390 Charles St,6390,charles st,,Burnaby,,Province of British Columbia
3259,BCS - CHILD CARE PROGRAMS,15001 - 69 STREET NW,15001 69 STREET NW,15001,69 street nw,,CALGARY,,Province of Alberta
20511,Creative Kids Learning Centers - Newton,1010 - 7445 132 St,1010 7445 132 St,132,7445,,Surrey,,Province of British Columbia
19319,St. Edward's Afterschool,54 Longshore Road,54 Longshore Road,54,longshore road,,Conception Bay South,,Province of Newfoundland and Labrador
12265,N.Y.A.D. - Cedar Drive,,nan,21,Gatesview Avenue,,Toronto,ON,Province of Ontario
5136,CENTRE DE LA PETITE ENFANCE PIGNONS SUR RUE,"5, rue Jean-Talon",5 rue Jean-Talon,5,rue jean-talon,,Clermont,,Province of Quèbec
5526,CENTRE DE LA PETITE ENFANCE LE BALLON ROUGE,"54, rue Principale Nord",54 rue Principale Nord,54,rue principale nord,,La Patrie,,Province of Quèbec
24840,Ambreen Majeed,"475 Ottawa Street, Regina, SK, S4R 1N8",475 ottawa street ,475,ottawa street,,,,Province of Saskatchewan
2863,NESSIE'S JIGSAW OUT OF SCHOOL CARE,4707/4709 51 AVENUE,4707/4709 51 AVENUE,4707/4709,51 avenue,,LEDUC,,Province of Alberta
13983,Tilbury Tots Early Learning Centre @ St. Marie,,nan,90,Dale Drive,,Chatham,ON,Province of Ontario
18437,Centre De La Petite Enfance ÃÄ Tire D'Aile,39 av. des Lilas Drummondville QC,39 av des lilas ,39,av des lilas,,Drummondville,Quebec,GoDayCare.com
5560,CENTRE DE LA PETITE ENFANCE L'ENSOLEILLÉ,"1-890, rue des Blés",1-890 rue des Blés,1-890,rue des blés,,Sherbrooke,,Province of Quèbec
16233,L'il Spuds Daycare,49 McCain Street Florenceville NB,49 mccain street ,49,mccain street,,Florenceville,New Brunswick,GoDayCare.com
7624,GARDERIE FRIMOUSSE DE LA PLAINE,"5500, rue Rodrigue, bureau 134",5500 rue Rodrigue,5500,rue rodrigue,,Terrebonne,,Province of Quèbec
19422,Parkdale Sherwood Headstart Early Learning Centre,"11 CHRISTIE DR, CHARLOTTETOWN",11 christie dr ,11,christie dr,,,,Province of Prince Edward Island
13860,The Little People's Academy,,nan,8855,Woodbine Ave,,Markham,ON,Province of Ontario
18525,"Smile, Laugh And Play With Roxanna",14096 rue Leblanc Mirabel QC,14096 rue leblanc ,14096,rue leblanc,,Mirabel,Quebec,GoDayCare.com
19960,Linda's Family Daycare,5-6797 Dow Ave,5 6797 Dow Ave,5 6797,dow ave,,Burnaby,,Province of British Columbia
5250,ESPRIT DE FAMILLE S. A.,"1125, boulevard Lebourgneuf",1125 boulevard Lebourgneuf,1125,boulevard lebourgneuf,,Québec,,Province of Quèbec
2598,FULTON CHILD CARE PLAYSCHOOL,10310 56 STREET,10310 56 STREET,10310,56 street,,EDMONTON,,Province of Alberta
9094,Among Friends Day Care - St. Emily Day Care,,nan,60,Vellore Woods,,Woodbridge,ON,Province of Ontario
17829,Chez Julie,Village Squire Lane Oakville ON,village squire lane ,,village squire lane,,Oakville,Ontario,GoDayCare.com
23671,Daycare Plus Child Development Centre,2062 Esquimalt Avenue,2062 Esquimalt Avenue,2062,esquimalt avenue,,West Vancouver,,Province of British Columbia
5048,CENTRE DE LA PETITE ENFANCE LES PETITS CAILLOUX INSTALLATION BÉGIN,"130A, rue Brassard",130A rue Brassard,130a,rue brassard,,Bégin,,Province of Quèbec
10038,Colonel By Child Care Centre,,nan,1125,Colonel By Drive,,Ottawa,ON,Province of Ontario
3594,EARLY LEARNING CHILDHOOD DAYHOME,13 SAGE BERRY ROAD NW,13 SAGE BERRY ROAD NW,13,sage berry road nw,,CALGARY,,Province of Alberta
20767,Kellie N Kids Daycare,1705 Estates Pl,1705 Estates Pl,1705,estates pl,,Penticton,,Province of British Columbia
14314,Columbus Early Learning Centres,,nan,3010,Dufferin Street,,Toronto,ON,Province of Ontario
10972,Hawthorn School Day Care,,nan,101,Scarsdale Road,,Toronto,ON,Province of Ontario
5772,ACADÉMIE L'ESCARGOT FUTÉ VILLERAY INC.,"535, rue Villeray",535 rue Villeray,535,rue villeray,,Montréal,,Province of Quèbec
11904,Hawthorne Village Before & After School Program,,nan,850,Bennett Boulevard,,Milton,ON,Province of Ontario
12048,Smithville Christian Preschool,,nan,31,Oakdale Boulevard,,Smithville,ON,Province of Ontario
1558,ADVENTURERS SCHOOL AGE CARE LTD. MSGR N. ANDERSON,327 SANDARAC DRIVE NW,327 SANDARAC DRIVE NW,327,sandarac drive nw,,CALGARY,,Province of Alberta
19245,KidKare Children's Centre,1712A Portugal Cove Road,1712A Portugal Cove Road,1712a,portugal cove road,,Portugal Cove-St. Philip's,,Province of Newfoundland and Labrador
20024,"Bug ""A"" Boo Family Daycare",18078 60 Ave,18078 60 Ave,18078,60 ave,,Surrey,,Province of British Columbia
19377,Bright Futures Child Development Centre,"7 TRAFALGAR ST, CHARLOTTETOWN",7 trafalgar st ,7,trafalgar st,,,,Province of Prince Edward Island
4150,Inkster Community Child Care Inc.,"Preschool Rm, 15-S, 15-T, Gym, Library 633 Inkster Boulevard (Blvd) Winnipeg, MB",preschool 15 s 15 t gym library 633 inkster boulevard ,633,inkster boulevard,,,,Province of Manitoba
4538,The Young Men's and Young Women's Christian Association of Winnipeg Inc.,"Gym 445 Island Shore Boulevard (Blvd) Winnipeg, MB",gym 445 island shore boulevard ,445,island shore boulevard,,,,Province of Manitoba
20536,Bgccvi - Beban House Club,1-2290 Bowen Rd,1 2290 Bowen Rd,1 2290,bowen rd,,Nanaimo,,Province of British Columbia
23092,Mission Stars Childcare Centre,32222 14Th Ave,32222 14Th Ave,32222,14th ave,,Mission,,Province of British Columbia
6255,GARDERIE PRÉ-EN-BULLES INC.,"2301, rue Fleury Est",2301 rue Fleury Est,2301,rue fleury est,,Montréal,,Province of Quèbec
88,Tempie's Dayhome,none,none,,,,Yellowknife,,Northwest Territories
23979,Cypress Park Preschool,4355 Marine Drive,4355 Marine Drive,4355,marine drive,,West Vancouver,,Province of British Columbia
24980,Busy Bee Daycare,"103 3rd Street, Box 33, Ferland, SK, S0H 1M0",103 3rd street ,103,3rd street,,,,Province of Saskatchewan
2164,MAPLE ROOTS OOSC HAYSBORO,1123 - 87 AVENUE SW,1123 87 AVENUE SW,1123,87 avenue sw,,CALGARY,,Province of Alberta
15789,El Sol Y Fiesta,Wellington Strathmore AB,wellington ,,,,Strathmore,Alberta,GoDayCare.com
19301,Precious People's Playland,644 Topsail Road,644 Topsail Road,644,topsail road,,St. John's,,Province of Newfoundland and Labrador
2027,A & D OUT OF SCHOOL CARE,101 957 FIR STREET,101 957 FIR STREET,101,957 fir street,,SHERWOOD PARK,,Province of Alberta
2120,HOLY FAMILY PRESCHOOL,5124-51 ST,5124 51 ST,5124,51 st,,WASKATENAU,,Province of Alberta
13640,TayCare Children's Centre - Junior,,nan,2066,Scotch Line Road,,Perth,ON,Province of Ontario
19295,Peter Pan Preschool II,4 Gray Avenue,4 Gray Avenue,4,gray avenue,,Gander,,Province of Newfoundland and Labrador
1377,THE MEADOWS EARLY LEARNING AND CHILD CARE,3828 17 STREET,3828 17 STREET,3828,17 street,,EDMONTON,,Province of Alberta
1551,WINSTON HEIGHTS CHRISTIAN DAY CARE,403 - 28 AVE NE,403 28 AVE NE,403,28 ave ne,,CALGARY,,Province of Alberta
16286,Early Family Intervention (moncton Headstart Inc.),1111 Mountain Road Moncton NB,1111 mountain road ,1111,mountain road,,Moncton,New Brunswick,GoDayCare.com
7874,GARDERIE LES MINIS SPORTIFS INC.,"281, chemin du Canal",281 chemin du Canal,281,chemin du canal,,Beauharnois,,Province of Quèbec
11265,Kids & Company - Front Street Site,,nan,320,Front Street,,Toronto,ON,Province of Ontario
9516,Little Town,,nan,122,Queens Plate Drive,,Toronto,ON,Province of Ontario
17998,C.A.C.H.E. Child Care Services,1240 Murphy Road Sarnia ON,1240 murphy road ,1240,murphy road,,Sarnia,Ontario,GoDayCare.com
12824,PLASP- St. Matthew Catholic School,,nan,280,Kingsbridge Garden Circle,,Mississauga,ON,Province of Ontario
13116,Rejoyce Caledon Community Child Care,,nan,26,Joyce Parkway,,Toronto,ON,Province of Ontario
2868,DAISY DAYCARE,151 CRIMSON DRIVE,151 CRIMSON DRIVE,151,crimson drive,,SHERWOOD PARK,,Province of Alberta
4337,Family or Group Child Care Home *,None,None,,,,,,Province of Manitoba
24,Inuvik,none,none,,,,none,,Northwest Territories
15978,ALL ABOARD FAMILY CHILD CARE,544 Weber St Nanaimo BC,544 weber st ,544,weber st,,Nanaimo,British Columbia,GoDayCare.com
20073,Creative Kids Learning Centers - Morgan Crossing,100 - 103 15850 24Th Ave,100 103 15850 24Th Ave,15850,24th ave,,Surrey,,Province of British Columbia
10660,Fun To Learn Montessori Erindale,,nan,2438,Glengarry Road,,Mississauga,ON,Province of Ontario
23230,Protot House Inc.,5488 Elm St,5488 Elm St,5488,elm st,,Vancouver,,Province of British Columbia
6731,GARDERIE ET ACADÉMIE AU JARDIN DES PETITS INC.,"8675, boulevard Viau",8675 boulevard Viau,8675,boulevard viau,,Saint-Léonard,,Province of Quèbec
23049,Helping Hands Dayhome Center,103 Little Van Horne St S,103 Little Van Horne St S,103,little van horne st s,,Cranbrook,,Province of British Columbia
20327,Hastings Community Out Of School Care,3096 E Hastings,3096 E Hastings,3096,e,,Vancouver,,Province of British Columbia
18510,Centre De La Petite Enfance Brins D'Ãâveil,234 rue des Alpes Laval QC,234 rue des alpes ,234,rue des alpes,,Laval,Quebec,GoDayCare.com
24015,West Coast Kids Childcare,1010 Wychbury Rd,1010 Wychbury Rd,1010,wychbury rd,,Victoria,,Province of British Columbia
2711,MORINVILLE OUT OF SCHOOL CARE #2,9717 MORINVILLE DRIVE,9717 MORINVILLE DRIVE,9717,morinville drive,,MORINVILLE,,Province of Alberta
19139,Home Away From Home ERMES Child Care Program,5961 HIGHWAY 3 HWY.,5961 HIGHWAY 3 HWY,5961,highway 3 hwy,,SHAG HARBOUR,,Province of Nova Scotia
7794,GARDERIE ÉDUCATIVE KA-MI-LO,"204B, rue Lapointe",204B rue Lapointe,204b,rue lapointe,,Saint-Eustache,,Province of Quèbec
5762,GARDERIE ÉDUCATIVE DUCHARME,"233, avenue Dunbar, bureau 200",233 avenue Dunbar,233,avenue dunbar,,Mont-Royal,,Province of Quèbec
13658,Little Angels Development,,nan,10,Sideroad 18,,Fergus,ON,Province of Ontario
23485,My Friends Family Daycare,10376 Sherman Dr,10376 Sherman Dr,10376,sherman dr,,Lake Country,,Province of British Columbia
5161,DES AMOURS DE BOUT'CHOU INC.,"3133, avenue D'Amours",3133 avenue D'Amours,3133,avenue d'amours,,Québec,,Province of Quèbec
12555,Owl Child Care Services - St. Matthew,,nan,405,Pastern Trail,,Waterloo,ON,Province of Ontario
11808,SCHOOL AGE PROGRAM - HILLCREST PUBLIC SCHOOL,,nan,1231,Fuller Street,,London,ON,Province of Ontario
5585,GARDERIE CASA MONTESSORI DE SHERBROOKE,"202, rue Aberdeen",202 rue Aberdeen,202,rue aberdeen,,Sherbrooke,,Province of Quèbec
1175,KID-TECH DAYCARE,10 MAIN BOULEVARD,10 MAIN BOULEVARD,10,main boulevard,,SHERWOOD PARK,,Province of Alberta
6447,MA PETITE ÉCOLE SNOWDON INC.,"5325, rue Snowdon",5325 rue Snowdon,5325,rue snowdon,,Montréal,,Province of Quèbec
19305,Pumped Kidz,9A Cabot Crescent,9A Cabot Crescent,9a,cabot crescent,,Happy Valley-Goose Bay,,Province of Newfoundland and Labrador
19695,Step By Step Osc,1000 Winslow Ave,1000 Winslow Ave,1000,winslow ave,,Coquitlam,,Province of British Columbia
23876,Lifeways Childcare (>30 Months),532 East 4Th St,532 East 4Th St,532,east 4th st,,North Vancouver,,Province of British Columbia
18184,The Junior Garden Of Learning,100 Mill Street Tottenham ON,100 mill street ,100,mill street,,Tottenham,Ontario,GoDayCare.com
17129,Tina's Daycare,Balvenie Blvd. Caledonia ON,balvenie blvd ,,balvenie blvd,,Caledonia,Ontario,GoDayCare.com
20556,Jitterbugs Childcare Inc.,3495 Empress Ave,3495 Empress Ave,3495,empress ave,,Cobble Hill,,Province of British Columbia
357,Garderie des P'tits Mollusques 3,2114 route 515 Sainte-Marie-de-Kent E4S 2E1 (506) 744-0378,2114 route 515 ,2114,route 515,,,,Province of New Brunswick
10439,Elmvale Co-operative Nursery School,,nan,27,Yonge Street,,Elmvale,ON,Province of Ontario
15126,"YMCA, Our Lady of Fatima Early Learning Childrens Centre",,nan,60,Marshall Avenue,,North Bay,ON,Province of Ontario
6458,PETITE SOEUR/LITTLE SISTER,"4165, avenue Madison",4165 avenue Madison,4165,avenue,,Montréal,,Province of Quèbec
14515,YMCA YWCA of Guelph - Central School Age Program,,nan,97,Dublin Street,,Guelph,ON,Province of Ontario
18271,Angela's Daycare,Ellerby Crt Whitby ON,ellerby crt ,,ellerby crt,,Whitby,Ontario,GoDayCare.com
7294,CENTRE DE LA PETITE ENFANCE LA GIBOULÉE II,"525, rue Huberdeau",525 rue Huberdeau,525,rue huberdeau,,Laval,,Province of Quèbec
24833,Y.W.C.A. Sally's Place,"1855 2nd Avenue North, Regina, SK, S4R 0Y1",1855 2nd avenue north ,1855,2nd avenue north,,,,Province of Saskatchewan
1141,JP'S COUNTRY DAYCARE,5013 57TH STREET,5013 57TH STREET,5013,57th street,,DAYSLAND,,Province of Alberta
17760,Kids Clubhouse,44 Industrial Blvd Napanee ON,44 industrial blvd ,44,industrial blvd,,Napanee,Ontario,GoDayCare.com
1334,GREENFIELD (MALMO) SCHOOL AGE PROGRAM,4716 115 STREET,4716 115 STREET,4716,115 street,,EDMONTON,,Province of Alberta
9925,Grandview Community Daycare,,nan,14,Grand Avenue,,Grimsby,ON,Province of Ontario
6047,GARDERIE BÉBÉVEIL,"1520, rue Jarry Est",1520 rue Jarry Est,1520,rue jarry est,,Montréal,,Province of Quèbec
10052,Community Partners Belleville Child Care and Resource Centre,,nan,516,Victoria Avenue,,Belleville,ON,Province of Ontario
6593,GARDERIE ÉDUCATIVE LES AMOURS DE MARIE-CLAIRE INC.,"4941, rue Eldor-Daigneault",4941 rue Eldor-Daigneault,4941,rue eldor-daigneault,,Pierrefonds,,Province of Quèbec
19894,Love 2 Learn Childcare Services,107 & 108 - 12069 Harris Rd,107 108 12069 Harris Rd,12069,harris rd,,Pitt Meadows,,Province of British Columbia
13298,ST. JAMES KIDS CLUB,,nan,13,Chalk Street,,Seaforth,ON,Province of Ontario
8811,Eh to Zed Preschool Canada Early Learning Academy,,nan,17,Dean Street,,"Brampton,",ON,Province of Ontario
11923,Friends of the North Day Care/Les Amis du Nord,,nan,153,Kenogami Road,,Longlac,ON,Province of Ontario
24288,Kiddocare Infant/Toddler Centre,7595 10 Ave,7595 10 Ave,7595,10 ave,,Burnaby,,Province of British Columbia
12589,P.R.Y.D.E. at St. Bernards,,nan,1000,Dryden Boulevard,,Whitby,ON,Province of Ontario
19733,La Pre-Maternelle Appletree Preschool,500 Admirals Rd,500 Admirals Rd,500,admirals rd,,Victoria,,Province of British Columbia
13718,The Beez Kneez Forest Hill,,nan,212,St.Clair Avenue,,Toronto,ON,Province of Ontario
4706,Kelsey Pattie,None,None,,,,,,Province of Manitoba
23201,Big Dreamers Daycare - Mac House,155 Fitzpatrick Rd,155 Fitzpatrick Rd,155,fitzpatrick rd,,Kelowna,,Province of British Columbia
636,LES PETITES SAUTERELLES,405 rue Vanier Dieppe E1A 6J6 (506) 233-4700,405 rue vanier ,405,rue vanier,,,,Province of New Brunswick
14787,Dr. Roberta Bondar YMCA Child Care,,nan,25,Sullivan Drive,,Ajax,ON,Province of Ontario
8826,Learning Tree Academy - Guelph,,nan,20,Cowan Place,,Gueplh,ON,Province of Ontario
14732,Epiphany of Our Lord YMCA Child Care (Op: YMCA of Greater Toronto),,nan,3150,Pharmacy Avenue,,Toronto,ON,Province of Ontario
5268,GARDERIE FLEURS DES CHAMPS INC.,"10685, boulevard de l'Ormière",10685 boulevard de l'Ormière,10685,boulevard de l'ormière,,Québec,,Province of Quèbec
14532,Grafton YMCA Child Care,,nan,718,Station Road,,Grafton,ON,Province of Ontario
10737,George Brown - Esther Exton Child Care Centre,,nan,55,Ameer Avenue,,Toronto,ON,Province of Ontario
1722,ATAAN HEADSTART,241 STAFFORD DRIVE NORTH,241 STAFFORD DRIVE NORTH,241,stafford drive north,,LETHBRIDGE,,Province of Alberta
7439,GARDERIE ÉDUCATIVE MIJANOU INC.,"3790, boul. Dagenais Ouest",3790 boul Dagenais Ouest,3790,boul dagenais ouest,,Laval,,Province of Quèbec
22189,Einstein's Treehouse,4876 Selkirk Ave,4876 Selkirk Ave,4876,selkirk ave,,Edgewater,,Province of British Columbia
9202,Avalon Children's Montessori School,,nan,31,Wood Glen Road,,Toronto,ON,Province of Ontario
24280,St. James Japanese Preschool,3214 10 Ave W,3214 10 Ave W,3214,10 ave w,,Vancouver,,Province of British Columbia
10512,Family Day Care Services - St. Raymond Before & After School Program,,nan,5735,Whitehorn Avenue,,Mississauga,ON,Province of Ontario
21778,Elaine's Family Daycare,6321 Quebec St,6321 Quebec St,6321,quebec st,,Vancouver,,Province of British Columbia
19791,Creekside Child Care,8416 Bradshaw Pl,8416 Bradshaw Pl,8416,bradshaw pl,,Chilliwack,,Province of British Columbia
4083,Explore & Discover Early Learning Centre Inc.,"Room 8, Kindergarten room, Gym 2300 Corydon Avenue (Ave) Winnipeg, MB",8 kindergarten gym 2300 corydon avenue ,2300,corydon avenue,,,,Province of Manitoba
7312,CENTRE DE LA PETITE ENFANCE PIROUETTE DE FABREVILLE INC.,"707, montée Montrougeau",707 montée Montrougeau,707,montée montrougeau,,Laval,,Province of Quèbec
9118,Andrew Fleck Child Care Services - Overbrook Daycare,,nan,557,Queen Mary,,Ottawa,ON,Province of Ontario
16624,Home Grown Daycare,"1020 Old Sambro Road, Harrietsfield NS",1020 old sambro road ,1020,old sambro road,,Harrietsfield,Nova Scotia,GoDayCare.com
23683,Central Montessori Child Care - Site C,8191 St. Albans Rd,8191 St Albans Rd,8191,st albans rd,,Richmond,,Province of British Columbia
2917,MONTESSORI CASA - KILLARNEY,2635 - 32 ST SW,2635 32 ST SW,2635,32 st sw,,CALGARY,,Province of Alberta
11612,Le Petit Chaperon Rouge - Coxwell,,nan,419,Coxwell Avenue (French),,Toronto,ON,Province of Ontario
17001,Bowmanville Montessori Daycare-Preschool,Forrester Drive Bowmanville ON,forrester drive ,,forrester drive,,Bowmanville,Ontario,GoDayCare.com
3405,CHILDREN'S DAY OUT,10005 84 STREET,10005 84 STREET,10005,84 street,,EDMONTON,,Province of Alberta
6620,GARDERIE KIDDY KAT INC.,"19E1, rue Centre Commercial",19E1 rue Centre Commercial,19e1,rue centre commercial,,Roxboro,,Province of Quèbec
2857,JUMP'N JELLYBEANS CHILDCARE CENTRE,"207, 836 - 1 AVE NW",207 836 1 AVE NW,207,836 1 ave nw,,AIRDRIE,,Province of Alberta
24768,Roberta Passmore,"1342 Spadina Street, Moose Jaw, SK, S6H 7E5",1342 spadina street ,1342,spadina street,,,,Province of Saskatchewan
23331,Wind And Tide Child Development Centre - Broadway,2700 East Broadway,2700 East Broadway,2700,east broadway,,Vancouver,,Province of British Columbia
15955,Learn And Play Child Care Centre,751 Banner Rd Lumby BC,751 banner rd ,751,banner rd,,Lumby,British Columbia,GoDayCare.com
4990,GARDERIE LES MINIS EXPLORATEURS,"580, rue Saint-Rédempteur",580 rue Saint-Rédempteur,580,rue saint-rédempteur,,Matane,,Province of Quèbec
180,Cedar Brook Early Learning Center of Excellence,3532 Woodstock Road Fredericton E3E 1E6 (506) 260-6256,3532 woodstock road ,3532,woodstock road,,,,Province of New Brunswick
17285,Clarington Kids,2950 Courtice Road North Courtice ON,2950 courtice road north ,2950,courtice road north,,Courtice,Ontario,GoDayCare.com
22564,Aurora Montessori Children's House,3895 Albert St,3895 Albert St,3895,albert st,,Burnaby,,Province of British Columbia
8593,Oxford Learning Centre - 1217984 Ontario Inc.,,nan,3130,Bathurst Street,,Toronto,ON,Province of Ontario
9736,Centennial College Early Childhood Education Centre (550 Mortimer),,nan,550,Mortimer Avenue,,Toronto,ON,Province of Ontario
10020,Clarkson Co-operative Nursery School,,nan,1700,Mazo Crescent,,Mississauga,ON,Province of Ontario
1720,HEARTLAND AGENCY (THE) WESTSIDE,110 - 2000 69 ST. SW,110 2000 69 ST SW,110,2000 69 st sw,,CALGARY,,Province of Alberta
18702,Gale Day Home,1st Ave N Martensville SK,1st ave n ,,1st ave n,,Martensville,Saskatchewan,GoDayCare.com
10524,FIREFLY Child Care,,nan,820,Lakeview Drive,,Kenora,ON,Province of Ontario
2657,WESTMOUNT EDUCATIONAL DAYCARE,10985 124 STREET NW,10985 124 STREET NW,10985,124 street nw,,EDMONTON,,Province of Alberta
327,Garderie chez Julie,7692 Route 17 Kedgwick E8B 1W5 (506) 284-0238,7692 route 17 ,7692,route 17,,,,Province of New Brunswick
24431,Teddy Bear Daycare,4335 Blackcomb Way,4335 Blackcomb Way,4335,blackcomb way,,Whistler,,Province of British Columbia
7344,GARDERIE DE LA GARE INC.,"152, boulevard Ste-Rose Est",152 boulevard Ste-Rose Est,152,boulevard ste-rose est,,Laval,,Province of Quèbec
21971,Happy Trails Child Care,9604 Barnes Pl,9604 Barnes Pl,9604,barnes pl,,Sidney,,Province of British Columbia
1821,PARK PLAZA OUT OF SCHOOL CARE,116 101 GRANADA BLVD,116 101 GRANADA BLVD,116 101,granada blvd,,SHERWOOD PARK,,Province of Alberta
18139,Country Kids Child Care,off oliver rd Thunder Bay ON,off oliver rd ,,off oliver rd,,Thunder Bay,Ontario,GoDayCare.com
15537,Zida Academy,,nan,1,Henry Goulburn Way,,Stittsville,ON,Province of Ontario
540,I-Play Athletic 2,77 Hildegard Drive Moncton E1G 0Z6 (506) 862-0910,77 hildegard drive ,77,hildegard drive,,,,Province of New Brunswick
20911,SFU Chilcare Society (Nanitsh Centre),8888 University Dr Simon Fraser University,8888 University Dr Simon Fraser University,8888,university dr,,Burnaby,,Province of British Columbia
2853,INTERCULTURAL DAYCARE,9538 107 AVENUE,9538 107 AVENUE,9538,107 avenue,,EDMONTON,,Province of Alberta
12474,Blaisdale Montessori School - Rougemount,,nan,365,Kingston Road,,Pickering,ON,Province of Ontario
8162,GARDERIE LA PETITE ÉTOILE MAGIQUE,"103, rue F.P.-Labrie",103 rue FP-Labrie,103,rue fp-labrie,,Mercier,,Province of Quèbec
3129,PETER PAN CHILD CARE CENTRE (MILLWOODS) - TOWER II,142 MILLBOURNE MALL,142 MILLBOURNE MALL,142,millbourne mall,,EDMONTON,,Province of Alberta
16805,R. Tait Mckenzie School Age Club,175 Paterson Street Almonte ON,175 paterson street ,175,paterson street,,Almonte,Ontario,GoDayCare.com
22367,Storyoga,1720 Mctavish Rd,1720 Mctavish Rd,1720,mctavish rd,,North Saanich,,Province of British Columbia
459,Go-Go After School and Preschool Woodstock Road,A 861 Woodstock Road Fredericton E3B 7R7 (506) 455-5496,a 861 woodstock road ,861,woodstock road,,,,Province of New Brunswick
13843,LEF - Portage Trail Before and After School Care Program (Licence #0000778),,nan,100,Sidney Belsey Crescent,,Toronto,ON,Province of Ontario
21277,Kids Club Child Care Centre Ltd. (Delair Road),35190 Delair Road,35190 Delair Road,35190,delair road,,Abbotsford,,Province of British Columbia
23136,Av Learning Lab,3500 Argyle St,3500 Argyle St,3500,argyle st,,Port Alberni,,Province of British Columbia
8004,LES PETITES POMMES,"2650, rue du Parc",2650 rue du Parc,2650,rue du parc,,Franklin,,Province of Quèbec
16212,Dalhousie Preschool Inc.,140 Brunswick Dalhousie NB,140 brunswick ,140,brunswick,,Dalhousie,New Brunswick,GoDayCare.com
17422,Story Book Early Learning Centre,26 Arthur Avenue Essex ON,26 arthur avenue ,26,arthur avenue,,Essex,Ontario,GoDayCare.com
8886,Pluto Day Care Centre - Ottawa Street,,nan,1284,Ottawa Street,,Kitchener,ON,Province of Ontario
2480,THE LEARNING TREE PRE-SCHOOL INC.,11 SACKVILLE DRIVE SW,11 SACKVILLE DRIVE SW,11,sackville drive sw,,CALGARY,,Province of Alberta
19497,Honey Bee Academy Family Daycare,3772 Nicola St,3772 Nicola St,3772,nicola st,,Abbotsford,,Province of British Columbia
21270,Tiny Town Childcare Centre,5747 Gilpin St,5747 Gilpin St,5747,gilpin st,,Burnaby,,Province of British Columbia
20864,La Garderie,Rm 160 B - 1166 W 14Th,160 B 1166 W 14Th,160 b 1166,w 14th,,Vancouver,,Province of British Columbia
22071,Little Thinkers Daycare Centre,15023 62 Ave,15023 62 Ave,15023,62 ave,,Surrey,,Province of British Columbia
4444,Smita Sharma,"9 Sage Wood Avenue (Ave) Winnipeg, MB",9 sage wood avenue ,9,sage wood avenue,,,,Province of Manitoba
22341,Promontory Heights Christian Daycare,5108 Cecil Ridge Pl,5108 Cecil Ridge Pl,5108,cecil ridge pl,,Chilliwack,,Province of British Columbia
24727,Kerrobert Day Care Centre Inc.,"Box 267, 115 Saskatchewan Avenue, Kerrobert, SK, S0L 1R0",115 saskatchewan avenue ,115,saskatchewan avenue,,,,Province of Saskatchewan
1311,CHILD'S PLAY OUT OF SCHOOL CARE @ ST. LUKE,1232 NORTHMOUNT DRIVE NW,1232 NORTHMOUNT DRIVE NW,1232,northmount drive nw,,CALGARY,,Province of Alberta
17254,St Joseph The Worker Child Care Centre,206 Glen Shields Avenue Concord ON,206 glen shields avenue ,206,glen shields avenue,,Concord,Ontario,GoDayCare.com
22931,Mountview Out Of School,1222 Dog Creek Rd,1222 Dog Creek Rd,1222,dog creek rd,,Williams Lake,,Province of British Columbia
19843,Yarrow Community School Society,4605 Wilson Rd,4605 Wilson Rd,4605,wilson rd,,Yarrow,,Province of British Columbia
20549,Qayqayt Children's Centre,301-85 Merivale St,301 85 Merivale St,301 85,merivale st,,New Westminster,,Province of British Columbia
4328,Family or Group Child Care Home *,None,None,,,,,,Province of Manitoba
13171,Royal Day Care Weston Inc.,,nan,1737,Weston Road,,Toronto,ON,Province of Ontario
12022,Maurice Cody Child Care,,nan,364,Belsize Drive,,Toronto,ON,Province of Ontario
21695,Margie's Family Childcare,9224 204 St,9224 204 St,9224,204 st,,Langley,,Province of British Columbia
8821,Spring Creek Learn & Play Childcare,,nan,473,DUNDAS Street,,Waterdown,ON,Province of Ontario
11594,Les Lucioles Programme d'Immersion Francais,,nan,1020,Dryden Boulevard,,Whitby,ON,Province of Ontario
17392,Little Angels Development-Elora,30 Geddes St. Elora ON,30 geddes st ,30,geddes st,,Elora,Ontario,GoDayCare.com
16519,Cumberland YMCA,141 Victoria St Amherst NS,141 victoria st ,141,victoria st,,Amherst,Nova Scotia,GoDayCare.com
5638,PAVILLON LES INSÉPARABLES,"7795, avenue du Ronceray",7795 avenue du Ronceray,7795,avenue du ronceray,,Anjou,,Province of Quèbec
17443,Fonthill Montessori Preschool,Fonthill Montessori Preschool Fonthill ON,fonthill montessori preschool ,,,,Fonthill,Ontario,GoDayCare.com
14879,YMCA of Greater Toronto - Brownridge Child Care,,nan,65,Brownridge Drive,,Thornhill,ON,Province of Ontario
14433,Westboro Montessori Children's House,,nan,387,Danforth Avenue,,Ottawa,ON,Province of Ontario
3723,RISING STAR OUT OF SCHOOL CARE,"1, 6102 29 AVENUE",1 6102 29 AVENUE,1 6102,29 avenue,,BEAUMONT,,Province of Alberta
9028,The Butterfly House Before and After School Program,,nan,48,Broadway Street,,Paris,ON,Province of Ontario
17475,Community Partners For Success Co-Operative Quinte,994 Will Johnson Road Frankford ON,994 will johnson road ,994,will johnson road,,Frankford,Ontario,GoDayCare.com
9412,Little Scholars Montessori Daycare,,nan,,4-2910 Woodroffe Avenue,,Ottawa,ON,Province of Ontario
1140,CALGARY KIDS CENTER INC.,789 NORTHMOUNT DRIVE NW,789 NORTHMOUNT DRIVE NW,789,northmount drive nw,,CALGARY,,Province of Alberta
7030,CENTRE DE LA PETITE ENFANCE SACHIDUN,"1011, route Naskapi",1011 route Naskapi,1011,route naskapi,,Kawawachikamach,,Province of Quèbec
4426,Sandra Oliveira,None,None,,,,,,Province of Manitoba
13126,Rideau Child Care Centre (Smiths Falls),,nan,2,Gould Street,,Smiths Falls,ON,Province of Ontario
3792,ALPHABET DAYCARE PONOKA,6-4800 HWY 2A,6 4800 HWY 2A,6,4800 hwy 2a,,PONOKA,,Province of Alberta
23687,Toon Town Licensed Childcare,1194 Columbia Ave,1194 Columbia Ave,1194,columbia ave,,Trail,,Province of British Columbia
20178,Kids & Company North Vancouver,1035 Marine Dr,1035 Marine Dr,1035,marine dr,,North Vancouver,,Province of British Columbia
10164,Centre Pr√©scolaire Parascolaire St-Mathieu,,nan,3155,Gendron Chemin,,Hammond,ON,Province of Ontario
23163,Happy Ridge Early Learning Academy,101-21755 Lougheed Hwy,101 21755 Lougheed Hwy,101,21755 lougheed hwy,,Maple Ridge,,Province of British Columbia
3301,SHAWNESSY DAYCARE,184 SHAWNESSY DRIVE SW,184 SHAWNESSY DRIVE SW,184,shawnessy drive sw,,CALGARY,,Province of Alberta
13733,The Learning Circle Child Development Centre,,nan,681,Monaghan Road,,Peterborough,ON,Province of Ontario
19353,YMCA School Age Child Care - Mary Queen of the World Parish,775 Topsail Road,775 Topsail Road,775,topsail road,,Mount Pearl,,Province of Newfoundland and Labrador
2397,EDU-CARE AFTER SCHOOL CARE,15641 96 AVENUE,15641 96 AVENUE,15641,96 avenue,,EDMONTON,,Province of Alberta
11712,Little Feet Little Faces Preschool,,nan,183,Avenue Road,,Toronto,ON,Province of Ontario
5515,INSTALLATION LES POUSSINELLES,"280, rue Manville Ouest",280 rue Manville Ouest,280,rue manville ouest,,Asbestos,,Province of Quèbec
12238,Evergreen Heights School Age Program,,nan,2510,Hwy 592,,Emsdale,ON,Province of Ontario
22605,Fledgling Family Daycare,357 Winder St,357 Winder St,357,winder st,,Quesnel,,Province of British Columbia
6951,PRÉ MATERNELLE TOURAINE,"13, avenue Gatineau",13 avenue Gatineau,13,avenue gatineau,,Gatineau,,Province of Quèbec
7813,CENTRE DE LA PETITE ENFANCE NOTRE-DAME INC.,"550, rue René-Gascon",550 rue René-Gascon,550,rue rené-gascon,,Saint-Jérôme,,Province of Quèbec
12096,North Yonge Infant Nursery (Mini World Ltd),,nan,27,Melrose Avenue,,Toronto,ON,Province of Ontario
