,full_address,street_number,street_name,unit,provider
17093,141 reach street ,141,reach street,,GoDayCare.com
1478,2868 MAIN STREET SOUTH,2868,main street south,,Province of Alberta
15164,249 wellington street ,249,wellington street,,GoDayCare.com
15051,shearwater bay ,,,,GoDayCare.com
10482,nan,116,Ontario Street,,Province of Ontario
17284,32 renoir ,32,renoir,,GoDayCare.com
50,none,,,,Northwest Territories
10107,nan,100,Penfield Drive,,Province of Ontario
21215,2697 273A St,2697,273a st,,Province of British Columbia
14136,nan,69,Hwy 124,,Province of Ontario
17461,1036 rue du suroit ,1036,rue du suroit,,GoDayCare.com
19284,3897 Holland Ave,3897,holland ave,,Province of British Columbia
7354,"100, chemin de l'Anse",100,chemin de l'anse,,Province of Quèbec
5093,"5615, chemin de la Côte-Saint-Luc",5615,chemin de la côte-saint-luc,,Province of Quèbec
17480,"324 Rue Saint-Sauveur QuÃ©bec QC, Canada",,,,GoDayCare.com
2743,189 HEMINGWAY ROAD NW,189,hemingway road nw,,Province of Alberta
15522,990 scott dr ,990,scott dr,,GoDayCare.com
10969,nan,22,South Edgeware Road,,Province of Ontario
3839,1015 73 AVE SW,1015,73 ave sw,,Province of Alberta
10606,nan,577,Willow Road,,Province of Ontario
23531,1420 Johnston Ave,1420,johnston ave,,Province of British Columbia
3067,4411 10 AVE SW,4411,10 ave sw,,Province of Alberta
3758,5600 CENTRE STREET N,5600,centre street n,,Province of Alberta
20026,1639 Pitt River Rd,1639,pitt river rd,,Province of British Columbia
3048,9B ST. VITAL AVE,9b,st. vital ave,,Province of Alberta
13087,nan,1,Lyndhurst Drive,,Province of Ontario
4303,"50, avenue des Cascades",50,avenue des cascades,,Province of Quèbec
5836,"162, boulevard Saint-Raymond",162,boulevard saint-raymond,,Province of Quèbec
5993,"484, montée de Wakeham",484,montée de wakeham,,Province of Quèbec
20018,2390 Jubilee St,2390,jubilee st,,Province of British Columbia
10624,nan,301,N.Archibald Street,,Province of Ontario
15729,wagner crescent ,,,,GoDayCare.com
4188,"2675, avenue de la Ronde",2675,avenue de la ronde,,Province of Quèbec
15206,a-45 st. lawerence avenue ,,,,GoDayCare.com
4189,"910, boulevard du Lac",910,boulevard du lac,,Province of Quèbec
20229,780 Dominion Rd,780,dominion rd,,Province of British Columbia
18896,None,,,,Province of Manitoba
11506,nan,720,Renforth Drive,,Province of Ontario
7338,"1683, route Marie-Victorin",1683,route marie-victorin,,Province of Quèbec
17583,428 ogilvie avenue ,428,ogilvie avenue,,GoDayCare.com
7629,nan,322,Queen Street,,Province of Ontario
15547,167 commercial st ,167,commercial st,,GoDayCare.com
18273,room 249 1430 victoria avenue (ave) e ,1430,victoria avenue ave e,room 249,Province of Manitoba
19510,9340 151A St,9340,151a st,,Province of British Columbia
8672,nan,2093,Bel-Air Promenade,,Province of Ontario
5536,"980, boulevard de la Côte-Vertu",980,boulevard de la côte-vertu,,Province of Quèbec
21272,2027 Latimer Rd,2027,latimer rd,,Province of British Columbia
5944,"21, 2e Avenue",21,2e avenue,,Province of Quèbec
779,98 street bonaccord ,,,,Province of New Brunswick
6829,"5665, Grande-Allée",5665,grande-allée,,Province of Quèbec
9361,nan,50,Southlawn Drive,,Province of Ontario
2491,702 DRAKE LANDING WYND,702,drake landing wynd,,Province of Alberta
7478,nan,380,Bovaird Drive,,Province of Ontario
10036,nan,189,Applegrove Street,,Province of Ontario
17809,1 LAKEWOOD DR.,1,lakewood dr.,,Province of Nova Scotia
15807,21 fleming cres ,21,fleming cres,,GoDayCare.com
10775,nan,6,Gullins Road,,Province of Ontario
3524,18715 - 97A AVENUE,18715,97a avenue,,Province of Alberta
13354,nan,119,Rosedale Heights Drive,,Province of Ontario
22742,1603 Sonora Dr,1603,sonora dr,,Province of British Columbia
10568,nan,1303,Fellows Chemin,,Province of Ontario
5864,"6, rue du Marché",6,rue du marché,,Province of Quèbec
20259,2087 Lambert Dr,2087,lambert dr,,Province of British Columbia
4342,"4021, rue de L'Église",4021,rue de l'église,,Province of Quèbec
19969,5839 Fleming St,5839,fleming st,,Province of British Columbia
10654,nan,130,Dufferin Avenue,,Province of Ontario
7919,nan,155,Annie Ada Shipley Street,,Province of Ontario
2575,BAY 102 & 105 960 YANKEE VALLEY BLVD,960,yankee valley blvd,bay 102 & 105,Province of Alberta
7510,nan,4A,Antrim Crescent,,Province of Ontario
5107,"5136, avenue Prince-of-Wales",5136,avenue prince-of-wales,,Province of Quèbec
4085,"860, boulevard Raymond",860,boulevard raymond,,Province of Quèbec
9816,nan,675,Mohawk Road,,Province of Ontario
12312,nan,49,Wellington Street,,Province of Ontario
19272,1267 Nestor St,1267,nestor st,,Province of British Columbia
8769,nan,600,Novo Star Drive,,Province of Ontario
19286,9025 Glover Rd,9025,glover rd,,Province of British Columbia
11633,nan,7185,Rosehurst Drive,,Province of Ontario
8875,nan,254,Sunset Boulevard,,Province of Ontario
15360,"p.o. box 218, stn. c ",p.o. box 218,stn. c,,GoDayCare.com
5314,"7593, boulevard Saint-Laurent",7593,boulevard saint-laurent,,Province of Quèbec
22686,7250 Dow Ave,7250,dow ave,,Province of British Columbia
3685,202 912 6 AVE SW,202,912 6 ave sw,,Province of Alberta
596,149 rue acadie ,149,rue acadie,,Province of New Brunswick
23392,230 West 21St Street,230,west 21st street,,Province of British Columbia
18513,"A - 1655 Roblin Boulevard (Blvd) Winkler MB, Canada",,,,Province of Manitoba
16349,37 morris street ,37,morris street,,GoDayCare.com
22454,1609 Birch Dr,1609,birch dr,,Province of British Columbia
3736,255 ATHABASCA AVE,255,athabasca ave,,Province of Alberta
20178,2365 Strawberry Pl,2365,strawberry pl,,Province of British Columbia
22220,730 3Rd Avenue,730,3rd avenue,,Province of British Columbia
17217,18 garfield street ,18,garfield street,,GoDayCare.com
21052,310 Queen St,310,queen st,,Province of British Columbia
13772,nan,256,Ridge Crest Road,,Province of Ontario
15476,84 warwick st ,84,warwick st,,GoDayCare.com
23383,529 Collingwood Dr,529,collingwood dr,,Province of British Columbia
13853,nan,255,North Park Drive,,Province of Ontario
396,"nanNB, Canada",nannb,canada,,Province of New Brunswick
18795,None,,,,Province of Manitoba
7515,nan,1395,Abbeywood Drive,,Province of Ontario
20490,9908 Kalamalka Rd,9908,kalamalka rd,,Province of British Columbia
8278,nan,235,McRae Drive,,Province of Ontario
19745,1039 Nagle St,1039,nagle st,,Province of British Columbia
11347,nan,279,Burnhamthorpe Road,,Province of Ontario
14988,1555 west 7th st ,1555,west 7th st,,GoDayCare.com
1583,221 JENNIFER HEIL WAY,221,jennifer heil way,,Province of Alberta
13541,nan,653,Brant Street,,Province of Ontario
13738,nan,333,Firgrove Crescent,,Province of Ontario
8029,nan,26,Evening Star Lane,,Province of Ontario
18316,adjacent to cranberry portage elementary ,,,,Province of Manitoba
9087,nan,208,State Street,,Province of Ontario
13891,nan,5850,Rivergrove Avenue,,Province of Ontario
9341,nan,4,La Rose Avenue,,Province of Ontario
22129,31 Lebarz Rd,31,lebarz rd,,Province of British Columbia
16480,acklam terrace ,,,,GoDayCare.com
15859,country fair way ,,,,GoDayCare.com
2973,4611 14 STREET NW,4611,14 street nw,,Province of Alberta
11463,nan,21,Market Street,,Province of Ontario
13969,nan,600,Vine Street,,Province of Ontario
11666,nan,4765,Huron Heights Drive,,Province of Ontario
5313,"12405, boulevard de la Rivière-des-Prairies",12405,boulevard de la rivière-des-prairies,,Province of Quèbec
2667,196 DEER RIDGE DRIVE,196,deer ridge drive,,Province of Alberta
18665,None,,,,Province of Manitoba
12831,nan,230,Fincham Avenue,,Province of Ontario
13268,nan,1724,Mosley Street,,Province of Ontario
14726,glover avenue ,,,,GoDayCare.com
5948,"38, Chemin Fort-George",38,chemin fort-george,,Province of Quèbec
24771,P.O.Box 138,,,,Nunavut
15309,105 connell park road ,105,connell park road,,GoDayCare.com
21440,4351 West Saanich Rd,4351,west saanich rd,,Province of British Columbia
4441,"2145, chemin Galvin",2145,chemin galvin,,Province of Quèbec
10843,nan,11,Celina Street,,Province of Ontario
12515,nan,225,Garden Avenue,,Province of Ontario
23136,776 Donegal Pl,776,donegal pl,,Province of British Columbia
19513,2325 E 54 Ave,2325,e 54 ave,,Province of British Columbia
16644,00 bristol rd w ,00,bristol rd w,,GoDayCare.com
5906,"7, place Guillemette",7,place guillemette,,Province of Quèbec
8347,nan,70,Brookhaven Drive,,Province of Ontario
15205,a-45 st. lawrence ave ,a-45,st. lawrence ave,,GoDayCare.com
12162,nan,1675,Central Street Street,,Province of Ontario
6440,"350B, rue Notre-Dame",350b,rue notre-dame,,Province of Quèbec
20787,3425 Kalum Street,3425,kalum street,,Province of British Columbia
20550,7146 Nesters Rd,7146,nesters rd,,Province of British Columbia
3011,7518/7536 178 STREET,7518/7536,178 street,,Province of Alberta
13607,nan,641,Truedell Road,,Province of Ontario
23573,4590 5Th Ave,4590,5th ave,,Province of British Columbia
21305,3851 Grace Cres,3851,grace cres,,Province of British Columbia
23317,8191 St. Albans Rd,8191,st. albans rd,,Province of British Columbia
2896,500 RIVERCREST CRESCENT,500,rivercrest crescent,,Province of Alberta
11379,nan,3226,Ramara RD 47 Road,,Province of Ontario
1650,4911 53 STREET,4911,53 street,,Province of Alberta
12915,nan,155,East 26th Street,,Province of Ontario
13449,nan,667,Mount Pleasant Road,,Province of Ontario
6558,"23, rue de Rochefort",23,rue de rochefort,,Province of Quèbec
252,572 new maryland highway ,572,new maryland highway,,Province of New Brunswick
10236,nan,1350,York Mills Road,,Province of Ontario
23055,5025 12 Ave,5025,12 ave,,Province of British Columbia
22939,2065 Woodland Drive,2065,woodland drive,,Province of British Columbia
12487,nan,6320,Raymond Street,,Province of Ontario
23591,2654 5Th Ave E,2654,5th ave e,,Province of British Columbia
10752,nan,536,Huron Street,,Province of Ontario
5294,"775, rue Bonsecours 2e étage",rue bonsecours,2e étage,775,Province of Quèbec
17332,103 boul. des pins ,103,boul. des pins,,GoDayCare.com
3560,11024 OAKFIELD DR. SW,11024,oakfield dr. sw,,Province of Alberta
11014,nan,10,Community Centre Road,,Province of Ontario
366,4138 rue principale ,4138,rue principale,,Province of New Brunswick
11396,nan,201,Crestway Drive,,Province of Ontario
14236,nan,338,Cameron Street,,Province of Ontario
5674,"5639, rue de Verdun",5639,rue de verdun,,Province of Quèbec
19239,1090 Berkley Rd,1090,berkley rd,,Province of British Columbia
19706,22299 Dewdney Trunk Rd,22299,dewdney trunk rd,,Province of British Columbia
6679,"265, rue St-Laurent, locaux 105 et 106",,,,Province of Quèbec
10747,nan,626,Osgoode Drive,,Province of Ontario
3338,803 - 4 AVENUE WEST,803,4 avenue west,,Province of Alberta
8655,nan,1054,Brookfield Chemin,,Province of Ontario
7950,nan,160,Spruce Avenue,,Province of Ontario
2032,8991 BONAVENTURE DRIVE SE,8991,bonaventure drive se,,Province of Alberta
1211,7917 106 AVENUE,7917,106 avenue,,Province of Alberta
24702,120-2237 2nd Avenue ,120-2237,2nd avenue,,Yukon Territory
15026,4368 main street ,4368,main street,,GoDayCare.com
1817,6617 CENTRE STREET NORTH,6617,centre street north,,Province of Alberta
5199,"6210, avenue Papineau",6210,avenue papineau,,Province of Quèbec
8564,nan,155,Castle Oaks Crossing,,Province of Ontario
4372,"2875, Monseigneur-Saint-Arnaud, parc Pie XII C.P. 486",monseigneur-saint-arnaud parc pie xii,c.p. 486,2875,Province of Quèbec
16148,206 glen shields avenue ,206,glen shields avenue,,GoDayCare.com
12160,nan,15,Miles Drive,,Province of Ontario
8790,nan,3300,Kennedy Road,,Province of Ontario
4731,"2830, rue Gilford",2830,rue gilford,,Province of Quèbec
6931,", C.P. 771",,,,Province of Quèbec
13795,nan,14,St.Marks Road,,Province of Ontario
7971,nan,35,Jim Ashton Street,,Province of Ontario
20640,1041 Mount Gardner Road,1041,mount gardner road,,Province of British Columbia
11369,nan,20,O'Brien Cour,,Province of Ontario
11312,nan,2220,Caldwell Drive,,Province of Ontario
18102,31 Doyles Road,31,doyles road,,Province of Newfoundland and Labrador
17508,1020 rue germaine-guã¨vremont ,1020,rue germaine-guã¨vremont,,GoDayCare.com
8382,nan,161,Bay Street,,Province of Ontario
12802,nan,3450,Ypres Avenue,,Province of Ontario
9448,nan,128,Fern Avenue,,Province of Ontario
4096,"525, boulevard Wilfrid-Hamel, local E-107",boulevard wilfrid-hamel,local e-107,525,Province of Quèbec
15402,129 montana drive ,129,montana drive,,GoDayCare.com
6717,"785, 20e Avenue",785,20e avenue,,Province of Quèbec
6183,"1713, rue de Lucerne",1713,rue de lucerne,,Province of Quèbec
16949,young st. ,,,,GoDayCare.com
8274,nan,1923-1925,Queen Street,,Province of Ontario
13703,nan,425,Wilson Road,,Province of Ontario
22896,800 East Broadway,800,east broadway,,Province of British Columbia
21360,1562 Kenmore Rd,1562,kenmore rd,,Province of British Columbia
1742,5702 48 AVENUE,5702,48 avenue,,Province of Alberta
1747,UNIT 108 12222 137 AVENUE NW,12222,137 avenue nw,unit 108,Province of Alberta
4843,"7395, rue Garnier",7395,rue garnier,,Province of Quèbec
13803,nan,71,Second Street,,Province of Ontario
2512,1047 KNOTTWOOD RD EAST NW,1047,knottwood rd east nw,,Province of Alberta
7006,"365, rue St-Jean, Suite 025",rue st-jean,suite 025,365,Province of Quèbec
758,97 vincent road ,97,vincent road,,Province of New Brunswick
6729,"92, rue Demontigny",92,rue demontigny,,Province of Quèbec
18915,None,,,,Province of Manitoba
4125,"578, avenue des Oblats",578,avenue des oblats,,Province of Quèbec
11792,nan,801,Commissioners Road,,Province of Ontario
23444,5356 Manor St,5356,manor st,,Province of British Columbia
17262,226 saint charles ,226,saint charles,,GoDayCare.com
17110,1410 major mackenzie drive ,1410,major mackenzie drive,,GoDayCare.com
18927,pierson school #1 school road ,pierson school #1,school road,,Province of Manitoba
24147,1905 eastlake avenue ,1905,eastlake avenue,,Province of Saskatchewan
21160,469 7Th Ave,469,7th ave,,Province of British Columbia
24779,P.O.Box 169,,,,Nunavut
19069,55 pope av ,55,pope av,,Province of Prince Edward Island
18350,46 benoit avenue (ave) ,46,benoit avenue ave,,Province of Manitoba
5825,"574, avenue de Buckingham",574,avenue de buckingham,,Province of Quèbec
12825,nan,5300,14th Avenue,,Province of Ontario
5051,"4353, rue Beaubien Est",4353,rue beaubien est,,Province of Quèbec
13840,nan,30,Hanson Road,,Province of Ontario
19699,110 4066 Rainbow Dr,110,4066 rainbow dr,,Province of British Columbia
21282,2321 Bowen Rd,2321,bowen rd,,Province of British Columbia
7867,nan,4190,Kingston Road,,Province of Ontario
6889,"66, route 132, local 240",route 132,local 240,66,Province of Quèbec
7336,"80, rue Dalpé",80,rue dalpé,,Province of Quèbec
13911,nan,184,Martin Street,,Province of Ontario
14015,nan,1351,Chapais Street,,Province of Ontario
10583,nan,525 A,Limoges Road,,Province of Ontario
15576,4 judy avenue ,4,judy avenue,,GoDayCare.com
7152,"4195, boulevard Westley",4195,boulevard westley,,Province of Quèbec
984,5830 51 STREET,5830,51 street,,Province of Alberta
7244,"2071-2073, rue Victoria",2071-2073,rue victoria,,Province of Quèbec
2245,8728 - 93 AVENUE,8728,93 avenue,,Province of Alberta
20897,625 Mountain Hwy,625,mountain hwy,,Province of British Columbia
7002,"606, rue Barthélémy",606,rue barthélémy,,Province of Quèbec
3853,1319 91 STREET SW,1319,91 street sw,,Province of Alberta
5118,"3720, rue Dandurand",3720,rue dandurand,,Province of Quèbec
3616,2421 6 AVENUE NW,2421,6 avenue nw,,Province of Alberta
10069,nan,392141,Grey Road 109,,Province of Ontario
16310,333 boulevard mead ,333,boulevard mead,,GoDayCare.com
17283,sauverny ,,,,GoDayCare.com
95,none,,,,Northwest Territories
24169,523 coad crescent ,523,coad crescent,,Province of Saskatchewan
24751,P.O.Box 933,,,,Nunavut
16314,200 fairview ave. w. ,200,fairview ave. w.,,GoDayCare.com
490,82 school street ,82,school street,,Province of New Brunswick
584,1535 ryan street ,1535,ryan street,,Province of New Brunswick
10727,nan,690,Osgoode Drive,,Province of Ontario
3697,1819 66 AVE SE,1819,66 ave se,,Province of Alberta
15765,33 mosley street ,33,mosley street,,GoDayCare.com
13631,nan,3530,Sheppard Avenue,,Province of Ontario
10242,nan,22568,Komoka Road,,Province of Ontario
9142,nan,18,Benoojee Street,,Province of Ontario
4467,"10267, rue du Panorama",10267,rue du panorama,,Province of Quèbec
19507,16433 86B,,,,Province of British Columbia
8131,nan,562,King Street,,Province of Ontario
20324,5728 142 St,5728,142 st,,Province of British Columbia
4337,"385, rue Saint-Zéphirin",385,rue saint-zéphirin,,Province of Quèbec
1678,464 A WOODBINE BLVD SW,464 a,woodbine blvd sw,,Province of Alberta
19750,2581 Kitchener Ave,2581,kitchener ave,,Province of British Columbia
18459,516 souris avenue (ave) ,516,souris avenue ave,,Province of Manitoba
11110,nan,9,Dundas Street,,Province of Ontario
5557,"1701-1703, rue Poirier",1701-1703,rue poirier,,Province of Quèbec
1314,200 SUNMILLS DRIVE SE,200,sunmills drive se,,Province of Alberta
15495,976 central ave ,976,central ave,,GoDayCare.com
19610,750 Fording Drive,750,fording drive,,Province of British Columbia
8007,nan,991,Dynes Road,,Province of Ontario
19051,247 mason rd ,247,mason rd,,Province of Prince Edward Island
11692,nan,3465,Golden Orchard Drive,,Province of Ontario
4166,"5718, avenue Banville, bureau 2",avenue banville,bureau 2,5718,Province of Quèbec
20717,195 Prince Rupert Blvd,195,prince rupert blvd,,Province of British Columbia
24379,5 flax road ,5,flax road,,Province of Saskatchewan
8800,nan,75,Arizona Avenue,,Province of Ontario
2286,3031 LINDSAY DRIVE SW,3031,lindsay drive sw,,Province of Alberta
22576,4661 Wilson Rd,4661,wilson rd,,Province of British Columbia
411,"477 chemin de l'glise Saint-Andr NB, Canada",,,,Province of New Brunswick
6180,"835, avenue de Bois-de-Boulogne, bureau A",avenue de bois-de-boulogne,bureau a,835,Province of Quèbec
15732,queen st ,,,,GoDayCare.com
22363,2263 Hemlock St,2263,hemlock st,,Province of British Columbia
18746,None,,,,Province of Manitoba
15865,183 snow avenue extension ,183,snow avenue extension,,GoDayCare.com
486,135 macbeath avenue ,135,macbeath avenue,,Province of New Brunswick
18383,None,,,,Province of Manitoba
19400,2159 Lang Cres,2159,lang cres,,Province of British Columbia
5246,"9215, rue de Grosbois",9215,rue de grosbois,,Province of Quèbec
15871,3 duke st. ,3,duke st.,,GoDayCare.com
4754,"1725, boulevard Gouin Est",1725,boulevard gouin est,,Province of Quèbec
23742,2384 Jasper St,2384,jasper st,,Province of British Columbia
3955,"1480, rang Saint-Martin",1480,rang saint-martin,,Province of Quèbec
9628,nan,50,Hadrian Drive,,Province of Ontario
18337,None,,,,Province of Manitoba
9843,nan,170,Skinner Road,,Province of Ontario
711,a 45 st lawrence avenue ,45,st lawrence avenue,a,Province of New Brunswick
22087,112 Yon Pl,112,yon pl,,Province of British Columbia
13529,nan,3365,Spruce Avenue,,Province of Ontario
12829,nan,2070,Bur Oak Avenue,,Province of Ontario
520,"4 rue De L'Ecole Rivire-Verte NB, Canada",,,,Province of New Brunswick
19608,101 - 1950 Bellwood Ave,101 1950,bellwood ave,,Province of British Columbia
12521,nan,445,Apple Creek Boulevard,,Province of Ontario
2221,266 25 AVENUE NE,266,25 avenue ne,,Province of Alberta
15979,137 george street ,137,george street,,GoDayCare.com
18138,173 A and B Water Street,173,a and b water street,,Province of Newfoundland and Labrador
8174,nan,11399,Keele Street,,Province of Ontario
15574,2 school street ,2,school street,,GoDayCare.com
6036,"1127, rue de la Prairie Ouest",1127,rue de la prairie ouest,,Province of Quèbec
2663,4900 93 AVENUE,4900,93 avenue,,Province of Alberta
18385,None,,,,Province of Manitoba
23598,588 Cottonwood Ave,588,cottonwood ave,,Province of British Columbia
20653,2250 Park Dr,2250,park dr,,Province of British Columbia
24289,104 dr. scott crescent ,104,dr. scott crescent,,Province of Saskatchewan
23541,546 309Th Ave,546,309th ave,,Province of British Columbia
22499,160-7951 Alderbridge Way,160-7951,alderbridge way,,Province of British Columbia
15432,majestic avenue ,,,,GoDayCare.com
226,"55 Bromley Avenue Hanwell NB, Canada",,,,Province of New Brunswick
12174,nan,300,Williamson Drive,,Province of Ontario
8535,nan,60,Lorne Crescent,,Province of Ontario
4153,"1450, boulevard Père-Lelièvre, porte G",boulevard père-lelièvre,porte g,1450,Province of Quèbec
17714,9453 COMMERCIAL ST.,9453,commercial st.,,Province of Nova Scotia
5587,"720, boulevard Décarie, bureau 202",boulevard décarie,bureau 202,720,Province of Quèbec
24349,box 123 ,,,,Province of Saskatchewan
12751,nan,805,North Service Road,,Province of Ontario
11190,nan,160,Crow Trail,,Province of Ontario
17478,"727 8e Avenue QuÃ©bec QC, Canada",,,,GoDayCare.com
22893,4290 Venables St,4290,venables st,,Province of British Columbia
6091,"50, rue Principale",50,rue principale,,Province of Quèbec
10563,nan,880,Thorndale Drive,,Province of Ontario
19562,114 - 8532 120Th St,114 8532,120th st,,Province of British Columbia
16691,jubilee drive ,,,,GoDayCare.com
8054,nan,324,John Street,,Province of Ontario
20319,106 - 3242 Westwood St,106 3242,westwood st,,Province of British Columbia
18324,sadochuk rm music & resource rm gym 701 1st street se ,701,1st street se,sadochuk rm music & resource rm gym,Province of Manitoba
20359,139 Roberta Rd W,139,roberta rd w,,Province of British Columbia
13089,nan,155,Longford Drive,,Province of Ontario
17601,633 main street ,633,main street,,GoDayCare.com
3440,244 HIDDEN CREEK RD. NW,244,hidden creek rd. nw,,Province of Alberta
7237,"715, boulevard d'Iberville, suite 104",boulevard d'iberville,suite 104,715,Province of Quèbec
20867,7085 Wallace Dr,7085,wallace dr,,Province of British Columbia
1214,905- 10 STREET,905,10 street,,Province of Alberta
14631,hangingstone drive ,,,,GoDayCare.com
20597,8090 Northwood Rd,8090,northwood rd,,Province of British Columbia
17097,1638 third st ,1638,third st,,GoDayCare.com
21695,1135 Dufferin Cres,1135,dufferin cres,,Province of British Columbia
23194,4446 Watling St,4446,watling st,,Province of British Columbia
5119,"5311, boulevard de Maisonneuve Ouest, bureau 201",boulevard de maisonneuve ouest,bureau 201,5311,Province of Quèbec
4108,"5270, route Sainte-Geneviève",5270,route sainte-geneviève,,Province of Quèbec
13534,nan,2175,Cavendish Drive,,Province of Ontario
9707,nan,201,Tempo Avenue,,Province of Ontario
11748,nan,6234,Osprey Boulevard,,Province of Ontario
6416,"550, avenue Crépeau",550,avenue crépeau,,Province of Quèbec
16012,stowmarket st ,,,,GoDayCare.com
4694,"200, boulevard René-Lévesque Ouest, bureau 105",boulevard rené-lévesque ouest,bureau 105,200,Province of Quèbec
12227,nan,138,Sixteen Mile Drive,,Province of Ontario
2819,10419 158 AVENUE,10419,158 avenue,,Province of Alberta
1218,#603-3RD ST.SE,,,,Province of Alberta
12157,nan,55,Coles Avenue,,Province of Ontario
15146,46 tilley street ,46,tilley street,,GoDayCare.com
3695,3001 WHISPERING HILLS DRIVE,3001,whispering hills drive,,Province of Alberta
7923,nan,5100,Howard Avenue Avenue,,Province of Ontario
11133,nan,,General Delivery,,Province of Ontario
23792,2636 Oliver Cres,2636,oliver cres,,Province of British Columbia
18180,3 Ressegieu Drive,3,ressegieu drive,,Province of Newfoundland and Labrador
14251,nan,660,Oakdale Avenue,,Province of Ontario
2008,4828-50 STREET,,,,Province of Alberta
13230,nan,409,Main Street,,Province of Ontario
12359,nan,120,Andrew Park,,Province of Ontario
7822,nan,1265,Heritage Way,,Province of Ontario
8356,nan,1525,Dundas Street,,Province of Ontario
4425,"431A, rue du Moulin",431a,rue du moulin,,Province of Quèbec
19169,370 Mathers Ave,370,mathers ave,,Province of British Columbia
11509,nan,4319,Bloor Street,,Province of Ontario
14372,nan,2,Glass Drive,,Province of Ontario
17677,matheson cres. ,,,,GoDayCare.com
5426,"10595, boulevard Saint-Michel",10595,boulevard saint-michel,,Province of Quèbec
13700,nan,494,Queen Street,,Province of Ontario
23671,121A 2099 Lougheed Hwy,121a,2099 lougheed hwy,,Province of British Columbia
14526,161 89st ,161,89st,,GoDayCare.com
18710,None,,,,Province of Manitoba
17248,111 pink ,111,pink,,GoDayCare.com
13374,nan,1146,Clarkson Road,,Province of Ontario
15379,169 paradise road ,169,paradise road,,GoDayCare.com
16338,brewerton blvd ,,,,GoDayCare.com
347,"1520 rue Principale Saint-Basile NB, Canada",,,,Province of New Brunswick
19458,A 2785 Mansfield Dr,2785,mansfield dr,a,Province of British Columbia
2421,SEE FILE,,,,Province of Alberta
5165,"6770, avenue Henri-Julien",6770,avenue henri-julien,,Province of Quèbec
10715,nan,25,McLean Drive,,Province of Ontario
17398,"655 chomedey, app 201 ",chomedey,app 201,655,GoDayCare.com
16311,273 mead blvd. ,273,mead blvd.,,GoDayCare.com
14016,nan,599,Lakeheights Road,,Province of Ontario
3215,7055 99 STREET,7055,99 street,,Province of Alberta
16573,highway 7 ,,,,GoDayCare.com
18676,None,,,,Province of Manitoba
15202,300 restigouche road ,300,restigouche road,,GoDayCare.com
14657,lawson blvd. ,,,,GoDayCare.com
13796,nan,285,Indian Road Crescent,,Province of Ontario
8300,nan,220,Traders Boulevard,,Province of Ontario
3408,21410 HIGHWAY 18,21410,highway 18,,Province of Alberta
18238,18A St. Catherine Street,18a,st. catherine street,,Province of Newfoundland and Labrador
3231,30 10025 JASPER AVENUE,30,10025 jasper avenue,,Province of Alberta
19845,303 Salish Way,303,salish way,,Province of British Columbia
8603,nan,21,Lasalle Boulevard,,Province of Ontario
7341,"321, rue du Trécarré",321,rue du trécarré,,Province of Quèbec
2654,6024 RUNDLEHORN DRIVE NE,6024,rundlehorn drive ne,,Province of Alberta
9961,nan,200,Church Street,,Province of Ontario
14434,nan,9023,AIRPORT BOX 13 Road,,Province of Ontario
502,"10 avenue De L'cole Saint-Jacques Saint-Jacques NB, Canada",,,,Province of New Brunswick
6877,"218, boulevard-Saint-Jean-Baptiste, bureau 101",boulevard-saint-jean-baptiste,bureau 101,218,Province of Quèbec
17172,126 ash street ,126,ash street,,GoDayCare.com
1344,100 PRINCESS STREET,100,princess street,,Province of Alberta
13893,nan,1198,Alexandra Avenue,,Province of Ontario
1846,4704 55TH STREET,4704,55th street,,Province of Alberta
11875,nan,15,Greenland Road,,Province of Ontario
15359,219 hrr ,219,hrr,,GoDayCare.com
11878,nan,288,Pleasant Avenue,,Province of Ontario
204,144 street goodine ,,,,Province of New Brunswick
3756,2ND FLOOR 9135 146 STREET,9135,146 street,2nd floor,Province of Alberta
21380,3669 Qualicum St,3669,qualicum st,,Province of British Columbia
8170,nan,2708,Gideon Drive,,Province of Ontario
17370,snair ,,,,GoDayCare.com
7236,"90A, route 104",90a,route 104,,Province of Quèbec
17180,888 hanna st. e. ,888,hanna st. e.,,GoDayCare.com
18798,None,,,,Province of Manitoba
859,241 canada street ,241,canada street,,Province of New Brunswick
12395,nan,3535,South Common Court,,Province of Ontario
5318,"10580, boulevard Saint-Laurent",10580,boulevard saint-laurent,,Province of Quèbec
1762,12023 81 STREET,12023,81 street,,Province of Alberta
12545,nan,66,Lakeview Drive,,Province of Ontario
19311,103 - 42000 Loggers Lane,42000,loggers lane,103,Province of British Columbia
23007,2230 Highland Blvd,2230,highland blvd,,Province of British Columbia
17229,20 hemlock court ,20,hemlock court,,GoDayCare.com
4760,"5545, rue Snowdon",5545,rue snowdon,,Province of Quèbec
9471,nan,860,Harrington Court,,Province of Ontario
18992,None,,,,Province of Manitoba
19450,2228 Galt St,2228,galt st,,Province of British Columbia
11144,nan,4,Assance Drive,,Province of Ontario
5597,"8065, boulevard Viau, bureau 101",boulevard viau,bureau 101,8065,Province of Quèbec
20439,100 - 1605 Sutherland Ave,100 1605,sutherland ave,,Province of British Columbia
11548,nan,2389,Cliff Road,,Province of Ontario
12685,nan,3199,Lauzon Road,,Province of Ontario
1620,10345 144 ST,10345,144 st,,Province of Alberta
7217,"66, rue Pierre-Brosseau",66,rue pierre-brosseau,,Province of Quèbec
14440,323 walsh street ,323,walsh street,,GoDayCare.com
6258,"2000, rue Bienville",2000,rue bienville,,Province of Quèbec
4792,"8833, boulevard Saint-Michel",8833,boulevard saint-michel,,Province of Quèbec
65,none,,,,Northwest Territories
6410,"522, rue Terry-Fox",522,rue terry-fox,,Province of Quèbec
1748,50 MEADOWLARK BLVD.,50,meadowlark blvd.,,Province of Alberta
9584,nan,59,Sterling Avenue (French),,Province of Ontario
19394,18959 70 Ave,18959,70 ave,,Province of British Columbia
15459,52 stirling dr ,52,stirling dr,,GoDayCare.com
10011,nan,235,Dundas Street,,Province of Ontario
14315,nan,11,Guildwood Drive,,Province of Ontario
2209,115 MAIN STREET,115,main street,,Province of Alberta
18053,15 CHURCH ST.,15,church st.,,Province of Nova Scotia
22613,26489 Fraser Hwy,26489,fraser hwy,,Province of British Columbia
16729,400 townline rd ,400,townline rd,,GoDayCare.com
23252,228 5 Ave N,228,5 ave n,,Province of British Columbia
12517,nan,426,Britannia Street,,Province of Ontario
15120,866 robertville road ,866,robertville road,,GoDayCare.com
12951,nan,78,Seaforth Avenue,,Province of Ontario
18639,None,,,,Province of Manitoba
14503,5301 2nd st ,5301,2nd st,,GoDayCare.com
1487,1101 - 403 MACKENZIE WAY SW,1101 403,mackenzie way sw,,Province of Alberta
23661,108 Naito Crt,108,naito crt,,Province of British Columbia
11849,nan,19,Mohns Avenue,,Province of Ontario
2098,4837-44TH STREET,,,,Province of Alberta
20646,2260 Philip Avenue,2260,philip avenue,,Province of British Columbia
17388,8572 newman boul ,8572,newman boul,,GoDayCare.com
5899,"202, rue de l'Aréna",202,rue de l'aréna,,Province of Quèbec
8931,nan,3265,Simcoe Street,,Province of Ontario
1708,6 CUNNINGHAM ROAD,6,cunningham road,,Province of Alberta
10864,nan,240,Manor Road,,Province of Ontario
18147,718 Water Street,718,water street,,Province of Newfoundland and Labrador
21708,1829 Newton St,1829,newton st,,Province of British Columbia
18305,f.w. gilbert school - room #9 33 massey avenue (ave) ,,,,Province of Manitoba
21133,523 Mill St,523,mill st,,Province of British Columbia
3929,"566, rue Jean Rioux",566,rue jean rioux,,Province of Quèbec
15640,4329 highway #1 ,highway,#1,4329,GoDayCare.com
20453,2804 Windemere Rd,2804,windemere rd,,Province of British Columbia
15105,5337 rte. 134 ,5337,rte. 134,,GoDayCare.com
4177,"2820, boulevard Laurier, tour 3, bureau 460",,,,Province of Quèbec
8030,nan,10000,Kennedy Road,,Province of Ontario
12824,nan,135,Exhibition Street,,Province of Ontario
20941,6609 - 89Th St,6609,89th st,,Province of British Columbia
8848,nan,1375,Colonial Road,,Province of Ontario
1757,#224 66 SANDARAC DRIVE NW,66,sandarac drive nw,#224,Province of Alberta
20381,2049 Highland Pl,2049,highland pl,,Province of British Columbia
24364,box 879 ,,,,Province of Saskatchewan
11096,nan,1320,Yonge Street,,Province of Ontario
10979,nan,455,Cochrane Drive,,Province of Ontario
3046,#1 12654 151 AVE,12654,151 ave,#1,Province of Alberta
13736,nan,70,Mattice Avenue,,Province of Ontario
10209,nan,400,Mill Street,,Province of Ontario
12388,nan,611,St.Clair Avenue,,Province of Ontario
11545,nan,1145,Swinbourne Drive,,Province of Ontario
3275,2036 20 AVE SW,2036,20 ave sw,,Province of Alberta
23790,46510 1St Ave,46510,1st ave,,Province of British Columbia
13185,nan,424,18th Avenue,,Province of Ontario
7896,nan,925,Cousineau Road,,Province of Ontario
16860,10775 leslie street unit 4 ,leslie street,unit 4,10775,GoDayCare.com
20447,938 Walfred Rd,938,walfred rd,,Province of British Columbia
8280,nan,20,Melrose Avenue,,Province of Ontario
23920,1502 Maple St,1502,maple st,,Province of British Columbia
4380,"140, boulevard Sainte-Madeleine",140,boulevard sainte-madeleine,,Province of Quèbec
12099,nan,440,Shuter Street,,Province of Ontario
20576,5620 A Osoyoos Crescent,5620 a,osoyoos crescent,,Province of British Columbia
24296,43 - 1212 12th street ,43,1212 12th street,,Province of Saskatchewan
13691,nan,144,Planks Lane,,Province of Ontario
21023,3285 Gordon Drive,3285,gordon drive,,Province of British Columbia
7594,nan,180,Amber Street,,Province of Ontario
14762,311 pritchard rd. ,311,pritchard rd.,,GoDayCare.com
7566,nan,2,Darling Street,,Province of Ontario
24274,303 martens avenue ,303,martens avenue,,Province of Saskatchewan
2095,4026 50 STREET,4026,50 street,,Province of Alberta
15748,315 tucker street ,315,tucker street,,GoDayCare.com
3741,UNIT 5 2123 - 19 STREET,2123,19 street,unit 5,Province of Alberta
10043,nan,460,Brentcliffe Drive,,Province of Ontario
1869,306 SADDLEBACK ROAD,306,saddleback road,,Province of Alberta
21021,840 Townsite Road,840,townsite road,,Province of British Columbia
10322,nan,5,First Street,,Province of Ontario
18202,188 Park Avenue,188,park avenue,,Province of Newfoundland and Labrador
4780,"935, rue De La Gauchetière Ouest, 6e étage",rue de la gauchetière ouest,6e étage,935,Province of Quèbec
1974,11840 87 AVENUE,11840,87 avenue,,Province of Alberta
4880,"452-A, rue Jean-Talon Ouest",452-a,rue jean-talon ouest,,Province of Quèbec
20699,4111 Moncton St,4111,moncton st,,Province of British Columbia
5937,"912, avenue De Quen",912,avenue de quen,,Province of Quèbec
10387,nan,70,Madelaine Promenade,,Province of Ontario
18130,32 Hospital Road,32,hospital road,,Province of Newfoundland and Labrador
7234,"440, boulevard St-Luc, local 106",boulevard st-luc,local 106,440,Province of Quèbec
1405,622 - 11 AVE SW,622,11 ave sw,,Province of Alberta
14510,sunset heights ,,,,GoDayCare.com
21659,1671 Bisley Pl,1671,bisley pl,,Province of British Columbia
754,197 porter street ,197,porter street,,Province of New Brunswick
4051,"8, rue du Croissant",8,rue du croissant,,Province of Quèbec
15981,294 first avenue ,294,first avenue,,GoDayCare.com
16527,deer creek st ,,,,GoDayCare.com
7183,"2150, rue Mailhot",2150,rue mailhot,,Province of Quèbec
12708,nan,69,Pritchard Avenue,,Province of Ontario
13720,nan,120,Watford Street,,Province of Ontario
6596,"589, 20e Avenue",589,20e avenue,,Province of Quèbec
24110,401 4th avenue ,401,4th avenue,,Province of Saskatchewan
1279,105 - 400 MAIN STREET NORTH,105 400,main street north,,Province of Alberta
17334,155 rue dunkin ,155,rue dunkin,,GoDayCare.com
10457,nan,1400,Cousineau Road,,Province of Ontario
13814,nan,(Hwy # 10,636064 Prince of Wales Road,,Province of Ontario
13673,nan,160,Carnwith Drive,,Province of Ontario
6380,"810, rue Ladouceur",810,rue ladouceur,,Province of Quèbec
15682,115 rue sandfield ,115,rue sandfield,,GoDayCare.com
22554,15762 92A Ave,15762,92a ave,,Province of British Columbia
8788,nan,5450,Lawrence Avenue,,Province of Ontario
6739,"148, 43e avenue",148,43e avenue,,Province of Quèbec
21166,2812 Lardeau Way,2812,lardeau way,,Province of British Columbia
5097,"92, rue Dante",92,rue dante,,Province of Quèbec
10567,nan,3781,Rue Sixth Rue,,Province of Ontario
11992,nan,11,Mills Avenue,,Province of Ontario
17077,mcknight cress ,,,,GoDayCare.com
3409,16203 55 STREET,16203,55 street,,Province of Alberta
16918,berry street ,,,,GoDayCare.com
11842,nan,165,Frances Street,,Province of Ontario
14850,12287 fulton street ,12287,fulton street,,GoDayCare.com
21871,350 Seymour St,350,seymour st,,Province of British Columbia
15983,kenilworth cres. ,,,,GoDayCare.com
9006,nan,709,King Street,,Province of Ontario
20574,1483 Lameys Mill Road,1483,lameys mill road,,Province of British Columbia
9754,nan,63,Victoria Road,,Province of Ontario
17919,658 HIGHWAY 2 HWY.,658,highway 2 hwy.,,Province of Nova Scotia
11136,nan,160,Courtland Avenue,,Province of Ontario
5115,"4022, rue Hochelaga",4022,rue hochelaga,,Province of Quèbec
23307,10300 Sherman Dr,10300,sherman dr,,Province of British Columbia
12490,nan,1601,Norfolk Street,,Province of Ontario
13226,nan,186,Margaret Street,,Province of Ontario
13810,nan,33,School Road,,Province of Ontario
16747,leduc cres ,,,,GoDayCare.com
20410,2051 Odlum Pl,2051,odlum pl,,Province of British Columbia
3639,100 138-4 AVENUE SE,100,138-4 avenue se,,Province of Alberta
12979,nan,10303,Yonge Street,,Province of Ontario
7292,"1, rue Boulais",1,rue boulais,,Province of Quèbec
12941,nan,2330,Duncaster Drive,,Province of Ontario
8833,nan,373,Northern Avenue,,Province of Ontario
5891,"2501, route des Pionniers C.P. 65",route des pionniers,c.p. 65,2501,Province of Quèbec
14956,125-5373 peach road ,125-5373,peach road,,GoDayCare.com
4506,"378, rue des Érables",378,rue des érables,,Province of Quèbec
18867,None,,,,Province of Manitoba
3590,220-49 HINSHAW DRIVE,220-49,hinshaw drive,,Province of Alberta
15134,850 montgomery street ,850,montgomery street,,GoDayCare.com
4363,"85, 118e Rue",85,118e rue,,Province of Quèbec
7737,nan,1073,Beaumont Avenue,,Province of Ontario
13705,nan,195,Athabasca Street,,Province of Ontario
10586,nan,109,Highway 29,,Province of Ontario
1262,5 SPRUCE VILLAGE WAY,5,spruce village way,,Province of Alberta
24204,427 streb way ,427,streb way,,Province of Saskatchewan
24327,777-28th street east ,,,,Province of Saskatchewan
18056,52 CAIN ST.,52,cain st.,,Province of Nova Scotia
8173,nan,76,Bennington Heights Drive,,Province of Ontario
12003,nan,777,Garner Road,,Province of Ontario
23648,3400 Institute Rd,3400,institute rd,,Province of British Columbia
17906,50 ABERDEEN ST. B,50,aberdeen st. b,,Province of Nova Scotia
23127,3191 Nicola Ave,3191,nicola ave,,Province of British Columbia
17353,179 chemin de la savane ,179,chemin de la savane,,GoDayCare.com
7917,nan,301,Silver Star Boulevard,,Province of Ontario
7437,"37, rue Lactantia",37,rue lactantia,,Province of Quèbec
19356,22680 Westminister Hwy,22680,westminister hwy,,Province of British Columbia
17536,rue jean lesage ,,,,GoDayCare.com
10779,nan,375,Aberdeen Avenue,,Province of Ontario
6051,"1490, rue Charles-Rodrigue",1490,rue charles-rodrigue,,Province of Quèbec
13869,nan,1301,Epton Crescent,,Province of Ontario
12384,nan,1,Greenland Road,,Province of Ontario
6047,"4616, rue Saint-Georges",4616,rue saint-georges,,Province of Quèbec
14014,nan,186,Chippewa Street,,Province of Ontario
11721,nan,3800,Brandon Gate,,Province of Ontario
17560,424 claremont avenue ,424,claremont avenue,,GoDayCare.com
22258,6140 Turner Ave,6140,turner ave,,Province of British Columbia
6612,"15365, rue Diane",15365,rue diane,,Province of Quèbec
924,570 york street ,570,york street,,Province of New Brunswick
17557,eastern street ,,,,GoDayCare.com
3266,NE 3-28-4-5,,,,Province of Alberta
8239,nan,43,Patterson Street,,Province of Ontario
1464,BLDG 197/198 GUTHRIE SCHOOL,197/198,guthrie school,bldg,Province of Alberta
24151,430 vancouver avenue ,430,vancouver avenue,,Province of Saskatchewan
794,859 sand cove road ,859,sand cove road,,Province of New Brunswick
16288,r.r. # 1 ,,,,GoDayCare.com
7360,"1010, rue Émile-Bouchard",1010,rue émile-bouchard,,Province of Quèbec
13535,nan,5121,Meadowhill Road,,Province of Ontario
20503,20645 120B Cres,20645,120b cres,,Province of British Columbia
6373,"123, rue du Sacré-Coeur",123,rue du sacré-coeur,,Province of Quèbec
21185,2751 Granite Pl,2751,granite pl,,Province of British Columbia
1173,LOT B1 BLOCK 6 PLAN 8722396,lot b1,block 6 plan 8722396,,Province of Alberta
11420,nan,691,Lasalle Boulevard,,Province of Ontario
9495,nan,116,Church Street,,Province of Ontario
19657,1076 Calmar Pl,1076,calmar pl,,Province of British Columbia
10009,nan,1040,Hilliard Street,,Province of Ontario
20186,218-8531 Alexandra Rd,218-8531,alexandra rd,,Province of British Columbia
21064,1215 Cecile Dr,1215,cecile dr,,Province of British Columbia
36,48 Taylor Road,48,taylor road,,Northwest Territories
2730,236 ACADIA DRIVE SE,236,acadia drive se,,Province of Alberta
13202,nan,92,Malta Avenue,,Province of Ontario
23931,9060 212Th St,9060,212th st,,Province of British Columbia
17939,53 PARADE ST.,53,parade st.,,Province of Nova Scotia
16416,marlow ave ,,,,GoDayCare.com
13813,nan,246303,Hockley Road,,Province of Ontario
8137,nan,230,Frontenac Street,,Province of Ontario
21297,1036 Babine Cres,1036,babine cres,,Province of British Columbia
23048,3163 Stevenson Pl,3163,stevenson pl,,Province of British Columbia
14966,stone hearth lane ,,,,GoDayCare.com
6272,"4676, boulevard des Laurentides",4676,boulevard des laurentides,,Province of Quèbec
20675,331 Richmond St,331,richmond st,,Province of British Columbia
19728,2151 Lannon Way,2151,lannon way,,Province of British Columbia
23141,8286 197Th St,8286,197th st,,Province of British Columbia
13654,nan,20,Markanna Drive,,Province of Ontario
9394,nan,630,Ray Lawson Boulevard,,Province of Ontario
21824,34511 Thoreau Ave,34511,thoreau ave,,Province of British Columbia
7438,"378, rue Girouard",378,rue girouard,,Province of Quèbec
6692,"23, rue de la Culture",23,rue de la culture,,Province of Quèbec
15776,204 john street south ,204,john street south,,GoDayCare.com
17151,rolling acres drive ,,,,GoDayCare.com
9017,nan,998,Frances Street,,Province of Ontario
22962,805 Tru Way,805,tru way,,Province of British Columbia
577,24 nordin lane ,24,nordin lane,,Province of New Brunswick
23580,11567 Fraserview St,11567,fraserview st,,Province of British Columbia
8628,nan,550,Mortimer Avenue,,Province of Ontario
3346,7501 99 STREET,7501,99 street,,Province of Alberta
21077,5127 School Rd,5127,school rd,,Province of British Columbia
69,none,,,,Northwest Territories
8709,nan,4617,Sainte-Th‚Äör≈†se Rue,,Province of Ontario
22503,2200 Mcintosh Rd,2200,mcintosh rd,,Province of British Columbia
6705,"550, rue René-Gascon",550,rue rené-gascon,,Province of Quèbec
14096,nan,1871,Ridge Road,,Province of Ontario
19604,4110 Campbell Ave,4110,campbell ave,,Province of British Columbia
24300,box 1475 1005 main street ,1005,main street,box 1475,Province of Saskatchewan
14099,nan,31,40th Street,,Province of Ontario
21520,215 Maliview Dr,215,maliview dr,,Province of British Columbia
2854,5423 55 STREET,5423,55 street,,Province of Alberta
23611,2838 Adelaide Ave,2838,adelaide ave,,Province of British Columbia
3706,53113- RANGE ROAD 222,range road,222,53113,Province of Alberta
725,99 burpee avenue ,99,burpee avenue,,Province of New Brunswick
24455,1223 8th avenue north ,1223,8th avenue north,,Province of Saskatchewan
10942,nan,244,Second Line West,,Province of Ontario
12928,nan,255,Raymond Road,,Province of Ontario
19011,7 trafalgar st ,7,trafalgar st,,Province of Prince Edward Island
4357,"1452, rue Gigaire",1452,rue gigaire,,Province of Quèbec
17102,9222 keele street ,9222,keele street,,GoDayCare.com
14405,nan,607,Surgenor Street,,Province of Ontario
1957,280 BULYEA ROAD,280,bulyea road,,Province of Alberta
13112,nan,125,Wellington Street,,Province of Ontario
23785,6211 Forsyth Cres,6211,forsyth cres,,Province of British Columbia
17170,15 foothill st ,15,foothill st,,GoDayCare.com
8636,nan,101,Catharine Street,,Province of Ontario
21759,1618 Pemberton Ave,1618,pemberton ave,,Province of British Columbia
5777,"10, rue Chiasson",10,rue chiasson,,Province of Quèbec
2835,3820 - 24 AVE NW WEST CAMPUS,24 ave nw,west campus,3820,Province of Alberta
20106,211 - 800 McBride Blvd,211 800,mcbride blvd,,Province of British Columbia
19659,2494 Roome Rd,2494,roome rd,,Province of British Columbia
3012,5302 - 48 STREET,5302,48 street,,Province of Alberta
6799,"570, boulevard de Mortagne",570,boulevard de mortagne,,Province of Quèbec
6973,"300, rue de Gentilly Est",300,rue de gentilly est,,Province of Quèbec
24293,709 main street box 1127 ,main street box,1127,709,Province of Saskatchewan
7295,"280, rue du Grand-Coteau",280,rue du grand-coteau,,Province of Quèbec
15036,5 main street ,5,main street,,GoDayCare.com
14561,4932 48ave ,4932,48ave,,GoDayCare.com
18105,17 Hardy Avenue,17,hardy avenue,,Province of Newfoundland and Labrador
17660,800 101 street ,800,101 street,,GoDayCare.com
1514,13820 109A AVENUE NW,13820,109a avenue nw,,Province of Alberta
16959,202 aspen ridge drive ,202,aspen ridge drive,,GoDayCare.com
6499,"7150, rue du Limier",7150,rue du limier,,Province of Quèbec
21341,973 Furber Rd,973,furber rd,,Province of British Columbia
18922,284 davidson street ,284,davidson street,,Province of Manitoba
6370,"880, rue Sagala",880,rue sagala,,Province of Quèbec
21609,233 Roche Point Dr,233,roche point dr,,Province of British Columbia
21400,163 1St Ave W,163,1st ave w,,Province of British Columbia
19862,1703 Juniper St,1703,juniper st,,Province of British Columbia
8492,nan,7,Capri Road,,Province of Ontario
691,"714 boulevard Everard Daigle Grand-Sault/Grand Falls NB, Canada",,,,Province of New Brunswick
21012,25 Cilaire Dr,25,cilaire dr,,Province of British Columbia
2552,4033 BOW TRAIL SW,4033,bow trail sw,,Province of Alberta
10933,nan,N9-6975,Meadowvale Town Centre Circle,,Province of Ontario
8802,nan,161,Denwood Drive,,Province of Ontario
485,1021 776 route ,1021,776 route,,Province of New Brunswick
9366,nan,255,Bayview Fairways Drive,,Province of Ontario
21043,604 7Th Avenue,604,7th avenue,,Province of British Columbia
18388,None,,,,Province of Manitoba
14046,nan,1130,8th Street,,Province of Ontario
10514,nan,1748,Pierre Street,,Province of Ontario
6120,"355, rue Verreault",355,rue verreault,,Province of Quèbec
12327,nan,300,Williamson Drive Drive,,Province of Ontario
24543,1601 cowan crescent ,1601,cowan crescent,,Province of Saskatchewan
16250,254 robinson road ,254,robinson road,,GoDayCare.com
23050,3648 Silver King Ski Hill Rd,3648,silver king ski hill rd,,Province of British Columbia
3947,"1165, rue des Carcajous",1165,rue des carcajous,,Province of Quèbec
7430,"210, rue Tessier",210,rue tessier,,Province of Quèbec
20945,11371 Kingfisher Dr,11371,kingfisher dr,,Province of British Columbia
14843,4062 206a street ,4062,206a street,,GoDayCare.com
21164,5936 Ranchview Rd,5936,ranchview rd,,Province of British Columbia
5873,"412, rue Taschereau",412,rue taschereau,,Province of Quèbec
7552,nan,2,Nobert Road,,Province of Ontario
4490,"300, rue Barton",300,rue barton,,Province of Quèbec
11325,nan,1280,Braeside Drive,,Province of Ontario
21441,2963 30Th Ave W,2963,30th ave w,,Province of British Columbia
3871,5019 53 STREET,5019,53 street,,Province of Alberta
5655,"19, rue Paiement",19,rue paiement,,Province of Quèbec
16433,richview dr. ha,richview dr.,ha,,GoDayCare.com
1612,4025 117 STREET,4025,117 street,,Province of Alberta
10719,nan,550,Pinetree Drive,,Province of Ontario
19729,8656 151B St,8656,151b st,,Province of British Columbia
5395,"4844, boulevard Léger",4844,boulevard léger,,Province of Quèbec
16071,19 railway street ,19,railway street,,GoDayCare.com
21869,10640 No. 5 Rd,10640,no. 5 rd,,Province of British Columbia
13386,nan,2155,Lawrence Avenue,,Province of Ontario
17602,812 fairford street east ,812,fairford street east,,GoDayCare.com
8241,nan,100,Professor Day Drive,,Province of Ontario
8476,nan,644,Warden Avenue,,Province of Ontario
14922,101 2248 elgin avenue port ,101 2248,elgin avenue port,,GoDayCare.com
22580,1806 San Juan Avenue,1806,san juan avenue,,Province of British Columbia
1069,8715 153 STREET,8715,153 street,,Province of Alberta
4543,"1055, boulevard Saint-Régis",1055,boulevard saint-régis,,Province of Quèbec
5619,"6274, rue Jean-Talon Est",6274,rue jean-talon est,,Province of Quèbec
24121,639 broadway avenue ,639,broadway avenue,,Province of Saskatchewan
16206,talbot rd ,,,,GoDayCare.com
14653,335 mons lake rd ,335,mons lake rd,,GoDayCare.com
887,281 amirault street ,281,amirault street,,Province of New Brunswick
19607,360 Chief Alex Thomas Way,360,chief alex thomas way,,Province of British Columbia
15016,5575 marine drive ,5575,marine drive,,GoDayCare.com
15840,"376 i.c. roy, ss3 ",i.c. roy,ss3,376,GoDayCare.com
8256,nan,35,Hedges Boulevard,,Province of Ontario
15820,greenlane rd. ,,,,GoDayCare.com
19349,801 Clearwater Village Road,801,clearwater village road,,Province of British Columbia
11335,nan,461,North Service Road,,Province of Ontario
6660,"328B, rue Pine",328b,rue pine,,Province of Quèbec
4049,"2, rue du Jardin, suite 104",rue du jardin,suite 104,2,Province of Quèbec
17988,55 KEARNEY LAKE RD.,55,kearney lake rd.,,Province of Nova Scotia
10329,nan,153,Montcalm Drive,,Province of Ontario
9145,nan,508,Brock Street,,Province of Ontario
2438,215 10 AVENUE,215,10 avenue,,Province of Alberta
23244,3091 Century Street,3091,century street,,Province of British Columbia
15356,18 st. catherine st. ,18,st. catherine st.,,GoDayCare.com
16989,11873 ninth line ,11873,ninth line,,GoDayCare.com
13932,nan,170,Eaton Street,,Province of Ontario
18863,None,,,,Province of Manitoba
12555,nan,610,"Dundas Street, East",,Province of Ontario
24521,5421 gordon road ,5421,gordon road,,Province of Saskatchewan
2501,9504 OAKFIELD DRIVE SW,9504,oakfield drive sw,,Province of Alberta
18263,None,,,,Province of Manitoba
19333,15350 34 Ave,15350,34 ave,,Province of British Columbia
2738,5005 28 AVENUE,5005,28 avenue,,Province of Alberta
18616,"518 Commercial Street Wawanesa MB, Canada",,,,Province of Manitoba
3986,"4142, rue Marc-Aurèle",4142,rue marc-aurèle,,Province of Quèbec
5649,"5676, rue Jarry Est",5676,rue jarry est,,Province of Quèbec
12365,nan,4600,Dundas Street,,Province of Ontario
21389,9244 Water St,9244,water st,,Province of British Columbia
8309,nan,,6555 Malden Rd.,,Province of Ontario
8267,nan,114,Hungerford Road,,Province of Ontario
6957,"910, rue Principale",910,rue principale,,Province of Quèbec
16137,28 tracey lane ,28,tracey lane,,GoDayCare.com
24693,Unit E 2157 2nd Ave ,2157,2nd ave,unit e,Yukon Territory
10352,nan,185,Wintermute Boulevard,,Province of Ontario
12012,nan,30,Barrhead Crescent,,Province of Ontario
3024,103 - 235 MILLIGAN DRIVE,103 235,milligan drive,,Province of Alberta
3832,110 170 EBONY BOULEVARD,110 170,ebony boulevard,,Province of Alberta
9682,nan,375,Finkle Street,,Province of Ontario
7920,nan,48,Broadway Street,,Province of Ontario
17844,28 GOUROK AVE.,28,gourok ave.,,Province of Nova Scotia
16254,239 miller street ,239,miller street,,GoDayCare.com
9131,nan,150,O Carroll Avenue,,Province of Ontario
8275,nan,1432,Bayview Avenue,,Province of Ontario
15078,894 boul. des acadiens ,894,boul. des acadiens,,GoDayCare.com
18367,111 second avenue (ave) s ,111,second avenue ave s,,Province of Manitoba
6575,"390, rue Joseph-Paquette",390,rue joseph-paquette,,Province of Quèbec
14551,2090 high country rise nw ,2090,high country rise nw,,GoDayCare.com
9999,nan,630,Spadina Avenue,,Province of Ontario
17841,125 CURTIS DR.,125,curtis dr.,,Province of Nova Scotia
13174,nan,5316,Highway 7,,Province of Ontario
661,30 vincent road ,30,vincent road,,Province of New Brunswick
14785,7670 jarvis elementary ,,,,GoDayCare.com
1688,202 222 16 AVENUE NE,,,,Province of Alberta
8297,nan,685,Queen Street,,Province of Ontario
12973,nan,1644,Bank Street,,Province of Ontario
817,143 douglas avenue ,143,douglas avenue,,Province of New Brunswick
20279,320 10 Ave,320,10 ave,,Province of British Columbia
12745,nan,414,Second Avenue,,Province of Ontario
15727,larkspur crescent ,,,,GoDayCare.com
11502,nan,24,Bedford Park,,Province of Ontario
8473,nan,1665,O'Connor Drive,,Province of Ontario
12858,nan,225,Wellesworth Drive,,Province of Ontario
1084,2407 90B STREET,2407,90b street,,Province of Alberta
4829,"8550, avenue Joliot-Curie",8550,avenue joliot-curie,,Province of Quèbec
22774,3230 Bank Rd,3230,bank rd,,Province of British Columbia
22103,746 Glenwood Ave,746,glenwood ave,,Province of British Columbia
19168,500 Matterson Dr,500,matterson dr,,Province of British Columbia
9842,nan,1760,Garth Street,,Province of Ontario
6865,"105, rue Saint-Eugène",105,rue saint-eugène,,Province of Quèbec
4393,"3200, boulevard Saint-Jean",3200,boulevard saint-jean,,Province of Quèbec
7644,nan,83,Main Street,,Province of Ontario
20477,1658 Gillett St,1658,gillett st,,Province of British Columbia
7041,"1400, rue des Galets",1400,rue des galets,,Province of Quèbec
9400,nan,1060,White Clover Way,,Province of Ontario
4759,"5795, rue Beaulieu",5795,rue beaulieu,,Province of Quèbec
23570,6808 Beresford Street,6808,beresford street,,Province of British Columbia
4062,"2130, boulevard des Chutes",2130,boulevard des chutes,,Province of Quèbec
12947,nan,96,Denison Avenue,,Province of Ontario
5180,"1985, boulevard Henri-Bourassa Est",1985,boulevard henri-bourassa est,,Province of Quèbec
2892,ROOM 1601 100 COLLEGE BLVD.,100,college blvd.,room 1601,Province of Alberta
4518,"8000, boulevard Métropolitain Est",8000,boulevard métropolitain est,,Province of Quèbec
766,951 main street ,951,main street,,Province of New Brunswick
6368,"5305, boulevard Notre-Dame, bureau 100",boulevard notre-dame,bureau 100,5305,Province of Quèbec
1362,11909/11913 134 AVENUE,11909/11913,134 avenue,,Province of Alberta
24642,102 centre street box 76 ,centre street box,76,102,Province of Saskatchewan
17175,576 edward st ,576,edward st,,GoDayCare.com
4144,"161, avenue Champagnat, bureau 200",avenue champagnat,bureau 200,161,Province of Quèbec
18061,1969 UPPER WATER ST.,1969,upper water st.,,Province of Nova Scotia
10259,nan,2233,Argentia Road,,Province of Ontario
11651,nan,300,Great Lakes Drive,,Province of Ontario
20615,1475 Burrard St,1475,burrard st,,Province of British Columbia
13183,nan,2723,St.Clair Avenue,,Province of Ontario
21343,351 Obed Ave,351,obed ave,,Province of British Columbia
14567,railway cres se ,,,,GoDayCare.com
23184,1555 Theta Crt,1555,theta crt,,Province of British Columbia
10667,nan,80,Victoria Street,,Province of Ontario
611,5 meadow green court ,5,meadow green court,,Province of New Brunswick
15516,21 glen arbour way ,21,glen arbour way,,GoDayCare.com
1486,9607 SHERRIDON DRIVE,9607,sherridon drive,,Province of Alberta
19884,4 - 33575 Mayfair Ave,4 33575,mayfair ave,,Province of British Columbia
13446,nan,51,Woodman Drive,,Province of Ontario
19541,13883 Grosvenor Rd,13883,grosvenor rd,,Province of British Columbia
21349,83 Crease Ave,83,crease ave,,Province of British Columbia
24765,P.O. Box 429,,,,Nunavut
6516,"5500, rue Rodrigue, bureau 134",rue rodrigue,bureau 134,5500,Province of Quèbec
23943,5620 B Osoyoos Crescent,5620 b,osoyoos crescent,,Province of British Columbia
2934,CARSELAND SCHOOL (RM 102),carseland school,rm 102,,Province of Alberta
2653,5007 48 STREET,5007,48 street,,Province of Alberta
5554,"7200, rue Albert-Einstein, bureau 200",rue albert-einstein,bureau 200,7200,Province of Quèbec
18340,mennonite brethren church 146 poplar avenue (ave) ,146,poplar avenue ave,mennonite brethren church,Province of Manitoba
12126,nan,3042,New Subdivision Road,,Province of Ontario
3322,132 QUIGLEY DRIVE,132,quigley drive,,Province of Alberta
23321,1194 Columbia Ave,1194,columbia ave,,Province of British Columbia
183,9 rue sainte-croix ,9,rue sainte-croix,,Province of New Brunswick
15544,107 northfield road ,107,northfield road,,GoDayCare.com
1592,13440 132 STREET,13440,132 street,,Province of Alberta
19909,1939 Bourchier St,1939,bourchier st,,Province of British Columbia
12787,nan,19,Glen Agar Drive,,Province of Ontario
1300,17 SPRINGFIELD AVENUE,17,springfield avenue,,Province of Alberta
777,85 street bonaccord ,,,,Province of New Brunswick
10899,nan,300,Dundas Street,,Province of Ontario
17664,215 haichert street west ,215,haichert street west,,GoDayCare.com
912,1903 121 route ,1903,121 route,,Province of New Brunswick
20764,1300 East Broadway,1300,east broadway,,Province of British Columbia
3111,722 91 STREET SW,722,91 street sw,,Province of Alberta
22521,11600 Aztec St,11600,aztec st,,Province of British Columbia
14840,8892 208 st ,8892,208 st,,GoDayCare.com
20590,3300 - 37 Avenue,3300,37 avenue,,Province of British Columbia
7294,"2100, rue Darwin",2100,rue darwin,,Province of Quèbec
17062,60 turntable cres ,60,turntable cres,,GoDayCare.com
21291,1260 Resker Pl,1260,resker pl,,Province of British Columbia
15073,1190 rue principale ,1190,rue principale,,GoDayCare.com
16228,941 north street ,941,north street,,GoDayCare.com
20462,340 23Rd St E,340,23rd st e,,Province of British Columbia
15240,5 rue st. patrick ,5,rue st. patrick,,GoDayCare.com
20692,5650 Club Road,5650,club road,,Province of British Columbia
3212,10215 108 STREET,10215,108 street,,Province of Alberta
3358,#208 4201 28 STREET,4201,28 street,#208,Province of Alberta
4478,"360, rue Argyll",360,rue argyll,,Province of Quèbec
15453,86 dunlop road ,86,dunlop road,,GoDayCare.com
16199,1212 arbuste avenue ,1212,arbuste avenue,,GoDayCare.com
5749,"32, rue de l'Acadie",32,rue de l'acadie,,Province of Quèbec
11329,nan,165,Sewell Drive,,Province of Ontario
16932,chambers st. ,,,,GoDayCare.com
5457,"4250, rue Harold",4250,rue harold,,Province of Quèbec
127,none,,,,Northwest Territories
7580,nan,193,Homestead Crescent,,Province of Ontario
3750,MAIL BAG 700 RANGE ROAD 20 AND,,,,Province of Alberta
22323,201-14016 32 Ave,201-14016,32 ave,,Province of British Columbia
6894,"1700, rue Principale Est",1700,rue principale est,,Province of Quèbec
19208,12678 68 Ave,12678,68 ave,,Province of British Columbia
2982,2 - 199 MARTINDALE BLVD. NE,2 199,martindale blvd. ne,,Province of Alberta
2533,20 REIDEL STREET,20,reidel street,,Province of Alberta
3531,10502-106 STREET,10502-106,street,,Province of Alberta
22,none,,,,Northwest Territories
19619,2021 Moody Ave,2021,moody ave,,Province of British Columbia
23356,11982 Meadowlark Dr,11982,meadowlark dr,,Province of British Columbia
3849,2223 - 146 AVENUE SE,2223,146 avenue se,,Province of Alberta
21859,13941 94A Ave,13941,94a ave,,Province of British Columbia
19918,6199 Mcgirr Rd,6199,mcgirr rd,,Province of British Columbia
7223,"650, rue Boucher, suite 202",rue boucher,suite 202,650,Province of Quèbec
5840,"270, rue Maurice-Duplessis",270,rue maurice-duplessis,,Province of Quèbec
1880,2803 48 STREET,2803,48 street,,Province of Alberta
16851,biggar rd. ,,,,GoDayCare.com
22672,3181 5 Ave Se,3181,5 ave se,,Province of British Columbia
16087,3634 errington street ,3634,errington street,,GoDayCare.com
15525,belcher st ,,,,GoDayCare.com
17113,rittenhouse rd. ,,,,GoDayCare.com
773,24 epworth park ,24,epworth park,,Province of New Brunswick
7362,"418, avenue Saint-Charles, bureau 100",avenue saint-charles,bureau 100,418,Province of Quèbec
14625,cimarron vista way ,,,,GoDayCare.com
4806,"330, avenue du Carmel",330,avenue du carmel,,Province of Quèbec
12750,nan,590,First Avenue,,Province of Ontario
3751,10815 104 STREET,10815,104 street,,Province of Alberta
610,125 hillview avenue ,125,hillview avenue,,Province of New Brunswick
461,a 861 woodstock road ,861,woodstock road,a,Province of New Brunswick
21300,634 Faulkner Cres,634,faulkner cres,,Province of British Columbia
7025,"649, rue Adoncour",649,rue adoncour,,Province of Quèbec
8133,nan,767,Huronia Road,,Province of Ontario
10948,nan,375,Dovercourt Road,,Province of Ontario
7789,nan,31,Marshall Street,,Province of Ontario
23797,2725 St. Christopher's Road,2725,st. christopher's road,,Province of British Columbia
5801,"380, boulevard Saint-Raymond",380,boulevard saint-raymond,,Province of Quèbec
5772,"1035, rue Yvon-Pichette",1035,rue yvon-pichette,,Province of Quèbec
19481,6269 14Th Ave,6269,14th ave,,Province of British Columbia
824,"20 617 Route Burtts Corner NB, Canada",,,,Province of New Brunswick
15661,27 dairy drive ,27,dairy drive,,GoDayCare.com
15989,settler's crt. ,,,,GoDayCare.com
8185,nan,93,Birchmount Road,,Province of Ontario
19162,10861 Hollymount Dr,10861,hollymount dr,,Province of British Columbia
3427,9701 PRAIRIE ROAD,9701,prairie road,,Province of Alberta
6897,"2620, route 209",2620,route 209,,Province of Quèbec
15141,1021 route 776 ,1021,route 776,,GoDayCare.com
4528,"6546, avenue Baldwin",6546,avenue baldwin,,Province of Quèbec
9569,nan,536,Huron Street,,Province of Ontario
3615,750-19369 SHERIFF KING STREET SW,750-19369,sheriff king street sw,,Province of Alberta
6517,"1230, boulevard Lucille-Teasdale, bureau 101",boulevard lucille-teasdale,bureau 101,1230,Province of Quèbec
16048,123 patterson crescent ,123,patterson crescent,,GoDayCare.com
13675,nan,441,Adelaide Avenue,,Province of Ontario
12578,nan,Bear Islan,Doreen Potts Health Centre,,Province of Ontario
12001,nan,175,Grenoble Drive,,Province of Ontario
10294,nan,317,Franklin Street,,Province of Ontario
21687,2420 Dollarton Hwy,2420,dollarton hwy,,Province of British Columbia
18190,515 Paungask Place,515,paungask place,,Province of Newfoundland and Labrador
18758,None,,,,Province of Manitoba
6804,"2200, rue André",2200,rue andré,,Province of Quèbec
9626,nan,35,Charles Street,,Province of Ontario
16043,8 lincoln street ,8,lincoln street,,GoDayCare.com
17469,171 sunnyside ave. ,171,sunnyside ave.,,GoDayCare.com
14875,carnduff place ,,,,GoDayCare.com
7084,"130, rue Saint-Jean-Baptiste Est",130,rue saint-jean-baptiste est,,Province of Quèbec
14675,5703 41st ave ,5703,41st ave,,GoDayCare.com
11024,nan,286,Water Street,,Province of Ontario
16313,169 irwin avenue ,169,irwin avenue,,GoDayCare.com
24619,119 sherbrooke street box 297 ,sherbrooke street box,297,119,Province of Saskatchewan
5966,"9, rue Cheno",9,rue cheno,,Province of Quèbec
18653,None,,,,Province of Manitoba
1139,13135 26 STREET,13135,26 street,,Province of Alberta
4966,"960, boulevard Henri-Bourassa Est",960,boulevard henri-bourassa est,,Province of Quèbec
10032,nan,691,Lilac Street,,Province of Ontario
6534,"585, rue des Tilleuls",585,rue des tilleuls,,Province of Quèbec
2177,2223 SPILLER ROAD SE,2223,spiller road se,,Province of Alberta
10360,nan,800,23rd Street,,Province of Ontario
17921,59 GLENFOREST DR.,59,glenforest dr.,,Province of Nova Scotia
17706,17 APPLESEED DR. UNIT B,appleseed dr.,unit b,17,Province of Nova Scotia
5739,"45, chemin des Érables, local 2",chemin des érables,local 2,45,Province of Quèbec
21644,7370 Morley St,7370,morley st,,Province of British Columbia
14830,arncote pl ,,,,GoDayCare.com
18022,11 BOND ST.,11,bond st.,,Province of Nova Scotia
4992,"5890, boulevard Gouin Ouest",5890,boulevard gouin ouest,,Province of Quèbec
21962,1232 21St St W,1232,21st st w,,Province of British Columbia
24597,648 grey street box 339 ,648,grey street box 339,,Province of Saskatchewan
13119,nan,141,John Button Boulevard,,Province of Ontario
8238,nan,177,Church Street,,Province of Ontario
23825,7120 136B St,7120,136b st,,Province of British Columbia
19605,815 2 St W,815,2 st w,,Province of British Columbia
11277,nan,860,St. Mary's Street,,Province of Ontario
10138,nan,3150,Aurora Sideroad,,Province of Ontario
3104,609 4TH AVENUE NORTH,609,4th avenue north,,Province of Alberta
14558,collinge road ,,,,GoDayCare.com
8838,nan,4,Ross Street,,Province of Ontario
17958,7071 BAYERS RD. SUITE 5009,bayers rd.,suite 5009,7071,Province of Nova Scotia
10837,nan,68,Queens College Drive,,Province of Ontario
21671,5050 47 Ave,5050,47 ave,,Province of British Columbia
7579,nan,1468,Commissioners Road,,Province of Ontario
8894,nan,320,Bronte Road,,Province of Ontario
9743,nan,112,Sedgemount Drive,,Province of Ontario
11386,nan,2820,Navan Road,,Province of Ontario
14486,canyon close ,,,,GoDayCare.com
273,"14 Butternut Lane Noonan NB, Canada",,,,Province of New Brunswick
9211,nan,1945,Hawthorne Drive,,Province of Ontario
13920,nan,320,Coxe Boulevard,,Province of Ontario
1471,2219 - 14 AVE. SOUTH,2219,14 ave. south,,Province of Alberta
10980,nan,50,Steeles Avenue,,Province of Ontario
20874,744 Fraser Street,744,fraser street,,Province of British Columbia
11084,nan,6030,Voyageur Promenade,,Province of Ontario
15283,4 rue eug√®ne ,4,rue eug√®ne,,GoDayCare.com
21454,201 - 10958 Barnston View Rd,10958,barnston view rd,201,Province of British Columbia
23835,6824 Glenview Dr,6824,glenview dr,,Province of British Columbia
23566,2337 Richter Street,2337,richter street,,Province of British Columbia
24243,103 hettle cove ,103,hettle cove,,Province of Saskatchewan
1472,10860 57 AVE NW,10860,57 ave nw,,Province of Alberta
20735,3154 Clearbrook Rd,3154,clearbrook rd,,Province of British Columbia
3253,736 MCDOUGALL CRT NE,736,mcdougall crt ne,,Province of Alberta
2647,1868 MEADOWBROOK DRIVE SE,1868,meadowbrook drive se,,Province of Alberta
3347,2828 - 19 STREET NW,2828,19 street nw,,Province of Alberta
4591,"437, rue Cherrier",437,rue cherrier,,Province of Quèbec
20507,33165 King Rd,33165,king rd,,Province of British Columbia
18671,None,,,,Province of Manitoba
10071,nan,Fire #4080,Osprey Central Public,,Province of Ontario
15994,8 george street ,8,george street,,GoDayCare.com
8752,nan,75,Hemmingwood Way,,Province of Ontario
18643,None,,,,Province of Manitoba
10695,nan,14,Osborne Street,,Province of Ontario
8515,nan,95,Taunton Road,,Province of Ontario
24031,7051 Killarney St,7051,killarney st,,Province of British Columbia
10773,nan,1635,Riverside Drive,,Province of Ontario
23271,4118 Guest Cres,4118,guest cres,,Province of British Columbia
3173,500 MIDPARK WAY SE,500,midpark way se,,Province of Alberta
11927,nan,47,Van Order Drive,,Province of Ontario
19882,638 Yew Wood Rd,638,yew wood rd,,Province of British Columbia
16897,does not exist ,,,,GoDayCare.com
4005,"416, rue Brassard",416,rue brassard,,Province of Quèbec
23097,15479 93Rd Ave,15479,93rd ave,,Province of British Columbia
12015,nan,298,College Street,,Province of Ontario
17801,3260 BARRINGTON ST.,3260,barrington st.,,Province of Nova Scotia
9646,nan,49,Givins Street,,Province of Ontario
24707,38B Lewes Boulevard ,38b,lewes boulevard,,Yukon Territory
7735,nan,1305,Holland Drive,,Province of Ontario
11979,nan,25,LAIDLAW Street,,Province of Ontario
22808,24093 104 Ave,24093,104 ave,,Province of British Columbia
1564,5201 - 49 STREET,5201,49 street,,Province of Alberta
11442,nan,550,Chesapeake Drive,,Province of Ontario
21088,2701 Spuraway Ave,2701,spuraway ave,,Province of British Columbia
18950,None,,,,Province of Manitoba
17642,3327 fairlight drive ,3327,fairlight drive,,GoDayCare.com
16136,maclean ave. ,,,,GoDayCare.com
337,267 rue paquet ,267,rue paquet,,Province of New Brunswick
11215,nan,100,Old Orchard Grove,,Province of Ontario
3879,"405, 10e Avenue",405,10e avenue,,Province of Quèbec
20509,12972 58B Ave,12972,58b ave,,Province of British Columbia
12084,nan,414,Barton Street,,Province of Ontario
5092,"6871, rue Hochelaga Est",6871,rue hochelaga est,,Province of Quèbec
16808,chatham street ,,,,GoDayCare.com
13463,nan,43,Cambridge Drive,,Province of Ontario
12793,nan,6411,Main Street,,Province of Ontario
20213,4231 Carey Rd,4231,carey rd,,Province of British Columbia
10797,nan,820,Farmstead Road,,Province of Ontario
16376,255 oneil dr east ,255,oneil dr east,,GoDayCare.com
12557,nan,85,Campbell Street,,Province of Ontario
3893,"290, allée des Ursulines",290,allée des ursulines,,Province of Quèbec
1820,4606 48 STREET,4606,48 street,,Province of Alberta
12526,nan,207,Windermere Avenue,,Province of Ontario
16365,308 butler avenue ,308,butler avenue,,GoDayCare.com
7466,nan,83,Dunlop Street,,Province of Ontario
11437,nan,300,Chicopee Hills Drive,,Province of Ontario
3009,71 SAGE HILL PASSAGE NW,71,sage hill passage nw,,Province of Alberta
5592,"2707, boulevard Poirier",2707,boulevard poirier,,Province of Quèbec
9642,nan,30,Centre Island Park,,Province of Ontario
14702,park drive ,,,,GoDayCare.com
20037,4911 Silver Star Rd,4911,silver star rd,,Province of British Columbia
7766,nan,1995,Valley Farm Road,,Province of Ontario
281,131 duncan lane ,131,duncan lane,,Province of New Brunswick
5947,"4, Chemin Fort-George",4,chemin fort-george,,Province of Quèbec
9692,nan,344,Parkinson Road,,Province of Ontario
21980,13359 81 Ave,13359,81 ave,,Province of British Columbia
21190,2373 Omineca Dr,2373,omineca dr,,Province of British Columbia
1274,300 5119 ELBOW DRIVE SW,300 5119,elbow drive sw,,Province of Alberta
12511,nan,35,Glenroy Avenue,,Province of Ontario
14621,cimarron blvd ,,,,GoDayCare.com
11925,nan,284,Earl Street,,Province of Ontario
8971,nan,3675,Concession Road,,Province of Ontario
19679,2225 Sooke Road,2225,sooke road,,Province of British Columbia
14710,2957 crossley drive ,2957,crossley drive,,GoDayCare.com
10226,nan,155,Red Maple Road,,Province of Ontario
9389,nan,40,Fairlawn Boulevard,,Province of Ontario
18078,9 American Road,9,american road,,Province of Newfoundland and Labrador
20389,4409 Lakeshore Rd,4409,lakeshore rd,,Province of British Columbia
18299,"28 P.R. 240 South St. Claude MB, Canada",,,,Province of Manitoba
3232,850 WEBBER GREENS DRIVE,850,webber greens drive,,Province of Alberta
23017,1155 Thurlow St,1155,thurlow st,,Province of British Columbia
2222,300 - 1 ST.,300,1 st.,,Province of Alberta
18395,None,,,,Province of Manitoba
16761,queen street ,,,,GoDayCare.com
9312,nan,255,Salem Road,,Province of Ontario
11274,nan,1469,Nottinghill Gate,,Province of Ontario
11974,nan,2553,Severn Avenue,,Province of Ontario
6817,"3140, boulevard Rome",3140,boulevard rome,,Province of Quèbec
9822,nan,185,Glenashton Drive,,Province of Ontario
24692,8 Metropolit Rd ,8,metropolit rd,,Yukon Territory
6426,"930B, boulevard de l'Assomption",930b,boulevard de l'assomption,,Province of Quèbec
13570,nan,685,Elgin Street,,Province of Ontario
2488,2312 18 ST. NW,2312,18 st. nw,,Province of Alberta
10079,nan,213,Shorecrest Road,,Province of Ontario
12430,nan,27,Hobin Street,,Province of Ontario
5345,"4901, rue Sainte-Catherine Est",4901,rue sainte-catherine est,,Province of Quèbec
7154,"5110, boulevard Cousineau, #200B",boulevard cousineau,#200b,5110,Province of Quèbec
6305,"266, boulevard de la Concorde Ouest",266,boulevard de la concorde ouest,,Province of Quèbec
15942,wooliston cr ,,,,GoDayCare.com
16098,landry street ,,,,GoDayCare.com
3317,213 TAMARACK AVE,213,tamarack ave,,Province of Alberta
17064,3030 midland ave ,3030,midland ave,,GoDayCare.com
5973,", C.P. 168",,,,Province of Quèbec
11339,nan,473,Oakwood Avenue,,Province of Ontario
5434,"464, avenue Westminster Nord",464,avenue westminster nord,,Province of Quèbec
2768,13825 PARKSIDE DRIVE SE,13825,parkside drive se,,Province of Alberta
16030,elma place ,,,,GoDayCare.com
5489,"4993, boulevard des Sources",4993,boulevard des sources,,Province of Quèbec
11130,nan,2510,Hwy 592,,Province of Ontario
10682,nan,1019,Viscount Road,,Province of Ontario
1554,216 BLUEFOX BLVD NORTH,216,bluefox blvd north,,Province of Alberta
23617,774 Abbott Dr,774,abbott dr,,Province of British Columbia
19255,3657 Fromme Road,3657,fromme road,,Province of British Columbia
22458,32552 Bobcat Dr,32552,bobcat dr,,Province of British Columbia
8865,nan,177,Beverley Street,,Province of Ontario
1159,10 MAIN BOULEVARD,10,main boulevard,,Province of Alberta
21932,201 23Rd St E,201,23rd st e,,Province of British Columbia
12954,nan,294,Lawrence Avenue,,Province of Ontario
10548,nan,245,Young Street,,Province of Ontario
10520,nan,126,Ash Street,,Province of Ontario
5922,"1011, route Naskapi",1011,route naskapi,,Province of Quèbec
9294,nan,186,Centennial Road,,Province of Ontario
5158,"528, rue Rachel Est",528,rue rachel est,,Province of Quèbec
6187,"4125, boulevard de la Concorde Est",4125,boulevard de la concorde est,,Province of Quèbec
22234,3337 Epson Crt,3337,epson crt,,Province of British Columbia
5179,"10, rue Sauvé Ouest",10,rue sauvé ouest,,Province of Quèbec
16785,haig dr. ,,,,GoDayCare.com
1363,147 6TH STREET SE,147,6th street se,,Province of Alberta
415,5 rue de la forge ,5,rue de la forge,,Province of New Brunswick
19844,7685 Bell Rd,7685,bell rd,,Province of British Columbia
22227,8813 113 Ave,8813,113 ave,,Province of British Columbia
295,"4572 rue Principale Saint-Antoine NB, Canada",,,,Province of New Brunswick
19204,2946 Commercial Drive,2946,commercial drive,,Province of British Columbia
2665,100 SIR WINSTON CHURCHILL AVE,100,sir winston churchill ave,,Province of Alberta
11654,nan,75,Jordensen Drive,,Province of Ontario
18559,room #135130gym library 751 crescent road e ,751,crescent road e,room #135130gym library,Province of Manitoba
319,80 promenade newcombe ,80,promenade newcombe,,Province of New Brunswick
18978,142 28th street ,142,28th street,,Province of Manitoba
4859,"5165, avenue de Gaspé",5165,avenue de gaspé,,Province of Quèbec
1104,101/104 9425 94 AVE,101/104,9425 94 ave,,Province of Alberta
13044,nan,59,Karen Crescent,,Province of Ontario
6815,"7200, boulevard du Quartier, suite 200",boulevard du quartier,suite 200,7200,Province of Quèbec
8773,nan,10500,Bathurst Street,,Province of Ontario
19926,3849 Parker St,3849,parker st,,Province of British Columbia
15745,carter ,,,,GoDayCare.com
19402,6053 48A Ave,6053,48a ave,,Province of British Columbia
21525,124 15 St E,124,15 st e,,Province of British Columbia
3513,3580 ALLAN DRIVE SW,3580,allan drive sw,,Province of Alberta
24432,78 dempsey avenue ,78,dempsey avenue,,Province of Saskatchewan
22640,35431 McKee Rd,35431,mckee rd,,Province of British Columbia
21762,406 Glencoe Dr,406,glencoe dr,,Province of British Columbia
4477,"202, rue Aberdeen",202,rue aberdeen,,Province of Quèbec
3350,629 - 49 AVE SW,629,49 ave sw,,Province of Alberta
6401,"561, rue Otapi",561,rue otapi,,Province of Quèbec
21379,1170 Frederick Rd,1170,frederick rd,,Province of British Columbia
5459,"17135, rue Émile-Nelligan",17135,rue émile-nelligan,,Province of Quèbec
22225,1090 Ridgewood Dr,1090,ridgewood dr,,Province of British Columbia
22310,5898 131 St,5898,131 st,,Province of British Columbia
17691,mayo yukon ,mayo,yukon,,GoDayCare.com
19340,1408 Fifth Ave,1408,fifth ave,,Province of British Columbia
14958,45740 thomas road ,45740,thomas road,,GoDayCare.com
12596,nan,4,Edith Street,,Province of Ontario
12434,nan,64,Victoria Drive,,Province of Ontario
24647,101 309 1st avenue northwest ,101 309,1st avenue northwest,,Province of Saskatchewan
18855,dunhartwood hall ,,,,Province of Manitoba
19159,6060 Redfern Cres,6060,redfern cres,,Province of British Columbia
21624,3522 2Nd Ave,3522,2nd ave,,Province of British Columbia
6884,"555, boulevard J.-André-Déragon",555,boulevard j.-andré-déragon,,Province of Quèbec
21625,2668 York Ave,2668,york ave,,Province of British Columbia
24563,16 1st avenue east ,16,1st avenue east,,Province of Saskatchewan
13278,nan,80,Young Street,,Province of Ontario
15090,59 andrew ,59,andrew,,GoDayCare.com
9418,nan,,340 Sixth Avenue South,,Province of Ontario
15268,342 main street ,342,main street,,GoDayCare.com
15973,7 central avenue east ,7,central avenue east,,GoDayCare.com
24620,38 bradbrooke drive ,38,bradbrooke drive,,Province of Saskatchewan
6929,"416, rue Main",416,rue main,,Province of Quèbec
11111,nan,1123,Glenashton Drive,,Province of Ontario
9586,nan,425,Teefy Street,,Province of Ontario
9530,nan,1020,Lancaster Drive,,Province of Ontario
2224,7401 - 23 STREET SE,7401,23 street se,,Province of Alberta
10910,nan,376,Park Street,,Province of Ontario
1895,10571 115 STREET NW,10571,115 street nw,,Province of Alberta
22356,2835 (A) Revelstoke Ct,2835 a,revelstoke ct,,Province of British Columbia
20199,536 44Th Ave E,536,44th ave e,,Province of British Columbia
17822,110 FREDERICK AVE. UNIT,frederick ave.,unit,110,Province of Nova Scotia
10311,nan,455,University Avenue,,Province of Ontario
6617,"13785, rue Latreille",13785,rue latreille,,Province of Quèbec
11408,nan,2000B,Portobello Boulevard,,Province of Ontario
18633,None,,,,Province of Manitoba
8990,nan,238,Burleigh Street,,Province of Ontario
2516,2359 90B STREET SW,2359,90b street sw,,Province of Alberta
3793,6-4800 HWY 2A,6-4800,hwy 2a,,Province of Alberta
11482,nan,15,Bennett Avenue,,Province of Ontario
21186,1521 Westmount Drive,1521,westmount drive,,Province of British Columbia
17168,ribblesdale dr. ,,,,GoDayCare.com
17099,1950 rollin place ,1950,rollin place,,GoDayCare.com
2373,7655 26 AVE SW,7655,26 ave sw,,Province of Alberta
23806,42000 Government Rd,42000,government rd,,Province of British Columbia
19552,6656 Balmoral St,6656,balmoral st,,Province of British Columbia
15372,8 grey place ,8,grey place,,GoDayCare.com
392,392 rue amirault ,392,rue amirault,,Province of New Brunswick
13216,nan,432,Horner Avenue,,Province of Ontario
17634,3737 wascana parkway ,3737,wascana parkway,,GoDayCare.com
5173,"160, rue St-Viateur Est, bureau 421",rue st-viateur est,bureau 421,160,Province of Quèbec
6639,"404, rue Chasles",404,rue chasles,,Province of Quèbec
6533,"2150, avenue Gérard-Leduc",2150,avenue gérard-leduc,,Province of Quèbec
10790,nan,980,DUFFERIN Street,,Province of Ontario
